<?xml version="1.0" encoding="UTF-8" standalone="yes"?>
<gpx version="1.1" creator="OS Maps - Web" xmlns="http://www.topografix.com/GPX/1/1"
xmlns:xsi="http://www.w3.org/2001/XMLSchema-instance"
xsi:schemaLocation="http://www.topografix.com/GPX/1/1 http://www.topografix.com/GPX/1/1/gpx.xsd"
xmlns:gs="http://www.topografix.com/GPX/gpx_style/0/2"
xmlns:gh="https://graphhopper.com/public/schema/gpx/1.1"
xmlns:os="https://ordnancesurvey.co.uk/public/schema/route/0.1">
    <metadata>
        <name>Aleck Low (Ethel) - Circular (www.thelostpeak.co.uk)</name>
        <desc></desc>
        <bounds minlat="53.1095400" minlon="-1.7546400" maxlat="53.1303530" maxlon="-1.6879700"/>
        <extensions>
            <os:version>2.0</os:version>
            <os:point lat="53.1202240" lon="-1.7104910" type="start"/>
            <os:point lat="53.1202240" lon="-1.7104910" type="end"/>
            <os:activity>ON_FOOT_WALKING</os:activity>
            <os:difficulty>MODERATE</os:difficulty>
            <os:paths/>
            <os:distance>11260.9980508</os:distance>
            <os:elevation_ascent>190.4800000</os:elevation_ascent>
        </extensions>
    </metadata>
    <wpt lat="53.1202240" lon="-1.7104910"/>
    <wpt lat="53.1202240" lon="-1.7104910"/>
    <trk>
        <name>Aleck Low (Ethel) - Circular (www.thelostpeak.co.uk)</name>
        <trkseg>
            <trkpt lat="53.1202240" lon="-1.7104910"><ele>327.8</ele></trkpt>
            <trkpt lat="53.1201460" lon="-1.7099980"><ele>327.5</ele></trkpt>
            <trkpt lat="53.1201550" lon="-1.7099730"><ele>327.4</ele></trkpt>
            <trkpt lat="53.1201020" lon="-1.7098910"><ele>327.4</ele></trkpt>
            <trkpt lat="53.1200510" lon="-1.7096240"><ele>327.6</ele></trkpt>
            <trkpt lat="53.1200550" lon="-1.7093870"><ele>327.1</ele></trkpt>
            <trkpt lat="53.1200870" lon="-1.7091450"><ele>326.2</ele></trkpt>
            <trkpt lat="53.1205310" lon="-1.7080060"><ele>319.2</ele></trkpt>
            <trkpt lat="53.1214230" lon="-1.7054970"><ele>322.3</ele></trkpt>
            <trkpt lat="53.1214800" lon="-1.7052580"><ele>323.9</ele></trkpt>
            <trkpt lat="53.1214930" lon="-1.7050430"><ele>325.5</ele></trkpt>
            <trkpt lat="53.1214710" lon="-1.7048500"><ele>326.4</ele></trkpt>
            <trkpt lat="53.1212910" lon="-1.7042700"><ele>327.4</ele></trkpt>
            <trkpt lat="53.1203710" lon="-1.7020470"><ele>324.8</ele></trkpt>
            <trkpt lat="53.1194500" lon="-1.7002460"><ele>324.9</ele></trkpt>
            <trkpt lat="53.1188910" lon="-1.6992210"><ele>327.1</ele></trkpt>
            <trkpt lat="53.1149530" lon="-1.6944310"><ele>325.9</ele></trkpt>
            <trkpt lat="53.1147260" lon="-1.6939430"><ele>328.9</ele></trkpt>
            <trkpt lat="53.1142500" lon="-1.6927410"><ele>333.1</ele></trkpt>
            <trkpt lat="53.1138650" lon="-1.6922780"><ele>334.5</ele></trkpt>
            <trkpt lat="53.1136380" lon="-1.6919200"><ele>337.9</ele></trkpt>
            <trkpt lat="53.1133350" lon="-1.6912180"><ele>345.8</ele></trkpt>
            <trkpt lat="53.1131730" lon="-1.6907070"><ele>353.0</ele></trkpt>
            <trkpt lat="53.1127890" lon="-1.6892470"><ele>365.8</ele></trkpt>
            <trkpt lat="53.1127220" lon="-1.6890620"><ele>368.1</ele></trkpt>
            <trkpt lat="53.1125830" lon="-1.6888250"><ele>370.6</ele></trkpt>
            <trkpt lat="53.1121610" lon="-1.6882870"><ele>372.4</ele></trkpt>
            <trkpt lat="53.1120690" lon="-1.6880380"><ele>371.8</ele></trkpt>
            <trkpt lat="53.1120060" lon="-1.6879700"><ele>371.2</ele></trkpt>
            <trkpt lat="53.1107130" lon="-1.6885910"><ele>347.8</ele></trkpt>
            <trkpt lat="53.1097130" lon="-1.6901860"><ele>336.9</ele></trkpt>
            <trkpt lat="53.1095400" lon="-1.6905050"><ele>335.7</ele></trkpt>
            <trkpt lat="53.1103080" lon="-1.6919770"><ele>335.2</ele></trkpt>
            <trkpt lat="53.1106780" lon="-1.6927660"><ele>335.0</ele></trkpt>
            <trkpt lat="53.1109760" lon="-1.6935250"><ele>335.0</ele></trkpt>
            <trkpt lat="53.1112110" lon="-1.6942870"><ele>334.0</ele></trkpt>
            <trkpt lat="53.1113770" lon="-1.6946000"><ele>332.1</ele></trkpt>
            <trkpt lat="53.1119320" lon="-1.6948090"><ele>329.5</ele></trkpt>
            <trkpt lat="53.1119670" lon="-1.6948590"><ele>328.6</ele></trkpt>
            <trkpt lat="53.1120610" lon="-1.6949180"><ele>327.8</ele></trkpt>
            <trkpt lat="53.1135620" lon="-1.6965540"><ele>310.8</ele></trkpt>
            <trkpt lat="53.1148180" lon="-1.6978390"><ele>303.2</ele></trkpt>
            <trkpt lat="53.1148420" lon="-1.6978930"><ele>303.1</ele></trkpt>
            <trkpt lat="53.1148370" lon="-1.6979710"><ele>303.0</ele></trkpt>
            <trkpt lat="53.1144300" lon="-1.6989020"><ele>301.1</ele></trkpt>
            <trkpt lat="53.1143070" lon="-1.6993450"><ele>300.4</ele></trkpt>
            <trkpt lat="53.1142980" lon="-1.6997810"><ele>299.5</ele></trkpt>
            <trkpt lat="53.1143570" lon="-1.7001750"><ele>299.8</ele></trkpt>
            <trkpt lat="53.1144260" lon="-1.7004180"><ele>300.2</ele></trkpt>
            <trkpt lat="53.1149810" lon="-1.7016250"><ele>305.0</ele></trkpt>
            <trkpt lat="53.1151820" lon="-1.7024460"><ele>309.3</ele></trkpt>
            <trkpt lat="53.1153180" lon="-1.7031630"><ele>312.6</ele></trkpt>
            <trkpt lat="53.1154760" lon="-1.7045420"><ele>312.1</ele></trkpt>
            <trkpt lat="53.1156520" lon="-1.7056080"><ele>312.7</ele></trkpt>
            <trkpt lat="53.1162240" lon="-1.7088190"><ele>318.4</ele></trkpt>
            <trkpt lat="53.1165480" lon="-1.7109870"><ele>326.8</ele></trkpt>
            <trkpt lat="53.1166660" lon="-1.7120220"><ele>325.0</ele></trkpt>
            <trkpt lat="53.1166980" lon="-1.7125080"><ele>325.3</ele></trkpt>
            <trkpt lat="53.1166660" lon="-1.7129830"><ele>326.2</ele></trkpt>
            <trkpt lat="53.1165290" lon="-1.7135670"><ele>324.6</ele></trkpt>
            <trkpt lat="53.1165150" lon="-1.7136800"><ele>324.3</ele></trkpt>
            <trkpt lat="53.1165290" lon="-1.7137690"><ele>324.6</ele></trkpt>
            <trkpt lat="53.1165700" lon="-1.7137680"><ele>325.3</ele></trkpt>
            <trkpt lat="53.1166290" lon="-1.7148960"><ele>323.0</ele></trkpt>
            <trkpt lat="53.1167390" lon="-1.7206760"><ele>331.4</ele></trkpt>
            <trkpt lat="53.1168420" lon="-1.7220720"><ele>337.8</ele></trkpt>
            <trkpt lat="53.1169940" lon="-1.7224190"><ele>338.8</ele></trkpt>
            <trkpt lat="53.1171710" lon="-1.7242930"><ele>348.1</ele></trkpt>
            <trkpt lat="53.1171650" lon="-1.7246060"><ele>350.7</ele></trkpt>
            <trkpt lat="53.1178500" lon="-1.7268360"><ele>363.1</ele></trkpt>
            <trkpt lat="53.1187020" lon="-1.7298890"><ele>376.0</ele></trkpt>
            <trkpt lat="53.1192860" lon="-1.7314330"><ele>377.7</ele></trkpt>
            <trkpt lat="53.1197280" lon="-1.7325250"><ele>375.7</ele></trkpt>
            <trkpt lat="53.1202590" lon="-1.7340070"><ele>374.7</ele></trkpt>
            <trkpt lat="53.1212980" lon="-1.7365350"><ele>373.7</ele></trkpt>
            <trkpt lat="53.1215420" lon="-1.7370520"><ele>373.5</ele></trkpt>
            <trkpt lat="53.1219000" lon="-1.7376200"><ele>372.8</ele></trkpt>
            <trkpt lat="53.1247330" lon="-1.7445760"><ele>367.5</ele></trkpt>
            <trkpt lat="53.1249560" lon="-1.7450930"><ele>366.9</ele></trkpt>
            <trkpt lat="53.1250030" lon="-1.7453400"><ele>366.6</ele></trkpt>
            <trkpt lat="53.1252150" lon="-1.7471820"><ele>365.2</ele></trkpt>
            <trkpt lat="53.1252310" lon="-1.7472780"><ele>365.0</ele></trkpt>
            <trkpt lat="53.1253260" lon="-1.7475210"><ele>365.5</ele></trkpt>
            <trkpt lat="53.1272850" lon="-1.7508710"><ele>354.1</ele></trkpt>
            <trkpt lat="53.1293390" lon="-1.7544680"><ele>345.2</ele></trkpt>
            <trkpt lat="53.1298940" lon="-1.7545880"><ele>343.0</ele></trkpt>
            <trkpt lat="53.1300340" lon="-1.7546400"><ele>342.7</ele></trkpt>
            <trkpt lat="53.1299560" lon="-1.7540690"><ele>343.1</ele></trkpt>
            <trkpt lat="53.1296940" lon="-1.7526940"><ele>352.6</ele></trkpt>
            <trkpt lat="53.1298110" lon="-1.7518960"><ele>357.4</ele></trkpt>
            <trkpt lat="53.1298630" lon="-1.7514480"><ele>359.1</ele></trkpt>
            <trkpt lat="53.1299480" lon="-1.7478890"><ele>374.7</ele></trkpt>
            <trkpt lat="53.1301490" lon="-1.7450730"><ele>382.8</ele></trkpt>
            <trkpt lat="53.1303530" lon="-1.7426690"><ele>385.1</ele></trkpt>
            <trkpt lat="53.1302920" lon="-1.7398800"><ele>386.1</ele></trkpt>
            <trkpt lat="53.1301750" lon="-1.7361740"><ele>373.9</ele></trkpt>
            <trkpt lat="53.1292470" lon="-1.7314510"><ele>338.3</ele></trkpt>
            <trkpt lat="53.1292090" lon="-1.7313800"><ele>338.2</ele></trkpt>
            <trkpt lat="53.1296030" lon="-1.7304890"><ele>335.1</ele></trkpt>
            <trkpt lat="53.1299610" lon="-1.7297850"><ele>331.1</ele></trkpt>
            <trkpt lat="53.1300430" lon="-1.7296000"><ele>330.2</ele></trkpt>
            <trkpt lat="53.1300560" lon="-1.7294810"><ele>329.3</ele></trkpt>
            <trkpt lat="53.1290460" lon="-1.7291420"><ele>327.8</ele></trkpt>
            <trkpt lat="53.1287430" lon="-1.7289460"><ele>330.5</ele></trkpt>
            <trkpt lat="53.1285990" lon="-1.7287030"><ele>330.4</ele></trkpt>
            <trkpt lat="53.1284850" lon="-1.7283110"><ele>328.8</ele></trkpt>
            <trkpt lat="53.1279460" lon="-1.7251710"><ele>326.5</ele></trkpt>
            <trkpt lat="53.1273720" lon="-1.7217310"><ele>329.6</ele></trkpt>
            <trkpt lat="53.1272830" lon="-1.7214670"><ele>328.7</ele></trkpt>
            <trkpt lat="53.1270810" lon="-1.7211070"><ele>327.6</ele></trkpt>
            <trkpt lat="53.1267500" lon="-1.7207540"><ele>328.0</ele></trkpt>
            <trkpt lat="53.1265570" lon="-1.7206350"><ele>327.9</ele></trkpt>
            <trkpt lat="53.1258340" lon="-1.7201970"><ele>330.5</ele></trkpt>
            <trkpt lat="53.1254630" lon="-1.7200110"><ele>329.7</ele></trkpt>
            <trkpt lat="53.1251820" lon="-1.7199410"><ele>328.3</ele></trkpt>
            <trkpt lat="53.1250090" lon="-1.7199620"><ele>327.8</ele></trkpt>
            <trkpt lat="53.1245380" lon="-1.7202660"><ele>328.3</ele></trkpt>
            <trkpt lat="53.1235090" lon="-1.7210500"><ele>331.0</ele></trkpt>
            <trkpt lat="53.1233210" lon="-1.7210540"><ele>329.8</ele></trkpt>
            <trkpt lat="53.1231190" lon="-1.7209130"><ele>329.2</ele></trkpt>
            <trkpt lat="53.1213440" lon="-1.7154950"><ele>335.9</ele></trkpt>
            <trkpt lat="53.1209570" lon="-1.7140350"><ele>338.2</ele></trkpt>
            <trkpt lat="53.1202890" lon="-1.7110480"><ele>328.2</ele></trkpt>
            <trkpt lat="53.1203120" lon="-1.7108770"><ele>327.6</ele></trkpt>
            <trkpt lat="53.1203040" lon="-1.7108310"><ele>327.6</ele></trkpt>
            <trkpt lat="53.1203120" lon="-1.7108770"><ele>327.6</ele></trkpt>
            <trkpt lat="53.1202890" lon="-1.7110480"><ele>328.2</ele></trkpt>
            <trkpt lat="53.1201930" lon="-1.7110140"><ele>328.0</ele></trkpt>
            <trkpt lat="53.1202880" lon="-1.7109000"><ele>327.7</ele></trkpt>
            <trkpt lat="53.1202240" lon="-1.7104910"><ele>327.8</ele></trkpt>
        </trkseg>
    </trk>
<!-- ele-hash:c5624873f06cd986 -->
</gpx>
