<?xml version="1.0" encoding="UTF-8" standalone="yes"?>
<gpx version="1.1" creator="OS Maps - Web" xmlns="http://www.topografix.com/GPX/1/1"
xmlns:xsi="http://www.w3.org/2001/XMLSchema-instance"
xsi:schemaLocation="http://www.topografix.com/GPX/1/1 http://www.topografix.com/GPX/1/1/gpx.xsd"
xmlns:gs="http://www.topografix.com/GPX/gpx_style/0/2"
xmlns:gh="https://graphhopper.com/public/schema/gpx/1.1"
xmlns:os="https://ordnancesurvey.co.uk/public/schema/route/0.1">
    <metadata>
        <name>Alphin Pike &amp; Ashway Moss (Ethels) - Circular (www.thelostpeak.co.uk)</name>
        <desc>www.thelostpeak.co.uk</desc>
        <bounds minlat="53.5104640" minlon="-2.0109460" maxlat="53.5391810" maxlon="-1.9476750"/>
        <extensions>
            <os:version>2.0</os:version>
            <os:point lat="53.5278730" lon="-1.9811869" type="start"/>
            <os:point lat="53.5278710" lon="-1.9810980" type="end"/>
            <os:activity>ON_FOOT_WALKING</os:activity>
            <os:difficulty>MODERATE</os:difficulty>
            <os:paths/>
            <os:distance>15806.5111514</os:distance>
            <os:elevation_ascent>532.2100000</os:elevation_ascent>
            <os:route_type>SINGLE</os:route_type>
        </extensions>
    </metadata>
    <wpt lat="53.5278730" lon="-1.9811869"/>
    <wpt lat="53.5388100" lon="-1.9571400"/>
    <wpt lat="53.5369100" lon="-1.9560300"/>
    <wpt lat="53.5378200" lon="-1.9512200"/>
    <wpt lat="53.5369100" lon="-1.9557800"/>
    <wpt lat="53.5347800" lon="-1.9546100"/>
    <wpt lat="53.5328900" lon="-1.9543700"/>
    <wpt lat="53.5321600" lon="-1.9539700"/>
    <wpt lat="53.5285100" lon="-1.9625300"/>
    <wpt lat="53.5278710" lon="-1.9810980"/>
    <trk>
        <name>Alphin Pike &amp; Ashway Moss (Ethels) - Circular (www.thelostpeak.co.uk)</name>
        <trkseg>
            <trkpt lat="53.5278730" lon="-1.9811869"/>
            <trkpt lat="53.5278710" lon="-1.9810980"/>
            <trkpt lat="53.5272350" lon="-1.9811400"/>
            <trkpt lat="53.5271920" lon="-1.9811910"/>
            <trkpt lat="53.5271430" lon="-1.9810450"/>
            <trkpt lat="53.5271300" lon="-1.9809340"/>
            <trkpt lat="53.5272570" lon="-1.9808600"/>
            <trkpt lat="53.5271790" lon="-1.9808090"/>
            <trkpt lat="53.5272570" lon="-1.9808600"/>
            <trkpt lat="53.5287780" lon="-1.9800870"/>
            <trkpt lat="53.5289230" lon="-1.9800460"/>
            <trkpt lat="53.5301040" lon="-1.9799950"/>
            <trkpt lat="53.5302250" lon="-1.9800040"/>
            <trkpt lat="53.5315230" lon="-1.9805520"/>
            <trkpt lat="53.5316480" lon="-1.9806210"/>
            <trkpt lat="53.5317030" lon="-1.9807480"/>
            <trkpt lat="53.5318150" lon="-1.9807480"/>
            <trkpt lat="53.5318730" lon="-1.9807750"/>
            <trkpt lat="53.5319360" lon="-1.9811030"/>
            <trkpt lat="53.5319510" lon="-1.9810960"/>
            <trkpt lat="53.5319690" lon="-1.9808920"/>
            <trkpt lat="53.5320860" lon="-1.9803300"/>
            <trkpt lat="53.5321600" lon="-1.9796980"/>
            <trkpt lat="53.5323120" lon="-1.9789360"/>
            <trkpt lat="53.5327000" lon="-1.9778100"/>
            <trkpt lat="53.5329760" lon="-1.9769300"/>
            <trkpt lat="53.5330550" lon="-1.9767360"/>
            <trkpt lat="53.5335180" lon="-1.9758640"/>
            <trkpt lat="53.5343060" lon="-1.9741960"/>
            <trkpt lat="53.5347160" lon="-1.9731000"/>
            <trkpt lat="53.5349720" lon="-1.9726180"/>
            <trkpt lat="53.5351620" lon="-1.9723400"/>
            <trkpt lat="53.5353510" lon="-1.9721520"/>
            <trkpt lat="53.5355160" lon="-1.9719330"/>
            <trkpt lat="53.5355490" lon="-1.9715930"/>
            <trkpt lat="53.5356010" lon="-1.9713820"/>
            <trkpt lat="53.5359210" lon="-1.9712080"/>
            <trkpt lat="53.5360630" lon="-1.9711700"/>
            <trkpt lat="53.5361920" lon="-1.9711020"/>
            <trkpt lat="53.5363310" lon="-1.9708680"/>
            <trkpt lat="53.5366780" lon="-1.9705720"/>
            <trkpt lat="53.5368010" lon="-1.9705280"/>
            <trkpt lat="53.5369390" lon="-1.9705810"/>
            <trkpt lat="53.5371060" lon="-1.9707170"/>
            <trkpt lat="53.5371980" lon="-1.9708210"/>
            <trkpt lat="53.5373520" lon="-1.9710740"/>
            <trkpt lat="53.5374130" lon="-1.9712310"/>
            <trkpt lat="53.5378460" lon="-1.9712090"/>
            <trkpt lat="53.5378220" lon="-1.9681710"/>
            <trkpt lat="53.5377720" lon="-1.9680190"/>
            <trkpt lat="53.5376000" lon="-1.9677850"/>
            <trkpt lat="53.5375200" lon="-1.9677000"/>
            <trkpt lat="53.5372100" lon="-1.9674980"/>
            <trkpt lat="53.5368280" lon="-1.9673730"/>
            <trkpt lat="53.5364840" lon="-1.9643730"/>
            <trkpt lat="53.5362920" lon="-1.9623820"/>
            <trkpt lat="53.5362990" lon="-1.9621430"/>
            <trkpt lat="53.5363330" lon="-1.9619680"/>
            <trkpt lat="53.5365250" lon="-1.9614800"/>
            <trkpt lat="53.5365640" lon="-1.9612540"/>
            <trkpt lat="53.5365730" lon="-1.9610230"/>
            <trkpt lat="53.5365300" lon="-1.9604360"/>
            <trkpt lat="53.5365690" lon="-1.9601920"/>
            <trkpt lat="53.5367670" lon="-1.9599760"/>
            <trkpt lat="53.5369360" lon="-1.9599540"/>
            <trkpt lat="53.5372440" lon="-1.9597080"/>
            <trkpt lat="53.5373490" lon="-1.9594660"/>
            <trkpt lat="53.5374260" lon="-1.9594100"/>
            <trkpt lat="53.5375480" lon="-1.9591390"/>
            <trkpt lat="53.5375290" lon="-1.9591400"/>
            <trkpt lat="53.5376860" lon="-1.9591020"/>
            <trkpt lat="53.5380800" lon="-1.9581810"/>
            <trkpt lat="53.5382700" lon="-1.9580860"/>
            <trkpt lat="53.5388250" lon="-1.9581140"/>
            <trkpt lat="53.5389560" lon="-1.9581680"/>
            <trkpt lat="53.5390770" lon="-1.9583020"/>
            <trkpt lat="53.5391810" lon="-1.9586390"/>
            <trkpt lat="53.5390770" lon="-1.9583020"/>
            <trkpt lat="53.5389560" lon="-1.9581680"/>
            <trkpt lat="53.5388320" lon="-1.9577710"/>
            <trkpt lat="53.5388200" lon="-1.9571900"/>
            <trkpt lat="53.5388100" lon="-1.9571400"/>
            <trkpt lat="53.5369100" lon="-1.9560300"/>
            <trkpt lat="53.5378200" lon="-1.9512200"/>
            <trkpt lat="53.5369100" lon="-1.9557800"/>
            <trkpt lat="53.5360300" lon="-1.9553900"/>
            <trkpt lat="53.5359000" lon="-1.9554600"/>
            <trkpt lat="53.5357800" lon="-1.9553700"/>
            <trkpt lat="53.5357300" lon="-1.9552500"/>
            <trkpt lat="53.5353300" lon="-1.9548400"/>
            <trkpt lat="53.5352400" lon="-1.9548000"/>
            <trkpt lat="53.5349100" lon="-1.9544900"/>
            <trkpt lat="53.5347400" lon="-1.9544300"/>
            <trkpt lat="53.5344400" lon="-1.9542400"/>
            <trkpt lat="53.5347000" lon="-1.9544700"/>
            <trkpt lat="53.5347800" lon="-1.9546100"/>
            <trkpt lat="53.5347000" lon="-1.9544700"/>
            <trkpt lat="53.5344400" lon="-1.9542400"/>
            <trkpt lat="53.5342300" lon="-1.9542000"/>
            <trkpt lat="53.5341300" lon="-1.9542600"/>
            <trkpt lat="53.5339900" lon="-1.9542500"/>
            <trkpt lat="53.5338600" lon="-1.9542900"/>
            <trkpt lat="53.5337300" lon="-1.9542900"/>
            <trkpt lat="53.5335900" lon="-1.9543200"/>
            <trkpt lat="53.5334700" lon="-1.9543800"/>
            <trkpt lat="53.5333600" lon="-1.9542600"/>
            <trkpt lat="53.5332200" lon="-1.9543900"/>
            <trkpt lat="53.5328900" lon="-1.9543700"/>
            <trkpt lat="53.5327400" lon="-1.9543700"/>
            <trkpt lat="53.5325800" lon="-1.9544200"/>
            <trkpt lat="53.5324800" lon="-1.9543100"/>
            <trkpt lat="53.5323000" lon="-1.9542200"/>
            <trkpt lat="53.5321600" lon="-1.9539700"/>
            <trkpt lat="53.5320400" lon="-1.9538100"/>
            <trkpt lat="53.5319400" lon="-1.9534400"/>
            <trkpt lat="53.5317400" lon="-1.9532200"/>
            <trkpt lat="53.5316500" lon="-1.9531900"/>
            <trkpt lat="53.5314000" lon="-1.9530200"/>
            <trkpt lat="53.5312600" lon="-1.9529500"/>
            <trkpt lat="53.5312300" lon="-1.9529800"/>
            <trkpt lat="53.5312100" lon="-1.9531100"/>
            <trkpt lat="53.5312800" lon="-1.9533100"/>
            <trkpt lat="53.5313400" lon="-1.9534100"/>
            <trkpt lat="53.5314100" lon="-1.9536300"/>
            <trkpt lat="53.5315000" lon="-1.9538100"/>
            <trkpt lat="53.5315000" lon="-1.9539300"/>
            <trkpt lat="53.5314500" lon="-1.9540900"/>
            <trkpt lat="53.5314500" lon="-1.9541900"/>
            <trkpt lat="53.5314800" lon="-1.9542900"/>
            <trkpt lat="53.5314900" lon="-1.9545000"/>
            <trkpt lat="53.5315300" lon="-1.9545500"/>
            <trkpt lat="53.5315700" lon="-1.9547200"/>
            <trkpt lat="53.5316200" lon="-1.9548400"/>
            <trkpt lat="53.5316600" lon="-1.9549800"/>
            <trkpt lat="53.5316900" lon="-1.9551200"/>
            <trkpt lat="53.5316900" lon="-1.9554000"/>
            <trkpt lat="53.5317000" lon="-1.9554700"/>
            <trkpt lat="53.5316200" lon="-1.9556800"/>
            <trkpt lat="53.5316900" lon="-1.9557300"/>
            <trkpt lat="53.5318200" lon="-1.9559000"/>
            <trkpt lat="53.5325300" lon="-1.9565200"/>
            <trkpt lat="53.5330900" lon="-1.9576000"/>
            <trkpt lat="53.5330600" lon="-1.9586700"/>
            <trkpt lat="53.5326300" lon="-1.9596600"/>
            <trkpt lat="53.5321600" lon="-1.9602800"/>
            <trkpt lat="53.5322100" lon="-1.9606600"/>
            <trkpt lat="53.5321400" lon="-1.9612000"/>
            <trkpt lat="53.5316100" lon="-1.9616000"/>
            <trkpt lat="53.5315600" lon="-1.9619100"/>
            <trkpt lat="53.5313100" lon="-1.9624200"/>
            <trkpt lat="53.5311300" lon="-1.9626400"/>
            <trkpt lat="53.5308100" lon="-1.9627000"/>
            <trkpt lat="53.5305500" lon="-1.9629400"/>
            <trkpt lat="53.5303300" lon="-1.9630000"/>
            <trkpt lat="53.5300300" lon="-1.9631600"/>
            <trkpt lat="53.5299100" lon="-1.9631400"/>
            <trkpt lat="53.5294100" lon="-1.9628900"/>
            <trkpt lat="53.5292500" lon="-1.9629100"/>
            <trkpt lat="53.5285600" lon="-1.9625800"/>
            <trkpt lat="53.5285100" lon="-1.9625300"/>
            <trkpt lat="53.5283690" lon="-1.9624110"/>
            <trkpt lat="53.5281620" lon="-1.9621700"/>
            <trkpt lat="53.5280130" lon="-1.9617520"/>
            <trkpt lat="53.5279400" lon="-1.9616580"/>
            <trkpt lat="53.5277920" lon="-1.9616930"/>
            <trkpt lat="53.5276690" lon="-1.9617860"/>
            <trkpt lat="53.5275780" lon="-1.9618910"/>
            <trkpt lat="53.5273870" lon="-1.9618560"/>
            <trkpt lat="53.5271870" lon="-1.9617730"/>
            <trkpt lat="53.5270180" lon="-1.9616340"/>
            <trkpt lat="53.5266950" lon="-1.9614830"/>
            <trkpt lat="53.5265100" lon="-1.9613490"/>
            <trkpt lat="53.5264060" lon="-1.9611780"/>
            <trkpt lat="53.5252100" lon="-1.9605490"/>
            <trkpt lat="53.5238740" lon="-1.9602800"/>
            <trkpt lat="53.5230660" lon="-1.9598670"/>
            <trkpt lat="53.5213570" lon="-1.9599100"/>
            <trkpt lat="53.5203870" lon="-1.9595670"/>
            <trkpt lat="53.5198770" lon="-1.9587080"/>
            <trkpt lat="53.5194940" lon="-1.9575500"/>
            <trkpt lat="53.5194420" lon="-1.9575310"/>
            <trkpt lat="53.5192720" lon="-1.9576750"/>
            <trkpt lat="53.5190890" lon="-1.9581820"/>
            <trkpt lat="53.5190060" lon="-1.9583240"/>
            <trkpt lat="53.5188380" lon="-1.9583670"/>
            <trkpt lat="53.5186020" lon="-1.9583530"/>
            <trkpt lat="53.5184250" lon="-1.9582830"/>
            <trkpt lat="53.5182930" lon="-1.9583100"/>
            <trkpt lat="53.5180620" lon="-1.9583100"/>
            <trkpt lat="53.5172820" lon="-1.9580880"/>
            <trkpt lat="53.5172200" lon="-1.9581360"/>
            <trkpt lat="53.5170040" lon="-1.9581040"/>
            <trkpt lat="53.5167220" lon="-1.9581550"/>
            <trkpt lat="53.5166070" lon="-1.9581410"/>
            <trkpt lat="53.5164840" lon="-1.9580550"/>
            <trkpt lat="53.5158340" lon="-1.9578220"/>
            <trkpt lat="53.5157280" lon="-1.9578250"/>
            <trkpt lat="53.5156260" lon="-1.9577520"/>
            <trkpt lat="53.5154890" lon="-1.9577600"/>
            <trkpt lat="53.5151700" lon="-1.9576640"/>
            <trkpt lat="53.5150230" lon="-1.9576880"/>
            <trkpt lat="53.5143890" lon="-1.9572710"/>
            <trkpt lat="53.5140440" lon="-1.9570010"/>
            <trkpt lat="53.5139680" lon="-1.9568780"/>
            <trkpt lat="53.5137750" lon="-1.9567470"/>
            <trkpt lat="53.5135560" lon="-1.9562990"/>
            <trkpt lat="53.5129610" lon="-1.9556710"/>
            <trkpt lat="53.5125270" lon="-1.9552460"/>
            <trkpt lat="53.5124780" lon="-1.9549090"/>
            <trkpt lat="53.5124760" lon="-1.9547170"/>
            <trkpt lat="53.5125040" lon="-1.9544970"/>
            <trkpt lat="53.5125060" lon="-1.9539140"/>
            <trkpt lat="53.5125540" lon="-1.9533080"/>
            <trkpt lat="53.5126230" lon="-1.9530250"/>
            <trkpt lat="53.5127070" lon="-1.9528210"/>
            <trkpt lat="53.5128350" lon="-1.9527580"/>
            <trkpt lat="53.5128740" lon="-1.9526860"/>
            <trkpt lat="53.5129350" lon="-1.9524720"/>
            <trkpt lat="53.5129450" lon="-1.9523380"/>
            <trkpt lat="53.5129010" lon="-1.9522480"/>
            <trkpt lat="53.5128810" lon="-1.9520920"/>
            <trkpt lat="53.5126690" lon="-1.9519420"/>
            <trkpt lat="53.5128440" lon="-1.9512880"/>
            <trkpt lat="53.5129970" lon="-1.9508660"/>
            <trkpt lat="53.5131260" lon="-1.9505650"/>
            <trkpt lat="53.5132830" lon="-1.9502720"/>
            <trkpt lat="53.5133640" lon="-1.9500270"/>
            <trkpt lat="53.5135720" lon="-1.9488850"/>
            <trkpt lat="53.5135730" lon="-1.9488200"/>
            <trkpt lat="53.5135490" lon="-1.9487620"/>
            <trkpt lat="53.5131110" lon="-1.9482370"/>
            <trkpt lat="53.5129070" lon="-1.9480300"/>
            <trkpt lat="53.5127950" lon="-1.9478550"/>
            <trkpt lat="53.5126150" lon="-1.9477530"/>
            <trkpt lat="53.5126270" lon="-1.9476750"/>
            <trkpt lat="53.5126150" lon="-1.9477530"/>
            <trkpt lat="53.5125450" lon="-1.9478790"/>
            <trkpt lat="53.5125580" lon="-1.9482440"/>
            <trkpt lat="53.5125190" lon="-1.9484530"/>
            <trkpt lat="53.5123060" lon="-1.9490380"/>
            <trkpt lat="53.5122160" lon="-1.9492100"/>
            <trkpt lat="53.5120920" lon="-1.9496760"/>
            <trkpt lat="53.5120860" lon="-1.9499070"/>
            <trkpt lat="53.5121050" lon="-1.9502020"/>
            <trkpt lat="53.5117860" lon="-1.9516240"/>
            <trkpt lat="53.5117250" lon="-1.9519510"/>
            <trkpt lat="53.5115850" lon="-1.9521120"/>
            <trkpt lat="53.5114950" lon="-1.9523960"/>
            <trkpt lat="53.5113100" lon="-1.9527500"/>
            <trkpt lat="53.5112120" lon="-1.9531690"/>
            <trkpt lat="53.5110940" lon="-1.9535820"/>
            <trkpt lat="53.5109980" lon="-1.9540000"/>
            <trkpt lat="53.5109310" lon="-1.9544450"/>
            <trkpt lat="53.5107950" lon="-1.9549300"/>
            <trkpt lat="53.5107250" lon="-1.9555310"/>
            <trkpt lat="53.5106630" lon="-1.9561990"/>
            <trkpt lat="53.5106370" lon="-1.9569180"/>
            <trkpt lat="53.5104640" lon="-1.9575270"/>
            <trkpt lat="53.5105290" lon="-1.9578410"/>
            <trkpt lat="53.5107570" lon="-1.9585240"/>
            <trkpt lat="53.5107310" lon="-1.9588250"/>
            <trkpt lat="53.5105290" lon="-1.9593000"/>
            <trkpt lat="53.5104990" lon="-1.9595530"/>
            <trkpt lat="53.5105930" lon="-1.9597510"/>
            <trkpt lat="53.5105590" lon="-1.9603050"/>
            <trkpt lat="53.5105670" lon="-1.9606630"/>
            <trkpt lat="53.5107060" lon="-1.9612820"/>
            <trkpt lat="53.5107060" lon="-1.9615820"/>
            <trkpt lat="53.5108270" lon="-1.9626660"/>
            <trkpt lat="53.5107760" lon="-1.9632340"/>
            <trkpt lat="53.5108290" lon="-1.9636450"/>
            <trkpt lat="53.5110670" lon="-1.9641050"/>
            <trkpt lat="53.5111530" lon="-1.9645110"/>
            <trkpt lat="53.5113390" lon="-1.9647500"/>
            <trkpt lat="53.5115690" lon="-1.9655230"/>
            <trkpt lat="53.5118240" lon="-1.9660490"/>
            <trkpt lat="53.5121180" lon="-1.9670460"/>
            <trkpt lat="53.5123020" lon="-1.9676040"/>
            <trkpt lat="53.5123340" lon="-1.9677970"/>
            <trkpt lat="53.5124670" lon="-1.9680840"/>
            <trkpt lat="53.5128430" lon="-1.9684910"/>
            <trkpt lat="53.5130300" lon="-1.9688270"/>
            <trkpt lat="53.5133030" lon="-1.9690060"/>
            <trkpt lat="53.5136490" lon="-1.9691710"/>
            <trkpt lat="53.5138020" lon="-1.9693210"/>
            <trkpt lat="53.5139100" lon="-1.9694820"/>
            <trkpt lat="53.5139190" lon="-1.9696220"/>
            <trkpt lat="53.5140620" lon="-1.9697580"/>
            <trkpt lat="53.5141400" lon="-1.9698790"/>
            <trkpt lat="53.5143060" lon="-1.9697610"/>
            <trkpt lat="53.5146300" lon="-1.9693390"/>
            <trkpt lat="53.5148340" lon="-1.9692530"/>
            <trkpt lat="53.5149680" lon="-1.9692850"/>
            <trkpt lat="53.5153380" lon="-1.9694790"/>
            <trkpt lat="53.5159640" lon="-1.9696750"/>
            <trkpt lat="53.5161350" lon="-1.9697900"/>
            <trkpt lat="53.5163140" lon="-1.9698330"/>
            <trkpt lat="53.5164870" lon="-1.9700610"/>
            <trkpt lat="53.5165880" lon="-1.9703580"/>
            <trkpt lat="53.5167790" lon="-1.9710560"/>
            <trkpt lat="53.5168440" lon="-1.9714560"/>
            <trkpt lat="53.5168930" lon="-1.9716520"/>
            <trkpt lat="53.5170170" lon="-1.9729686"/>
            <trkpt lat="53.5181142" lon="-1.9788265"/>
            <trkpt lat="53.5181470" lon="-1.9788250"/>
            <trkpt lat="53.5182680" lon="-1.9800290"/>
            <trkpt lat="53.5183190" lon="-1.9808640"/>
            <trkpt lat="53.5185730" lon="-1.9818190"/>
            <trkpt lat="53.5186190" lon="-1.9823210"/>
            <trkpt lat="53.5187020" lon="-1.9827900"/>
            <trkpt lat="53.5187210" lon="-1.9831280"/>
            <trkpt lat="53.5187820" lon="-1.9835640"/>
            <trkpt lat="53.5188350" lon="-1.9842330"/>
            <trkpt lat="53.5189090" lon="-1.9849140"/>
            <trkpt lat="53.5189370" lon="-1.9850630"/>
            <trkpt lat="53.5189840" lon="-1.9851670"/>
            <trkpt lat="53.5190160" lon="-1.9853100"/>
            <trkpt lat="53.5191210" lon="-1.9855190"/>
            <trkpt lat="53.5191820" lon="-1.9857390"/>
            <trkpt lat="53.5191720" lon="-1.9859050"/>
            <trkpt lat="53.5192730" lon="-1.9860980"/>
            <trkpt lat="53.5193350" lon="-1.9862910"/>
            <trkpt lat="53.5193460" lon="-1.9864280"/>
            <trkpt lat="53.5193780" lon="-1.9864510"/>
            <trkpt lat="53.5194080" lon="-1.9865670"/>
            <trkpt lat="53.5193980" lon="-1.9866940"/>
            <trkpt lat="53.5194950" lon="-1.9870560"/>
            <trkpt lat="53.5194950" lon="-1.9871490"/>
            <trkpt lat="53.5196150" lon="-1.9876850"/>
            <trkpt lat="53.5196270" lon="-1.9878650"/>
            <trkpt lat="53.5196690" lon="-1.9879950"/>
            <trkpt lat="53.5196750" lon="-1.9881280"/>
            <trkpt lat="53.5197400" lon="-1.9883470"/>
            <trkpt lat="53.5197300" lon="-1.9884900"/>
            <trkpt lat="53.5197600" lon="-1.9886130"/>
            <trkpt lat="53.5197540" lon="-1.9886870"/>
            <trkpt lat="53.5197720" lon="-1.9887460"/>
            <trkpt lat="53.5197460" lon="-1.9888130"/>
            <trkpt lat="53.5197440" lon="-1.9889960"/>
            <trkpt lat="53.5197020" lon="-1.9891020"/>
            <trkpt lat="53.5196710" lon="-1.9892520"/>
            <trkpt lat="53.5196750" lon="-1.9893720"/>
            <trkpt lat="53.5196470" lon="-1.9895120"/>
            <trkpt lat="53.5196610" lon="-1.9896380"/>
            <trkpt lat="53.5196870" lon="-1.9896680"/>
            <trkpt lat="53.5197140" lon="-1.9897880"/>
            <trkpt lat="53.5197950" lon="-1.9899770"/>
            <trkpt lat="53.5198090" lon="-1.9902970"/>
            <trkpt lat="53.5198730" lon="-1.9904170"/>
            <trkpt lat="53.5199120" lon="-1.9905360"/>
            <trkpt lat="53.5199300" lon="-1.9906660"/>
            <trkpt lat="53.5199600" lon="-1.9907230"/>
            <trkpt lat="53.5199710" lon="-1.9907960"/>
            <trkpt lat="53.5199660" lon="-1.9910290"/>
            <trkpt lat="53.5199990" lon="-1.9911720"/>
            <trkpt lat="53.5202090" lon="-1.9917110"/>
            <trkpt lat="53.5203180" lon="-1.9919270"/>
            <trkpt lat="53.5204660" lon="-1.9926640"/>
            <trkpt lat="53.5205940" lon="-1.9931790"/>
            <trkpt lat="53.5211230" lon="-1.9945520"/>
            <trkpt lat="53.5212290" lon="-1.9948900"/>
            <trkpt lat="53.5213090" lon="-1.9952370"/>
            <trkpt lat="53.5214390" lon="-1.9956030"/>
            <trkpt lat="53.5217230" lon="-1.9962950"/>
            <trkpt lat="53.5220210" lon="-1.9969170"/>
            <trkpt lat="53.5220990" lon="-1.9971270"/>
            <trkpt lat="53.5222430" lon="-1.9973200"/>
            <trkpt lat="53.5224660" lon="-1.9978190"/>
            <trkpt lat="53.5225010" lon="-1.9980230"/>
            <trkpt lat="53.5224880" lon="-1.9983280"/>
            <trkpt lat="53.5225040" lon="-1.9985700"/>
            <trkpt lat="53.5224690" lon="-1.9987470"/>
            <trkpt lat="53.5225390" lon="-1.9992140"/>
            <trkpt lat="53.5225970" lon="-1.9993150"/>
            <trkpt lat="53.5226420" lon="-1.9994550"/>
            <trkpt lat="53.5225900" lon="-1.9998090"/>
            <trkpt lat="53.5226350" lon="-2.0001310"/>
            <trkpt lat="53.5228650" lon="-2.0013430"/>
            <trkpt lat="53.5229480" lon="-2.0018800"/>
            <trkpt lat="53.5230750" lon="-2.0023620"/>
            <trkpt lat="53.5230880" lon="-2.0027060"/>
            <trkpt lat="53.5233370" lon="-2.0034680"/>
            <trkpt lat="53.5233500" lon="-2.0037040"/>
            <trkpt lat="53.5234900" lon="-2.0043360"/>
            <trkpt lat="53.5235860" lon="-2.0051300"/>
            <trkpt lat="53.5236490" lon="-2.0053880"/>
            <trkpt lat="53.5237260" lon="-2.0054740"/>
            <trkpt lat="53.5238340" lon="-2.0060100"/>
            <trkpt lat="53.5239870" lon="-2.0060750"/>
            <trkpt lat="53.5241400" lon="-2.0060420"/>
            <trkpt lat="53.5242680" lon="-2.0061500"/>
            <trkpt lat="53.5246660" lon="-2.0059860"/>
            <trkpt lat="53.5247550" lon="-2.0060480"/>
            <trkpt lat="53.5249360" lon="-2.0062530"/>
            <trkpt lat="53.5251550" lon="-2.0066140"/>
            <trkpt lat="53.5252280" lon="-2.0068010"/>
            <trkpt lat="53.5253500" lon="-2.0070080"/>
            <trkpt lat="53.5255500" lon="-2.0074370"/>
            <trkpt lat="53.5258110" lon="-2.0078560"/>
            <trkpt lat="53.5264300" lon="-2.0086280"/>
            <trkpt lat="53.5265000" lon="-2.0092180"/>
            <trkpt lat="53.5265320" lon="-2.0098080"/>
            <trkpt lat="53.5265450" lon="-2.0104310"/>
            <trkpt lat="53.5266050" lon="-2.0105910"/>
            <trkpt lat="53.5266150" lon="-2.0107040"/>
            <trkpt lat="53.5265800" lon="-2.0108810"/>
            <trkpt lat="53.5266050" lon="-2.0109460"/>
            <trkpt lat="53.5270350" lon="-2.0100980"/>
            <trkpt lat="53.5273000" lon="-2.0098500"/>
            <trkpt lat="53.5274910" lon="-2.0095980"/>
            <trkpt lat="53.5275590" lon="-2.0094310"/>
            <trkpt lat="53.5274660" lon="-2.0089870"/>
            <trkpt lat="53.5274210" lon="-2.0086150"/>
            <trkpt lat="53.5269690" lon="-2.0058460"/>
            <trkpt lat="53.5269510" lon="-2.0049210"/>
            <trkpt lat="53.5270470" lon="-2.0043950"/>
            <trkpt lat="53.5271050" lon="-2.0037120"/>
            <trkpt lat="53.5272580" lon="-2.0027300"/>
            <trkpt lat="53.5273140" lon="-2.0025510"/>
            <trkpt lat="53.5274510" lon="-2.0008960"/>
            <trkpt lat="53.5280350" lon="-1.9993750"/>
            <trkpt lat="53.5281020" lon="-1.9992660"/>
            <trkpt lat="53.5282360" lon="-1.9989280"/>
            <trkpt lat="53.5283230" lon="-1.9988220"/>
            <trkpt lat="53.5284260" lon="-1.9987580"/>
            <trkpt lat="53.5284920" lon="-1.9986820"/>
            <trkpt lat="53.5286160" lon="-1.9984400"/>
            <trkpt lat="53.5286950" lon="-1.9982310"/>
            <trkpt lat="53.5287290" lon="-1.9976910"/>
            <trkpt lat="53.5287870" lon="-1.9973720"/>
            <trkpt lat="53.5288050" lon="-1.9971900"/>
            <trkpt lat="53.5287830" lon="-1.9968290"/>
            <trkpt lat="53.5287910" lon="-1.9965190"/>
            <trkpt lat="53.5287240" lon="-1.9957060"/>
            <trkpt lat="53.5286460" lon="-1.9952250"/>
            <trkpt lat="53.5285950" lon="-1.9942550"/>
            <trkpt lat="53.5285670" lon="-1.9921060"/>
            <trkpt lat="53.5282070" lon="-1.9905250"/>
            <trkpt lat="53.5279570" lon="-1.9887450"/>
            <trkpt lat="53.5278840" lon="-1.9884210"/>
            <trkpt lat="53.5276130" lon="-1.9874970"/>
            <trkpt lat="53.5274810" lon="-1.9866620"/>
            <trkpt lat="53.5274300" lon="-1.9862350"/>
            <trkpt lat="53.5274230" lon="-1.9824080"/>
            <trkpt lat="53.5274340" lon="-1.9814230"/>
            <trkpt lat="53.5271960" lon="-1.9813460"/>
            <trkpt lat="53.5271920" lon="-1.9811910"/>
            <trkpt lat="53.5272350" lon="-1.9811400"/>
            <trkpt lat="53.5278710" lon="-1.9810980"/>
        </trkseg>
    </trk>
</gpx>
