<?xml version="1.0" encoding="UTF-8" standalone="yes"?>
<gpx version="1.1" creator="OS Maps - Web" xmlns="http://www.topografix.com/GPX/1/1"
xmlns:xsi="http://www.w3.org/2001/XMLSchema-instance"
xsi:schemaLocation="http://www.topografix.com/GPX/1/1 http://www.topografix.com/GPX/1/1/gpx.xsd"
xmlns:gs="http://www.topografix.com/GPX/gpx_style/0/2"
xmlns:gh="https://graphhopper.com/public/schema/gpx/1.1"
xmlns:os="https://ordnancesurvey.co.uk/public/schema/route/0.1">
    <metadata>
        <name>Alport Moor &amp; Featherbed Top (Ethels) - There &amp; Back (www.thelostpeak.co.uk)</name>
        <desc>www.thelostpeak.co.uk</desc>
        <bounds minlat="53.4254191" minlon="-1.8689493" maxlat="53.4498896" maxlon="-1.8208168"/>
        <extensions>
            <os:version>2.0</os:version>
            <os:point lat="53.4329315" lon="-1.8689366" type="start"/>
            <os:point lat="53.4329229" lon="-1.8688453" type="end"/>
            <os:activity>ON_FOOT_WALKING</os:activity>
            <os:difficulty>MODERATE</os:difficulty>
            <os:paths/>
            <os:distance>11692.3494127</os:distance>
            <os:elevation_ascent>268.2000000</os:elevation_ascent>
        </extensions>
    </metadata>
    <wpt lat="53.4329315" lon="-1.8689366"/>
    <wpt lat="53.4338909" lon="-1.8683383"/>
    <wpt lat="53.4359556" lon="-1.8665015"/>
    <wpt lat="53.4366476" lon="-1.8664806"/>
    <wpt lat="53.4389322" lon="-1.8632659"/>
    <wpt lat="53.4439292" lon="-1.8542240"/>
    <wpt lat="53.4451348" lon="-1.8524063"/>
    <wpt lat="53.4476352" lon="-1.8521473"/>
    <wpt lat="53.4487133" lon="-1.8535414"/>
    <wpt lat="53.4491369" lon="-1.8530831"/>
    <wpt lat="53.4495985" lon="-1.8552325"/>
    <wpt lat="53.4496823" lon="-1.8550648"/>
    <wpt lat="53.4494813" lon="-1.8541158"/>
    <wpt lat="53.4495915" lon="-1.8525085"/>
    <wpt lat="53.4494790" lon="-1.8517485"/>
    <wpt lat="53.4497424" lon="-1.8489666"/>
    <wpt lat="53.4494973" lon="-1.8476184"/>
    <wpt lat="53.4496691" lon="-1.8462254"/>
    <wpt lat="53.4495717" lon="-1.8453768"/>
    <wpt lat="53.4498731" lon="-1.8445051"/>
    <wpt lat="53.4498621" lon="-1.8432240"/>
    <wpt lat="53.4497377" lon="-1.8423204"/>
    <wpt lat="53.4495956" lon="-1.8423434"/>
    <wpt lat="53.4488569" lon="-1.8412680"/>
    <wpt lat="53.4484975" lon="-1.8398906"/>
    <wpt lat="53.4485457" lon="-1.8379436"/>
    <wpt lat="53.4475834" lon="-1.8343243"/>
    <wpt lat="53.4479956" lon="-1.8334651"/>
    <wpt lat="53.4480479" lon="-1.8326129"/>
    <wpt lat="53.4476873" lon="-1.8319576"/>
    <wpt lat="53.4474176" lon="-1.8300147"/>
    <wpt lat="53.4474006" lon="-1.8278801"/>
    <wpt lat="53.4477242" lon="-1.8270772"/>
    <wpt lat="53.4477861" lon="-1.8263904"/>
    <wpt lat="53.4470647" lon="-1.8255400"/>
    <wpt lat="53.4467807" lon="-1.8245651"/>
    <wpt lat="53.4474175" lon="-1.8217155"/>
    <wpt lat="53.4478032" lon="-1.8208168"/>
    <wpt lat="53.4470376" lon="-1.8229985"/>
    <wpt lat="53.4467082" lon="-1.8245621"/>
    <wpt lat="53.4470058" lon="-1.8254772"/>
    <wpt lat="53.4477642" lon="-1.8264796"/>
    <wpt lat="53.4473749" lon="-1.8279294"/>
    <wpt lat="53.4473532" lon="-1.8299967"/>
    <wpt lat="53.4476369" lon="-1.8314021"/>
    <wpt lat="53.4475951" lon="-1.8319898"/>
    <wpt lat="53.4480291" lon="-1.8327066"/>
    <wpt lat="53.4475688" lon="-1.8342794"/>
    <wpt lat="53.4485452" lon="-1.8380626"/>
    <wpt lat="53.4484014" lon="-1.8398580"/>
    <wpt lat="53.4487980" lon="-1.8412324"/>
    <wpt lat="53.4496963" lon="-1.8423778"/>
    <wpt lat="53.4497636" lon="-1.8428667"/>
    <wpt lat="53.4498597" lon="-1.8444845"/>
    <wpt lat="53.4495355" lon="-1.8453589"/>
    <wpt lat="53.4496438" lon="-1.8462421"/>
    <wpt lat="53.4494423" lon="-1.8477305"/>
    <wpt lat="53.4497194" lon="-1.8490236"/>
    <wpt lat="53.4497471" lon="-1.8498851"/>
    <wpt lat="53.4494329" lon="-1.8517261"/>
    <wpt lat="53.4495970" lon="-1.8525377"/>
    <wpt lat="53.4494580" lon="-1.8540877"/>
    <wpt lat="53.4495962" lon="-1.8551859"/>
    <wpt lat="53.4491236" lon="-1.8531202"/>
    <wpt lat="53.4487292" lon="-1.8535748"/>
    <wpt lat="53.4476339" lon="-1.8522003"/>
    <wpt lat="53.4451488" lon="-1.8524041"/>
    <wpt lat="53.4423339" lon="-1.8569938"/>
    <wpt lat="53.4389135" lon="-1.8632574"/>
    <wpt lat="53.4366662" lon="-1.8664648"/>
    <wpt lat="53.4359656" lon="-1.8665281"/>
    <wpt lat="53.4338873" lon="-1.8684869"/>
    <wpt lat="53.4329217" lon="-1.8689493"/>
    <wpt lat="53.4288457" lon="-1.8676751"/>
    <wpt lat="53.4254191" lon="-1.8651340"/>
    <wpt lat="53.4287927" lon="-1.8675772"/>
    <wpt lat="53.4329229" lon="-1.8688453"/>
    <trk>
        <name>Alport Moor &amp; Featherbed Top (Ethels) - There &amp; Back (www.thelostpeak.co.uk)</name>
        <trkseg>
            <trkpt lat="53.4329315" lon="-1.8689366"><ele>512.0</ele></trkpt>
            <trkpt lat="53.4338909" lon="-1.8683383"><ele>512.7</ele></trkpt>
            <trkpt lat="53.4359556" lon="-1.8665015"><ele>514.4</ele></trkpt>
            <trkpt lat="53.4366476" lon="-1.8664806"><ele>515.9</ele></trkpt>
            <trkpt lat="53.4389322" lon="-1.8632659"><ele>521.4</ele></trkpt>
            <trkpt lat="53.4409900" lon="-1.8594730"><ele>532.3</ele></trkpt>
            <trkpt lat="53.4439292" lon="-1.8542240"><ele>554.3</ele></trkpt>
            <trkpt lat="53.4451348" lon="-1.8524063"><ele>565.6</ele></trkpt>
            <trkpt lat="53.4476352" lon="-1.8521473"><ele>574.4</ele></trkpt>
            <trkpt lat="53.4487133" lon="-1.8535414"><ele>569.0</ele></trkpt>
            <trkpt lat="53.4491369" lon="-1.8530831"><ele>561.9</ele></trkpt>
            <trkpt lat="53.4495985" lon="-1.8552325"><ele>569.3</ele></trkpt>
            <trkpt lat="53.4496823" lon="-1.8550648"><ele>569.2</ele></trkpt>
            <trkpt lat="53.4496367" lon="-1.8547647"><ele>568.6</ele></trkpt>
            <trkpt lat="53.4495226" lon="-1.8544644"><ele>567.2</ele></trkpt>
            <trkpt lat="53.4494813" lon="-1.8541158"><ele>565.8</ele></trkpt>
            <trkpt lat="53.4494735" lon="-1.8536880"><ele>564.4</ele></trkpt>
            <trkpt lat="53.4494888" lon="-1.8533731"><ele>563.4</ele></trkpt>
            <trkpt lat="53.4495268" lon="-1.8531393"><ele>562.7</ele></trkpt>
            <trkpt lat="53.4495356" lon="-1.8528627"><ele>560.1</ele></trkpt>
            <trkpt lat="53.4495915" lon="-1.8525085"><ele>557.6</ele></trkpt>
            <trkpt lat="53.4494790" lon="-1.8517485"><ele>547.6</ele></trkpt>
            <trkpt lat="53.4494905" lon="-1.8513726"><ele>544.6</ele></trkpt>
            <trkpt lat="53.4495220" lon="-1.8510653"><ele>541.9</ele></trkpt>
            <trkpt lat="53.4496956" lon="-1.8501939"><ele>537.6</ele></trkpt>
            <trkpt lat="53.4497481" lon="-1.8498661"><ele>536.2</ele></trkpt>
            <trkpt lat="53.4497325" lon="-1.8494990"><ele>532.9</ele></trkpt>
            <trkpt lat="53.4497424" lon="-1.8489666"><ele>527.1</ele></trkpt>
            <trkpt lat="53.4496775" lon="-1.8485417"><ele>521.9</ele></trkpt>
            <trkpt lat="53.4495129" lon="-1.8477865"><ele>515.8</ele></trkpt>
            <trkpt lat="53.4494973" lon="-1.8476184"><ele>514.8</ele></trkpt>
            <trkpt lat="53.4495148" lon="-1.8472835"><ele>513.3</ele></trkpt>
            <trkpt lat="53.4496195" lon="-1.8467544"><ele>511.7</ele></trkpt>
            <trkpt lat="53.4496691" lon="-1.8462254"><ele>509.0</ele></trkpt>
            <trkpt lat="53.4496445" lon="-1.8458275"><ele>506.5</ele></trkpt>
            <trkpt lat="53.4495590" lon="-1.8456884"><ele>505.9</ele></trkpt>
            <trkpt lat="53.4495717" lon="-1.8453768"><ele>504.9</ele></trkpt>
            <trkpt lat="53.4496927" lon="-1.8449016"><ele>504.1</ele></trkpt>
            <trkpt lat="53.4498731" lon="-1.8445051"><ele>504.0</ele></trkpt>
            <trkpt lat="53.4498728" lon="-1.8441818"><ele>504.1</ele></trkpt>
            <trkpt lat="53.4498807" lon="-1.8441673"><ele>504.1</ele></trkpt>
            <trkpt lat="53.4498131" lon="-1.8440249"><ele>504.5</ele></trkpt>
            <trkpt lat="53.4498896" lon="-1.8436992"><ele>504.4</ele></trkpt>
            <trkpt lat="53.4498621" lon="-1.8432240"><ele>503.8</ele></trkpt>
            <trkpt lat="53.4497377" lon="-1.8423204"><ele>501.5</ele></trkpt>
            <trkpt lat="53.4495956" lon="-1.8423434"><ele>501.6</ele></trkpt>
            <trkpt lat="53.4495015" lon="-1.8421737"><ele>501.0</ele></trkpt>
            <trkpt lat="53.4492303" lon="-1.8418695"><ele>500.0</ele></trkpt>
            <trkpt lat="53.4490688" lon="-1.8416554"><ele>498.9</ele></trkpt>
            <trkpt lat="53.4488569" lon="-1.8412680"><ele>498.5</ele></trkpt>
            <trkpt lat="53.4487336" lon="-1.8407856"><ele>497.3</ele></trkpt>
            <trkpt lat="53.4486157" lon="-1.8404799"><ele>496.6</ele></trkpt>
            <trkpt lat="53.4484975" lon="-1.8398906"><ele>497.9</ele></trkpt>
            <trkpt lat="53.4484539" lon="-1.8393420"><ele>498.8</ele></trkpt>
            <trkpt lat="53.4485375" lon="-1.8385933"><ele>501.5</ele></trkpt>
            <trkpt lat="53.4485457" lon="-1.8379436"><ele>503.8</ele></trkpt>
            <trkpt lat="53.4483376" lon="-1.8372297"><ele>500.3</ele></trkpt>
            <trkpt lat="53.4481405" lon="-1.8367095"><ele>496.1</ele></trkpt>
            <trkpt lat="53.4480994" lon="-1.8361409"><ele>495.5</ele></trkpt>
            <trkpt lat="53.4478675" lon="-1.8354519"><ele>494.9</ele></trkpt>
            <trkpt lat="53.4475834" lon="-1.8343243"><ele>489.6</ele></trkpt>
            <trkpt lat="53.4479956" lon="-1.8334651"><ele>504.4</ele></trkpt>
            <trkpt lat="53.4480479" lon="-1.8326129"><ele>507.9</ele></trkpt>
            <trkpt lat="53.4476873" lon="-1.8319576"><ele>504.2</ele></trkpt>
            <trkpt lat="53.4476739" lon="-1.8314711"><ele>505.9</ele></trkpt>
            <trkpt lat="53.4475182" lon="-1.8311587"><ele>505.7</ele></trkpt>
            <trkpt lat="53.4475615" lon="-1.8305361"><ele>508.2</ele></trkpt>
            <trkpt lat="53.4474176" lon="-1.8300147"><ele>508.0</ele></trkpt>
            <trkpt lat="53.4473830" lon="-1.8287618"><ele>509.9</ele></trkpt>
            <trkpt lat="53.4474006" lon="-1.8278801"><ele>514.6</ele></trkpt>
            <trkpt lat="53.4475599" lon="-1.8274582"><ele>515.9</ele></trkpt>
            <trkpt lat="53.4477242" lon="-1.8270772"><ele>515.4</ele></trkpt>
            <trkpt lat="53.4477861" lon="-1.8263904"><ele>515.1</ele></trkpt>
            <trkpt lat="53.4470647" lon="-1.8255400"><ele>527.6</ele></trkpt>
            <trkpt lat="53.4468527" lon="-1.8247473"><ele>529.6</ele></trkpt>
            <trkpt lat="53.4467807" lon="-1.8245651"><ele>529.6</ele></trkpt>
            <trkpt lat="53.4470647" lon="-1.8230164"><ele>532.5</ele></trkpt>
            <trkpt lat="53.4474175" lon="-1.8217155"><ele>530.9</ele></trkpt>
            <trkpt lat="53.4478032" lon="-1.8208168"><ele>532.8</ele></trkpt>
            <trkpt lat="53.4474060" lon="-1.8217551"><ele>530.9</ele></trkpt>
            <trkpt lat="53.4470376" lon="-1.8229985"><ele>532.4</ele></trkpt>
            <trkpt lat="53.4467082" lon="-1.8245621"><ele>529.3</ele></trkpt>
            <trkpt lat="53.4468392" lon="-1.8248059"><ele>529.6</ele></trkpt>
            <trkpt lat="53.4470058" lon="-1.8254772"><ele>528.1</ele></trkpt>
            <trkpt lat="53.4477642" lon="-1.8264796"><ele>515.1</ele></trkpt>
            <trkpt lat="53.4476951" lon="-1.8270595"><ele>515.6</ele></trkpt>
            <trkpt lat="53.4475366" lon="-1.8273987"><ele>516.1</ele></trkpt>
            <trkpt lat="53.4473749" lon="-1.8279294"><ele>514.4</ele></trkpt>
            <trkpt lat="53.4473551" lon="-1.8288185"><ele>509.7</ele></trkpt>
            <trkpt lat="53.4473532" lon="-1.8299967"><ele>507.6</ele></trkpt>
            <trkpt lat="53.4475200" lon="-1.8305621"><ele>507.6</ele></trkpt>
            <trkpt lat="53.4475226" lon="-1.8310885"><ele>506.1</ele></trkpt>
            <trkpt lat="53.4476369" lon="-1.8314021"><ele>506.1</ele></trkpt>
            <trkpt lat="53.4475951" lon="-1.8319898"><ele>502.5</ele></trkpt>
            <trkpt lat="53.4477553" lon="-1.8321867"><ele>504.2</ele></trkpt>
            <trkpt lat="53.4480291" lon="-1.8327066"><ele>507.0</ele></trkpt>
            <trkpt lat="53.4479203" lon="-1.8334069"><ele>502.5</ele></trkpt>
            <trkpt lat="53.4475688" lon="-1.8342794"><ele>488.8</ele></trkpt>
            <trkpt lat="53.4478053" lon="-1.8355582"><ele>492.8</ele></trkpt>
            <trkpt lat="53.4480762" lon="-1.8362036"><ele>494.8</ele></trkpt>
            <trkpt lat="53.4481155" lon="-1.8366704"><ele>495.5</ele></trkpt>
            <trkpt lat="53.4482955" lon="-1.8371956"><ele>499.4</ele></trkpt>
            <trkpt lat="53.4485452" lon="-1.8380626"><ele>503.6</ele></trkpt>
            <trkpt lat="53.4485196" lon="-1.8385649"><ele>501.4</ele></trkpt>
            <trkpt lat="53.4483998" lon="-1.8392975"><ele>499.0</ele></trkpt>
            <trkpt lat="53.4484014" lon="-1.8398580"><ele>498.6</ele></trkpt>
            <trkpt lat="53.4485966" lon="-1.8404895"><ele>496.8</ele></trkpt>
            <trkpt lat="53.4487193" lon="-1.8407555"><ele>497.1</ele></trkpt>
            <trkpt lat="53.4487980" lon="-1.8412324"><ele>498.5</ele></trkpt>
            <trkpt lat="53.4490644" lon="-1.8416218"><ele>498.8</ele></trkpt>
            <trkpt lat="53.4491893" lon="-1.8418939"><ele>499.9</ele></trkpt>
            <trkpt lat="53.4496963" lon="-1.8423778"><ele>501.6</ele></trkpt>
            <trkpt lat="53.4497636" lon="-1.8428667"><ele>503.1</ele></trkpt>
            <trkpt lat="53.4498195" lon="-1.8437787"><ele>504.7</ele></trkpt>
            <trkpt lat="53.4498135" lon="-1.8441137"><ele>504.4</ele></trkpt>
            <trkpt lat="53.4498597" lon="-1.8444845"><ele>504.0</ele></trkpt>
            <trkpt lat="53.4496326" lon="-1.8448232"><ele>504.2</ele></trkpt>
            <trkpt lat="53.4495355" lon="-1.8453589"><ele>504.9</ele></trkpt>
            <trkpt lat="53.4495195" lon="-1.8456059"><ele>505.9</ele></trkpt>
            <trkpt lat="53.4496236" lon="-1.8458479"><ele>506.6</ele></trkpt>
            <trkpt lat="53.4496438" lon="-1.8462421"><ele>508.8</ele></trkpt>
            <trkpt lat="53.4494938" lon="-1.8472887"><ele>513.2</ele></trkpt>
            <trkpt lat="53.4494423" lon="-1.8477305"><ele>515.6</ele></trkpt>
            <trkpt lat="53.4497194" lon="-1.8490236"><ele>527.2</ele></trkpt>
            <trkpt lat="53.4497471" lon="-1.8498851"><ele>536.2</ele></trkpt>
            <trkpt lat="53.4496596" lon="-1.8502162"><ele>537.4</ele></trkpt>
            <trkpt lat="53.4495091" lon="-1.8513258"><ele>544.9</ele></trkpt>
            <trkpt lat="53.4494329" lon="-1.8517261"><ele>546.8</ele></trkpt>
            <trkpt lat="53.4495970" lon="-1.8525377"><ele>558.1</ele></trkpt>
            <trkpt lat="53.4494870" lon="-1.8534638"><ele>563.7</ele></trkpt>
            <trkpt lat="53.4494580" lon="-1.8540877"><ele>565.5</ele></trkpt>
            <trkpt lat="53.4496236" lon="-1.8548334"><ele>568.6</ele></trkpt>
            <trkpt lat="53.4495962" lon="-1.8551859"><ele>569.2</ele></trkpt>
            <trkpt lat="53.4491236" lon="-1.8531202"><ele>562.2</ele></trkpt>
            <trkpt lat="53.4487292" lon="-1.8535748"><ele>569.1</ele></trkpt>
            <trkpt lat="53.4476339" lon="-1.8522003"><ele>574.4</ele></trkpt>
            <trkpt lat="53.4451488" lon="-1.8524041"><ele>565.6</ele></trkpt>
            <trkpt lat="53.4439168" lon="-1.8543226"><ele>553.6</ele></trkpt>
            <trkpt lat="53.4423339" lon="-1.8569938"><ele>538.5</ele></trkpt>
            <trkpt lat="53.4389135" lon="-1.8632574"><ele>521.3</ele></trkpt>
            <trkpt lat="53.4366662" lon="-1.8664648"><ele>515.9</ele></trkpt>
            <trkpt lat="53.4359656" lon="-1.8665281"><ele>514.4</ele></trkpt>
            <trkpt lat="53.4338873" lon="-1.8684869"><ele>512.7</ele></trkpt>
            <trkpt lat="53.4329217" lon="-1.8689493"><ele>512.0</ele></trkpt>
            <trkpt lat="53.4319120" lon="-1.8685064"><ele>510.1</ele></trkpt>
            <trkpt lat="53.4312090" lon="-1.8684986"><ele>511.4</ele></trkpt>
            <trkpt lat="53.4300884" lon="-1.8680048"><ele>518.5</ele></trkpt>
            <trkpt lat="53.4288457" lon="-1.8676751"><ele>522.0</ele></trkpt>
            <trkpt lat="53.4276394" lon="-1.8667903"><ele>533.4</ele></trkpt>
            <trkpt lat="53.4267353" lon="-1.8662591"><ele>537.5</ele></trkpt>
            <trkpt lat="53.4258841" lon="-1.8655040"><ele>543.1</ele></trkpt>
            <trkpt lat="53.4254191" lon="-1.8651340"><ele>545.7</ele></trkpt>
            <trkpt lat="53.4263596" lon="-1.8658436"><ele>539.0</ele></trkpt>
            <trkpt lat="53.4267090" lon="-1.8662142"><ele>537.6</ele></trkpt>
            <trkpt lat="53.4287927" lon="-1.8675772"><ele>522.7</ele></trkpt>
            <trkpt lat="53.4300225" lon="-1.8679238"><ele>518.7</ele></trkpt>
            <trkpt lat="53.4311792" lon="-1.8684349"><ele>511.5</ele></trkpt>
            <trkpt lat="53.4319157" lon="-1.8684015"><ele>510.4</ele></trkpt>
            <trkpt lat="53.4329229" lon="-1.8688453"><ele>512.0</ele></trkpt>
        </trkseg>
    </trk>
<!-- ele-hash:e7ac5f77351219d0 -->
</gpx>
