<?xml version="1.0" encoding="UTF-8" standalone="yes"?>
<gpx version="1.1" creator="OS Maps - Web" xmlns="http://www.topografix.com/GPX/1/1"
xmlns:xsi="http://www.w3.org/2001/XMLSchema-instance"
xsi:schemaLocation="http://www.topografix.com/GPX/1/1 http://www.topografix.com/GPX/1/1/gpx.xsd"
xmlns:gs="http://www.topografix.com/GPX/gpx_style/0/2"
xmlns:gh="https://graphhopper.com/public/schema/gpx/1.1"
xmlns:os="https://ordnancesurvey.co.uk/public/schema/route/0.1">
    <metadata>
        <name>Black Chew Head &amp; Featherbed Moss (Ethels) - There &amp; Back (www.thelostpeak.co.uk)</name>
        <desc>www.thelostpeak.co.uk</desc>
        <bounds minlat="53.4883575" minlon="-1.9316182" maxlat="53.5145084" maxlon="-1.8911932"/>
        <extensions>
            <os:version>2.0</os:version>
            <os:point lat="53.4900677" lon="-1.8924114" type="start"/>
            <os:point lat="53.4901044" lon="-1.8924567" type="end"/>
            <os:activity>ON_FOOT_WALKING</os:activity>
            <os:difficulty>MODERATE</os:difficulty>
            <os:paths/>
            <os:distance>10555.5559679</os:distance>
            <os:elevation_ascent>394.1900000</os:elevation_ascent>
        </extensions>
    </metadata>
    <wpt lat="53.4900677" lon="-1.8924114"/>
    <wpt lat="53.4904398" lon="-1.8923849"/>
    <wpt lat="53.4909318" lon="-1.8913348"/>
    <wpt lat="53.4913564" lon="-1.8931689"/>
    <wpt lat="53.4913325" lon="-1.8938614"/>
    <wpt lat="53.4910513" lon="-1.8948948"/>
    <wpt lat="53.4895120" lon="-1.8955591"/>
    <wpt lat="53.4886381" lon="-1.8968568"/>
    <wpt lat="53.4883575" lon="-1.8981087"/>
    <wpt lat="53.4894100" lon="-1.8991299"/>
    <wpt lat="53.4902316" lon="-1.8994588"/>
    <wpt lat="53.4904544" lon="-1.9001080"/>
    <wpt lat="53.4928284" lon="-1.9001139"/>
    <wpt lat="53.4948251" lon="-1.9017798"/>
    <wpt lat="53.4956304" lon="-1.9017190"/>
    <wpt lat="53.4970633" lon="-1.9028509"/>
    <wpt lat="53.4981222" lon="-1.9040815"/>
    <wpt lat="53.5001106" lon="-1.9070550"/>
    <wpt lat="53.5013900" lon="-1.9069149"/>
    <wpt lat="53.5022183" lon="-1.9083528"/>
    <wpt lat="53.5027326" lon="-1.9087986"/>
    <wpt lat="53.5030509" lon="-1.9096192"/>
    <wpt lat="53.5045497" lon="-1.9119076"/>
    <wpt lat="53.5048028" lon="-1.9131168"/>
    <wpt lat="53.5057832" lon="-1.9141653"/>
    <wpt lat="53.5068075" lon="-1.9148857"/>
    <wpt lat="53.5071854" lon="-1.9161968"/>
    <wpt lat="53.5084834" lon="-1.9163736"/>
    <wpt lat="53.5096025" lon="-1.9177119"/>
    <wpt lat="53.5111627" lon="-1.9201297"/>
    <wpt lat="53.5123675" lon="-1.9186802"/>
    <wpt lat="53.5129403" lon="-1.9173200"/>
    <wpt lat="53.5145084" lon="-1.9167721"/>
    <wpt lat="53.5128520" lon="-1.9172837"/>
    <wpt lat="53.5123085" lon="-1.9186568"/>
    <wpt lat="53.5111770" lon="-1.9198200"/>
    <wpt lat="53.5099831" lon="-1.9217065"/>
    <wpt lat="53.5096237" lon="-1.9238211"/>
    <wpt lat="53.5087420" lon="-1.9256637"/>
    <wpt lat="53.5084707" lon="-1.9271221"/>
    <wpt lat="53.5070698" lon="-1.9316182"/>
    <wpt lat="53.5084708" lon="-1.9271839"/>
    <wpt lat="53.5088080" lon="-1.9254535"/>
    <wpt lat="53.5096607" lon="-1.9236465"/>
    <wpt lat="53.5099860" lon="-1.9215283"/>
    <wpt lat="53.5111613" lon="-1.9197711"/>
    <wpt lat="53.5104105" lon="-1.9188965"/>
    <wpt lat="53.5096532" lon="-1.9174305"/>
    <wpt lat="53.5089912" lon="-1.9169255"/>
    <wpt lat="53.5084690" lon="-1.9161982"/>
    <wpt lat="53.5071768" lon="-1.9160288"/>
    <wpt lat="53.5068926" lon="-1.9147597"/>
    <wpt lat="53.5057746" lon="-1.9141331"/>
    <wpt lat="53.5047750" lon="-1.9131242"/>
    <wpt lat="53.5046161" lon="-1.9117007"/>
    <wpt lat="53.5039615" lon="-1.9111341"/>
    <wpt lat="53.5037625" lon="-1.9103568"/>
    <wpt lat="53.5029394" lon="-1.9095816"/>
    <wpt lat="53.5014180" lon="-1.9067298"/>
    <wpt lat="53.5001023" lon="-1.9069921"/>
    <wpt lat="53.4981473" lon="-1.9038762"/>
    <wpt lat="53.4956593" lon="-1.9016295"/>
    <wpt lat="53.4948150" lon="-1.9015946"/>
    <wpt lat="53.4927227" lon="-1.8998387"/>
    <wpt lat="53.4921785" lon="-1.8997165"/>
    <wpt lat="53.4904452" lon="-1.9000045"/>
    <wpt lat="53.4901952" lon="-1.8993883"/>
    <wpt lat="53.4883763" lon="-1.8978900"/>
    <wpt lat="53.4886250" lon="-1.8966796"/>
    <wpt lat="53.4892785" lon="-1.8961460"/>
    <wpt lat="53.4895630" lon="-1.8950879"/>
    <wpt lat="53.4910699" lon="-1.8948124"/>
    <wpt lat="53.4912973" lon="-1.8939717"/>
    <wpt lat="53.4910224" lon="-1.8911932"/>
    <wpt lat="53.4904792" lon="-1.8923565"/>
    <wpt lat="53.4901044" lon="-1.8924567"/>
    <trk>
        <name>Black Chew Head &amp; Featherbed Moss (Ethels) - There &amp; Back (www.thelostpeak.co.uk)</name>
        <trkseg>
            <trkpt lat="53.4900677" lon="-1.8924114"><ele>211.8</ele></trkpt>
            <trkpt lat="53.4904398" lon="-1.8923849"><ele>214.5</ele></trkpt>
            <trkpt lat="53.4907510" lon="-1.8916906"><ele>222.6</ele></trkpt>
            <trkpt lat="53.4909318" lon="-1.8913348"><ele>227.0</ele></trkpt>
            <trkpt lat="53.4913564" lon="-1.8931689"><ele>214.8</ele></trkpt>
            <trkpt lat="53.4913325" lon="-1.8938614"><ele>213.8</ele></trkpt>
            <trkpt lat="53.4910513" lon="-1.8948948"><ele>213.3</ele></trkpt>
            <trkpt lat="53.4905429" lon="-1.8952010"><ele>212.0</ele></trkpt>
            <trkpt lat="53.4900398" lon="-1.8953125"><ele>216.5</ele></trkpt>
            <trkpt lat="53.4895120" lon="-1.8955591"><ele>221.8</ele></trkpt>
            <trkpt lat="53.4892010" lon="-1.8961515"><ele>229.1</ele></trkpt>
            <trkpt lat="53.4886381" lon="-1.8968568"><ele>236.0</ele></trkpt>
            <trkpt lat="53.4883575" lon="-1.8981087"><ele>245.4</ele></trkpt>
            <trkpt lat="53.4889515" lon="-1.8986147"><ele>248.8</ele></trkpt>
            <trkpt lat="53.4894100" lon="-1.8991299"><ele>253.2</ele></trkpt>
            <trkpt lat="53.4902316" lon="-1.8994588"><ele>255.2</ele></trkpt>
            <trkpt lat="53.4904544" lon="-1.9001080"><ele>262.7</ele></trkpt>
            <trkpt lat="53.4913354" lon="-1.8999886"><ele>262.5</ele></trkpt>
            <trkpt lat="53.4921924" lon="-1.9000045"><ele>268.0</ele></trkpt>
            <trkpt lat="53.4928284" lon="-1.9001139"><ele>266.6</ele></trkpt>
            <trkpt lat="53.4940587" lon="-1.9010647"><ele>280.1</ele></trkpt>
            <trkpt lat="53.4948251" lon="-1.9017798"><ele>283.6</ele></trkpt>
            <trkpt lat="53.4956304" lon="-1.9017190"><ele>282.2</ele></trkpt>
            <trkpt lat="53.4970633" lon="-1.9028509"><ele>289.0</ele></trkpt>
            <trkpt lat="53.4981222" lon="-1.9040815"><ele>294.4</ele></trkpt>
            <trkpt lat="53.5001106" lon="-1.9070550"><ele>287.6</ele></trkpt>
            <trkpt lat="53.5007906" lon="-1.9070685"><ele>291.6</ele></trkpt>
            <trkpt lat="53.5013900" lon="-1.9069149"><ele>292.1</ele></trkpt>
            <trkpt lat="53.5022183" lon="-1.9083528"><ele>322.4</ele></trkpt>
            <trkpt lat="53.5027326" lon="-1.9087986"><ele>326.9</ele></trkpt>
            <trkpt lat="53.5030509" lon="-1.9096192"><ele>332.6</ele></trkpt>
            <trkpt lat="53.5037826" lon="-1.9105721"><ele>346.1</ele></trkpt>
            <trkpt lat="53.5039947" lon="-1.9111894"><ele>357.2</ele></trkpt>
            <trkpt lat="53.5045497" lon="-1.9119076"><ele>368.6</ele></trkpt>
            <trkpt lat="53.5048028" lon="-1.9131168"><ele>397.7</ele></trkpt>
            <trkpt lat="53.5057832" lon="-1.9141653"><ele>432.9</ele></trkpt>
            <trkpt lat="53.5068075" lon="-1.9148857"><ele>458.7</ele></trkpt>
            <trkpt lat="53.5071854" lon="-1.9161968"><ele>482.1</ele></trkpt>
            <trkpt lat="53.5084834" lon="-1.9163736"><ele>495.0</ele></trkpt>
            <trkpt lat="53.5089632" lon="-1.9171088"><ele>511.4</ele></trkpt>
            <trkpt lat="53.5096025" lon="-1.9177119"><ele>521.4</ele></trkpt>
            <trkpt lat="53.5103824" lon="-1.9190191"><ele>530.8</ele></trkpt>
            <trkpt lat="53.5111627" lon="-1.9201297"><ele>534.6</ele></trkpt>
            <trkpt lat="53.5123675" lon="-1.9186802"><ele>538.3</ele></trkpt>
            <trkpt lat="53.5129403" lon="-1.9173200"><ele>540.5</ele></trkpt>
            <trkpt lat="53.5145084" lon="-1.9167721"><ele>540.8</ele></trkpt>
            <trkpt lat="53.5128520" lon="-1.9172837"><ele>541.0</ele></trkpt>
            <trkpt lat="53.5123085" lon="-1.9186568"><ele>538.5</ele></trkpt>
            <trkpt lat="53.5111770" lon="-1.9198200"><ele>534.4</ele></trkpt>
            <trkpt lat="53.5099831" lon="-1.9217065"><ele>534.6</ele></trkpt>
            <trkpt lat="53.5096237" lon="-1.9238211"><ele>532.7</ele></trkpt>
            <trkpt lat="53.5087420" lon="-1.9256637"><ele>534.3</ele></trkpt>
            <trkpt lat="53.5084707" lon="-1.9271221"><ele>538.7</ele></trkpt>
            <trkpt lat="53.5078398" lon="-1.9292350"><ele>538.0</ele></trkpt>
            <trkpt lat="53.5070698" lon="-1.9316182"><ele>540.0</ele></trkpt>
            <trkpt lat="53.5077883" lon="-1.9291980"><ele>538.0</ele></trkpt>
            <trkpt lat="53.5084708" lon="-1.9271839"><ele>538.6</ele></trkpt>
            <trkpt lat="53.5088080" lon="-1.9254535"><ele>533.9</ele></trkpt>
            <trkpt lat="53.5096607" lon="-1.9236465"><ele>532.9</ele></trkpt>
            <trkpt lat="53.5099860" lon="-1.9215283"><ele>534.0</ele></trkpt>
            <trkpt lat="53.5111613" lon="-1.9197711"><ele>534.3</ele></trkpt>
            <trkpt lat="53.5104105" lon="-1.9188965"><ele>530.4</ele></trkpt>
            <trkpt lat="53.5096532" lon="-1.9174305"><ele>521.6</ele></trkpt>
            <trkpt lat="53.5089912" lon="-1.9169255"><ele>510.1</ele></trkpt>
            <trkpt lat="53.5084690" lon="-1.9161982"><ele>491.6</ele></trkpt>
            <trkpt lat="53.5071768" lon="-1.9160288"><ele>480.2</ele></trkpt>
            <trkpt lat="53.5068926" lon="-1.9147597"><ele>453.7</ele></trkpt>
            <trkpt lat="53.5057746" lon="-1.9141331"><ele>432.1</ele></trkpt>
            <trkpt lat="53.5047750" lon="-1.9131242"><ele>398.2</ele></trkpt>
            <trkpt lat="53.5046161" lon="-1.9117007"><ele>363.0</ele></trkpt>
            <trkpt lat="53.5039615" lon="-1.9111341"><ele>356.4</ele></trkpt>
            <trkpt lat="53.5037625" lon="-1.9103568"><ele>341.8</ele></trkpt>
            <trkpt lat="53.5029394" lon="-1.9095816"><ele>332.5</ele></trkpt>
            <trkpt lat="53.5026232" lon="-1.9088052"><ele>328.0</ele></trkpt>
            <trkpt lat="53.5022486" lon="-1.9081897"><ele>320.0</ele></trkpt>
            <trkpt lat="53.5014180" lon="-1.9067298"><ele>287.6</ele></trkpt>
            <trkpt lat="53.5007636" lon="-1.9068919"><ele>289.3</ele></trkpt>
            <trkpt lat="53.5001023" lon="-1.9069921"><ele>287.2</ele></trkpt>
            <trkpt lat="53.4986836" lon="-1.9048858"><ele>293.7</ele></trkpt>
            <trkpt lat="53.4981473" lon="-1.9038762"><ele>291.3</ele></trkpt>
            <trkpt lat="53.4969977" lon="-1.9027130"><ele>287.7</ele></trkpt>
            <trkpt lat="53.4956593" lon="-1.9016295"><ele>281.0</ele></trkpt>
            <trkpt lat="53.4948150" lon="-1.9015946"><ele>281.6</ele></trkpt>
            <trkpt lat="53.4940590" lon="-1.9008935"><ele>277.4</ele></trkpt>
            <trkpt lat="53.4927227" lon="-1.8998387"><ele>262.0</ele></trkpt>
            <trkpt lat="53.4921785" lon="-1.8997165"><ele>262.8</ele></trkpt>
            <trkpt lat="53.4912528" lon="-1.8999533"><ele>261.9</ele></trkpt>
            <trkpt lat="53.4904452" lon="-1.9000045"><ele>261.3</ele></trkpt>
            <trkpt lat="53.4901952" lon="-1.8993883"><ele>254.4</ele></trkpt>
            <trkpt lat="53.4894026" lon="-1.8988108"><ele>250.3</ele></trkpt>
            <trkpt lat="53.4883763" lon="-1.8978900"><ele>243.7</ele></trkpt>
            <trkpt lat="53.4886250" lon="-1.8966796"><ele>234.6</ele></trkpt>
            <trkpt lat="53.4892785" lon="-1.8961460"><ele>228.7</ele></trkpt>
            <trkpt lat="53.4895630" lon="-1.8950879"><ele>218.1</ele></trkpt>
            <trkpt lat="53.4900259" lon="-1.8949633"><ele>213.4</ele></trkpt>
            <trkpt lat="53.4906360" lon="-1.8948629"><ele>212.0</ele></trkpt>
            <trkpt lat="53.4910699" lon="-1.8948124"><ele>213.5</ele></trkpt>
            <trkpt lat="53.4912973" lon="-1.8939717"><ele>214.0</ele></trkpt>
            <trkpt lat="53.4912746" lon="-1.8932923"><ele>214.1</ele></trkpt>
            <trkpt lat="53.4910224" lon="-1.8911932"><ele>228.6</ele></trkpt>
            <trkpt lat="53.4907359" lon="-1.8916268"><ele>222.8</ele></trkpt>
            <trkpt lat="53.4904792" lon="-1.8923565"><ele>215.0</ele></trkpt>
            <trkpt lat="53.4901044" lon="-1.8924567"><ele>212.0</ele></trkpt>
        </trkseg>
    </trk>
<!-- ele-hash:352e9a61c4b03ff7 -->
</gpx>
