<?xml version="1.0" encoding="UTF-8" standalone="yes"?>
<gpx version="1.1" creator="OS Maps - Web" xmlns="http://www.topografix.com/GPX/1/1"
xmlns:xsi="http://www.w3.org/2001/XMLSchema-instance"
xsi:schemaLocation="http://www.topografix.com/GPX/1/1 http://www.topografix.com/GPX/1/1/gpx.xsd"
xmlns:gs="http://www.topografix.com/GPX/gpx_style/0/2"
xmlns:gh="https://graphhopper.com/public/schema/gpx/1.1"
xmlns:os="https://ordnancesurvey.co.uk/public/schema/route/0.1">
    <metadata>
        <name>Black Hill (Ethel) - There &amp; Back (www.thelostpeak.co.uk)</name>
        <desc></desc>
        <bounds minlat="53.5386900" minlon="-1.8877200" maxlat="53.5612500" maxlon="-1.8769600"/>
        <extensions>
            <os:version>2.0</os:version>
            <os:point lat="53.5612400" lon="-1.8877100" type="start"/>
            <os:point lat="53.5612400" lon="-1.8877100" type="end"/>
            <os:activity>ON_FOOT_WALKING</os:activity>
            <os:difficulty>MODERATE</os:difficulty>
            <os:paths/>
            <os:distance>5869.7888700</os:distance>
            <os:elevation_ascent>264.3900000</os:elevation_ascent>
        </extensions>
    </metadata>
    <wpt lat="53.5612400" lon="-1.8877100"/>
    <wpt lat="53.5590000" lon="-1.8855700"/>
    <wpt lat="53.5587900" lon="-1.8859000"/>
    <wpt lat="53.5585600" lon="-1.8848100"/>
    <wpt lat="53.5564300" lon="-1.8827800"/>
    <wpt lat="53.5559100" lon="-1.8827700"/>
    <wpt lat="53.5555600" lon="-1.8819300"/>
    <wpt lat="53.5535400" lon="-1.8798500"/>
    <wpt lat="53.5524700" lon="-1.8791600"/>
    <wpt lat="53.5507700" lon="-1.8772900"/>
    <wpt lat="53.5501700" lon="-1.8769900"/>
    <wpt lat="53.5483100" lon="-1.8772000"/>
    <wpt lat="53.5476900" lon="-1.8770100"/>
    <wpt lat="53.5466000" lon="-1.8777900"/>
    <wpt lat="53.5454600" lon="-1.8790800"/>
    <wpt lat="53.5429900" lon="-1.8805800"/>
    <wpt lat="53.5415700" lon="-1.8818400"/>
    <wpt lat="53.5406800" lon="-1.8821600"/>
    <wpt lat="53.5398200" lon="-1.8830400"/>
    <wpt lat="53.5388800" lon="-1.8833400"/>
    <wpt lat="53.5386900" lon="-1.8836500"/>
    <wpt lat="53.5388800" lon="-1.8833400"/>
    <wpt lat="53.5398200" lon="-1.8830400"/>
    <wpt lat="53.5406800" lon="-1.8821600"/>
    <wpt lat="53.5415700" lon="-1.8818400"/>
    <wpt lat="53.5429900" lon="-1.8805800"/>
    <wpt lat="53.5454600" lon="-1.8790800"/>
    <wpt lat="53.5466000" lon="-1.8777900"/>
    <wpt lat="53.5476900" lon="-1.8770100"/>
    <wpt lat="53.5483100" lon="-1.8772000"/>
    <wpt lat="53.5501700" lon="-1.8769900"/>
    <wpt lat="53.5507700" lon="-1.8772900"/>
    <wpt lat="53.5524700" lon="-1.8791600"/>
    <wpt lat="53.5535400" lon="-1.8798500"/>
    <wpt lat="53.5555600" lon="-1.8819300"/>
    <wpt lat="53.5559100" lon="-1.8827700"/>
    <wpt lat="53.5564300" lon="-1.8827800"/>
    <wpt lat="53.5585600" lon="-1.8848100"/>
    <wpt lat="53.5587900" lon="-1.8859000"/>
    <wpt lat="53.5590000" lon="-1.8855700"/>
    <wpt lat="53.5612400" lon="-1.8877100"/>
    <trk>
        <name>Black Hill (Ethel) - There &amp; Back (www.thelostpeak.co.uk)</name>
        <trkseg>
            <trkpt lat="53.5612400" lon="-1.8877100"><ele>450.5</ele></trkpt>
            <trkpt lat="53.5612500" lon="-1.8877200"><ele>450.7</ele></trkpt>
            <trkpt lat="53.5611500" lon="-1.8877000"><ele>449.8</ele></trkpt>
            <trkpt lat="53.5609600" lon="-1.8874900"><ele>447.4</ele></trkpt>
            <trkpt lat="53.5608800" lon="-1.8874600"><ele>446.4</ele></trkpt>
            <trkpt lat="53.5607400" lon="-1.8873000"><ele>444.1</ele></trkpt>
            <trkpt lat="53.5606300" lon="-1.8872100"><ele>442.7</ele></trkpt>
            <trkpt lat="53.5604500" lon="-1.8870000"><ele>440.2</ele></trkpt>
            <trkpt lat="53.5603500" lon="-1.8869500"><ele>438.9</ele></trkpt>
            <trkpt lat="53.5601300" lon="-1.8866300"><ele>435.4</ele></trkpt>
            <trkpt lat="53.5595700" lon="-1.8861100"><ele>428.9</ele></trkpt>
            <trkpt lat="53.5592000" lon="-1.8857300"><ele>424.2</ele></trkpt>
            <trkpt lat="53.5590000" lon="-1.8855700"><ele>421.6</ele></trkpt>
            <trkpt lat="53.5589300" lon="-1.8856000"><ele>421.1</ele></trkpt>
            <trkpt lat="53.5588700" lon="-1.8856700"><ele>421.3</ele></trkpt>
            <trkpt lat="53.5588600" lon="-1.8857800"><ele>421.6</ele></trkpt>
            <trkpt lat="53.5587900" lon="-1.8859000"><ele>421.8</ele></trkpt>
            <trkpt lat="53.5587700" lon="-1.8858800"><ele>421.8</ele></trkpt>
            <trkpt lat="53.5587800" lon="-1.8858000"><ele>421.4</ele></trkpt>
            <trkpt lat="53.5587400" lon="-1.8856600"><ele>420.9</ele></trkpt>
            <trkpt lat="53.5587400" lon="-1.8854300"><ele>419.4</ele></trkpt>
            <trkpt lat="53.5586200" lon="-1.8849800"><ele>418.1</ele></trkpt>
            <trkpt lat="53.5585600" lon="-1.8848100"><ele>418.1</ele></trkpt>
            <trkpt lat="53.5578500" lon="-1.8841600"><ele>418.9</ele></trkpt>
            <trkpt lat="53.5573900" lon="-1.8836500"><ele>416.5</ele></trkpt>
            <trkpt lat="53.5572400" lon="-1.8836500"><ele>416.6</ele></trkpt>
            <trkpt lat="53.5571300" lon="-1.8835600"><ele>416.2</ele></trkpt>
            <trkpt lat="53.5569900" lon="-1.8833300"><ele>414.6</ele></trkpt>
            <trkpt lat="53.5564300" lon="-1.8827800"><ele>406.1</ele></trkpt>
            <trkpt lat="53.5563400" lon="-1.8828500"><ele>405.2</ele></trkpt>
            <trkpt lat="53.5562800" lon="-1.8828300"><ele>404.4</ele></trkpt>
            <trkpt lat="53.5562500" lon="-1.8828000"><ele>403.7</ele></trkpt>
            <trkpt lat="53.5562100" lon="-1.8828000"><ele>403.0</ele></trkpt>
            <trkpt lat="53.5561900" lon="-1.8828400"><ele>402.9</ele></trkpt>
            <trkpt lat="53.5561600" lon="-1.8828500"><ele>402.6</ele></trkpt>
            <trkpt lat="53.5561400" lon="-1.8827800"><ele>401.7</ele></trkpt>
            <trkpt lat="53.5561000" lon="-1.8827900"><ele>401.8</ele></trkpt>
            <trkpt lat="53.5561200" lon="-1.8827300"><ele>401.5</ele></trkpt>
            <trkpt lat="53.5560900" lon="-1.8826900"><ele>400.8</ele></trkpt>
            <trkpt lat="53.5560600" lon="-1.8827500"><ele>401.0</ele></trkpt>
            <trkpt lat="53.5559900" lon="-1.8827800"><ele>400.6</ele></trkpt>
            <trkpt lat="53.5559500" lon="-1.8827300"><ele>400.4</ele></trkpt>
            <trkpt lat="53.5559100" lon="-1.8827700"><ele>400.4</ele></trkpt>
            <trkpt lat="53.5558900" lon="-1.8827400"><ele>400.4</ele></trkpt>
            <trkpt lat="53.5559000" lon="-1.8826000"><ele>400.0</ele></trkpt>
            <trkpt lat="53.5557700" lon="-1.8822900"><ele>401.4</ele></trkpt>
            <trkpt lat="53.5557000" lon="-1.8822300"><ele>403.1</ele></trkpt>
            <trkpt lat="53.5555600" lon="-1.8819300"><ele>407.3</ele></trkpt>
            <trkpt lat="53.5551600" lon="-1.8815500"><ele>415.9</ele></trkpt>
            <trkpt lat="53.5544300" lon="-1.8807700"><ele>421.7</ele></trkpt>
            <trkpt lat="53.5543400" lon="-1.8806900"><ele>422.2</ele></trkpt>
            <trkpt lat="53.5541800" lon="-1.8806300"><ele>423.0</ele></trkpt>
            <trkpt lat="53.5541100" lon="-1.8804800"><ele>423.1</ele></trkpt>
            <trkpt lat="53.5540100" lon="-1.8803700"><ele>423.4</ele></trkpt>
            <trkpt lat="53.5538000" lon="-1.8802300"><ele>424.5</ele></trkpt>
            <trkpt lat="53.5537500" lon="-1.8801200"><ele>424.5</ele></trkpt>
            <trkpt lat="53.5535900" lon="-1.8799600"><ele>425.4</ele></trkpt>
            <trkpt lat="53.5535400" lon="-1.8798500"><ele>425.1</ele></trkpt>
            <trkpt lat="53.5534500" lon="-1.8797600"><ele>425.3</ele></trkpt>
            <trkpt lat="53.5533000" lon="-1.8797100"><ele>426.2</ele></trkpt>
            <trkpt lat="53.5529300" lon="-1.8793100"><ele>427.4</ele></trkpt>
            <trkpt lat="53.5527900" lon="-1.8792200"><ele>428.0</ele></trkpt>
            <trkpt lat="53.5527100" lon="-1.8791900"><ele>428.4</ele></trkpt>
            <trkpt lat="53.5526700" lon="-1.8792500"><ele>428.7</ele></trkpt>
            <trkpt lat="53.5525700" lon="-1.8791700"><ele>428.7</ele></trkpt>
            <trkpt lat="53.5524700" lon="-1.8791600"><ele>429.0</ele></trkpt>
            <trkpt lat="53.5523800" lon="-1.8789800"><ele>430.0</ele></trkpt>
            <trkpt lat="53.5521700" lon="-1.8787300"><ele>432.9</ele></trkpt>
            <trkpt lat="53.5519500" lon="-1.8785200"><ele>435.2</ele></trkpt>
            <trkpt lat="53.5518800" lon="-1.8785200"><ele>435.9</ele></trkpt>
            <trkpt lat="53.5517700" lon="-1.8783900"><ele>436.0</ele></trkpt>
            <trkpt lat="53.5516500" lon="-1.8783600"><ele>436.7</ele></trkpt>
            <trkpt lat="53.5515600" lon="-1.8781800"><ele>436.6</ele></trkpt>
            <trkpt lat="53.5511400" lon="-1.8778000"><ele>442.9</ele></trkpt>
            <trkpt lat="53.5509700" lon="-1.8776100"><ele>445.0</ele></trkpt>
            <trkpt lat="53.5507700" lon="-1.8772900"><ele>446.7</ele></trkpt>
            <trkpt lat="53.5506300" lon="-1.8771900"><ele>447.6</ele></trkpt>
            <trkpt lat="53.5505100" lon="-1.8771400"><ele>448.3</ele></trkpt>
            <trkpt lat="53.5504300" lon="-1.8771600"><ele>449.3</ele></trkpt>
            <trkpt lat="53.5503800" lon="-1.8771100"><ele>449.3</ele></trkpt>
            <trkpt lat="53.5501700" lon="-1.8769900"><ele>451.8</ele></trkpt>
            <trkpt lat="53.5500000" lon="-1.8769700"><ele>454.0</ele></trkpt>
            <trkpt lat="53.5497400" lon="-1.8770500"><ele>458.2</ele></trkpt>
            <trkpt lat="53.5495800" lon="-1.8769800"><ele>459.6</ele></trkpt>
            <trkpt lat="53.5491200" lon="-1.8771500"><ele>468.3</ele></trkpt>
            <trkpt lat="53.5486300" lon="-1.8771200"><ele>477.1</ele></trkpt>
            <trkpt lat="53.5485200" lon="-1.8771800"><ele>479.4</ele></trkpt>
            <trkpt lat="53.5483100" lon="-1.8772000"><ele>482.6</ele></trkpt>
            <trkpt lat="53.5481500" lon="-1.8771000"><ele>484.7</ele></trkpt>
            <trkpt lat="53.5480500" lon="-1.8770700"><ele>486.5</ele></trkpt>
            <trkpt lat="53.5479800" lon="-1.8769800"><ele>487.2</ele></trkpt>
            <trkpt lat="53.5478200" lon="-1.8769600"><ele>490.5</ele></trkpt>
            <trkpt lat="53.5476900" lon="-1.8770100"><ele>492.9</ele></trkpt>
            <trkpt lat="53.5475400" lon="-1.8772200"><ele>495.9</ele></trkpt>
            <trkpt lat="53.5473600" lon="-1.8772600"><ele>498.6</ele></trkpt>
            <trkpt lat="53.5472500" lon="-1.8773400"><ele>501.1</ele></trkpt>
            <trkpt lat="53.5471500" lon="-1.8775200"><ele>504.6</ele></trkpt>
            <trkpt lat="53.5470500" lon="-1.8775000"><ele>505.4</ele></trkpt>
            <trkpt lat="53.5467500" lon="-1.8776600"><ele>510.9</ele></trkpt>
            <trkpt lat="53.5466000" lon="-1.8777900"><ele>513.8</ele></trkpt>
            <trkpt lat="53.5464500" lon="-1.8780500"><ele>517.5</ele></trkpt>
            <trkpt lat="53.5459700" lon="-1.8784100"><ele>527.1</ele></trkpt>
            <trkpt lat="53.5457500" lon="-1.8786200"><ele>533.7</ele></trkpt>
            <trkpt lat="53.5456300" lon="-1.8788300"><ele>538.5</ele></trkpt>
            <trkpt lat="53.5455800" lon="-1.8788600"><ele>540.4</ele></trkpt>
            <trkpt lat="53.5454600" lon="-1.8790800"><ele>544.9</ele></trkpt>
            <trkpt lat="53.5452900" lon="-1.8791100"><ele>549.0</ele></trkpt>
            <trkpt lat="53.5451800" lon="-1.8792000"><ele>551.8</ele></trkpt>
            <trkpt lat="53.5448900" lon="-1.8793600"><ele>558.6</ele></trkpt>
            <trkpt lat="53.5445100" lon="-1.8796500"><ele>561.2</ele></trkpt>
            <trkpt lat="53.5438300" lon="-1.8800300"><ele>563.0</ele></trkpt>
            <trkpt lat="53.5435500" lon="-1.8802500"><ele>565.0</ele></trkpt>
            <trkpt lat="53.5432400" lon="-1.8804100"><ele>567.8</ele></trkpt>
            <trkpt lat="53.5429900" lon="-1.8805800"><ele>569.4</ele></trkpt>
            <trkpt lat="53.5427600" lon="-1.8807700"><ele>570.8</ele></trkpt>
            <trkpt lat="53.5425700" lon="-1.8809700"><ele>571.0</ele></trkpt>
            <trkpt lat="53.5423800" lon="-1.8810900"><ele>571.8</ele></trkpt>
            <trkpt lat="53.5422000" lon="-1.8812900"><ele>573.5</ele></trkpt>
            <trkpt lat="53.5419100" lon="-1.8814900"><ele>574.2</ele></trkpt>
            <trkpt lat="53.5417900" lon="-1.8815200"><ele>574.8</ele></trkpt>
            <trkpt lat="53.5415700" lon="-1.8818400"><ele>575.9</ele></trkpt>
            <trkpt lat="53.5411700" lon="-1.8819300"><ele>576.6</ele></trkpt>
            <trkpt lat="53.5411300" lon="-1.8820000"><ele>576.7</ele></trkpt>
            <trkpt lat="53.5409700" lon="-1.8820800"><ele>577.5</ele></trkpt>
            <trkpt lat="53.5406800" lon="-1.8821600"><ele>578.6</ele></trkpt>
            <trkpt lat="53.5404900" lon="-1.8823700"><ele>579.6</ele></trkpt>
            <trkpt lat="53.5404300" lon="-1.8824900"><ele>579.9</ele></trkpt>
            <trkpt lat="53.5402300" lon="-1.8825700"><ele>580.0</ele></trkpt>
            <trkpt lat="53.5400800" lon="-1.8826800"><ele>580.0</ele></trkpt>
            <trkpt lat="53.5398500" lon="-1.8829600"><ele>580.0</ele></trkpt>
            <trkpt lat="53.5398200" lon="-1.8830400"><ele>580.0</ele></trkpt>
            <trkpt lat="53.5396700" lon="-1.8830600"><ele>580.1</ele></trkpt>
            <trkpt lat="53.5396000" lon="-1.8830200"><ele>580.2</ele></trkpt>
            <trkpt lat="53.5394300" lon="-1.8830500"><ele>580.8</ele></trkpt>
            <trkpt lat="53.5391600" lon="-1.8831600"><ele>581.0</ele></trkpt>
            <trkpt lat="53.5390500" lon="-1.8832500"><ele>581.0</ele></trkpt>
            <trkpt lat="53.5388800" lon="-1.8833400"><ele>581.0</ele></trkpt>
            <trkpt lat="53.5386900" lon="-1.8836500"><ele>580.4</ele></trkpt>
            <trkpt lat="53.5388800" lon="-1.8833400"><ele>581.0</ele></trkpt>
            <trkpt lat="53.5390500" lon="-1.8832500"><ele>581.0</ele></trkpt>
            <trkpt lat="53.5391600" lon="-1.8831600"><ele>581.0</ele></trkpt>
            <trkpt lat="53.5394300" lon="-1.8830500"><ele>580.8</ele></trkpt>
            <trkpt lat="53.5396000" lon="-1.8830200"><ele>580.2</ele></trkpt>
            <trkpt lat="53.5396700" lon="-1.8830600"><ele>580.1</ele></trkpt>
            <trkpt lat="53.5398200" lon="-1.8830400"><ele>580.0</ele></trkpt>
            <trkpt lat="53.5398500" lon="-1.8829600"><ele>580.0</ele></trkpt>
            <trkpt lat="53.5400800" lon="-1.8826800"><ele>580.0</ele></trkpt>
            <trkpt lat="53.5402300" lon="-1.8825700"><ele>580.0</ele></trkpt>
            <trkpt lat="53.5404300" lon="-1.8824900"><ele>579.9</ele></trkpt>
            <trkpt lat="53.5404900" lon="-1.8823700"><ele>579.6</ele></trkpt>
            <trkpt lat="53.5406800" lon="-1.8821600"><ele>578.6</ele></trkpt>
            <trkpt lat="53.5409700" lon="-1.8820800"><ele>577.5</ele></trkpt>
            <trkpt lat="53.5411300" lon="-1.8820000"><ele>576.7</ele></trkpt>
            <trkpt lat="53.5411700" lon="-1.8819300"><ele>576.6</ele></trkpt>
            <trkpt lat="53.5415700" lon="-1.8818400"><ele>575.9</ele></trkpt>
            <trkpt lat="53.5417900" lon="-1.8815200"><ele>574.8</ele></trkpt>
            <trkpt lat="53.5419100" lon="-1.8814900"><ele>574.2</ele></trkpt>
            <trkpt lat="53.5422000" lon="-1.8812900"><ele>573.5</ele></trkpt>
            <trkpt lat="53.5423800" lon="-1.8810900"><ele>571.8</ele></trkpt>
            <trkpt lat="53.5425700" lon="-1.8809700"><ele>571.0</ele></trkpt>
            <trkpt lat="53.5427600" lon="-1.8807700"><ele>570.8</ele></trkpt>
            <trkpt lat="53.5429900" lon="-1.8805800"><ele>569.4</ele></trkpt>
            <trkpt lat="53.5432400" lon="-1.8804100"><ele>567.8</ele></trkpt>
            <trkpt lat="53.5435500" lon="-1.8802500"><ele>565.0</ele></trkpt>
            <trkpt lat="53.5438300" lon="-1.8800300"><ele>563.0</ele></trkpt>
            <trkpt lat="53.5445100" lon="-1.8796500"><ele>561.2</ele></trkpt>
            <trkpt lat="53.5448900" lon="-1.8793600"><ele>558.6</ele></trkpt>
            <trkpt lat="53.5451800" lon="-1.8792000"><ele>551.8</ele></trkpt>
            <trkpt lat="53.5452900" lon="-1.8791100"><ele>549.0</ele></trkpt>
            <trkpt lat="53.5454600" lon="-1.8790800"><ele>544.9</ele></trkpt>
            <trkpt lat="53.5455800" lon="-1.8788600"><ele>540.4</ele></trkpt>
            <trkpt lat="53.5456300" lon="-1.8788300"><ele>538.5</ele></trkpt>
            <trkpt lat="53.5457500" lon="-1.8786200"><ele>533.7</ele></trkpt>
            <trkpt lat="53.5459700" lon="-1.8784100"><ele>527.1</ele></trkpt>
            <trkpt lat="53.5464500" lon="-1.8780500"><ele>517.5</ele></trkpt>
            <trkpt lat="53.5466000" lon="-1.8777900"><ele>513.8</ele></trkpt>
            <trkpt lat="53.5467500" lon="-1.8776600"><ele>510.9</ele></trkpt>
            <trkpt lat="53.5470500" lon="-1.8775000"><ele>505.4</ele></trkpt>
            <trkpt lat="53.5471500" lon="-1.8775200"><ele>504.6</ele></trkpt>
            <trkpt lat="53.5472500" lon="-1.8773400"><ele>501.1</ele></trkpt>
            <trkpt lat="53.5473600" lon="-1.8772600"><ele>498.6</ele></trkpt>
            <trkpt lat="53.5475400" lon="-1.8772200"><ele>495.9</ele></trkpt>
            <trkpt lat="53.5476900" lon="-1.8770100"><ele>492.9</ele></trkpt>
            <trkpt lat="53.5478200" lon="-1.8769600"><ele>490.5</ele></trkpt>
            <trkpt lat="53.5479800" lon="-1.8769800"><ele>487.2</ele></trkpt>
            <trkpt lat="53.5480500" lon="-1.8770700"><ele>486.5</ele></trkpt>
            <trkpt lat="53.5481500" lon="-1.8771000"><ele>484.7</ele></trkpt>
            <trkpt lat="53.5483100" lon="-1.8772000"><ele>482.6</ele></trkpt>
            <trkpt lat="53.5485200" lon="-1.8771800"><ele>479.4</ele></trkpt>
            <trkpt lat="53.5486300" lon="-1.8771200"><ele>477.1</ele></trkpt>
            <trkpt lat="53.5491200" lon="-1.8771500"><ele>468.3</ele></trkpt>
            <trkpt lat="53.5495800" lon="-1.8769800"><ele>459.6</ele></trkpt>
            <trkpt lat="53.5497400" lon="-1.8770500"><ele>458.2</ele></trkpt>
            <trkpt lat="53.5500000" lon="-1.8769700"><ele>454.0</ele></trkpt>
            <trkpt lat="53.5501700" lon="-1.8769900"><ele>451.8</ele></trkpt>
            <trkpt lat="53.5503800" lon="-1.8771100"><ele>449.3</ele></trkpt>
            <trkpt lat="53.5504300" lon="-1.8771600"><ele>449.3</ele></trkpt>
            <trkpt lat="53.5505100" lon="-1.8771400"><ele>448.3</ele></trkpt>
            <trkpt lat="53.5506300" lon="-1.8771900"><ele>447.6</ele></trkpt>
            <trkpt lat="53.5507700" lon="-1.8772900"><ele>446.7</ele></trkpt>
            <trkpt lat="53.5509700" lon="-1.8776100"><ele>445.0</ele></trkpt>
            <trkpt lat="53.5511400" lon="-1.8778000"><ele>442.9</ele></trkpt>
            <trkpt lat="53.5515600" lon="-1.8781800"><ele>436.6</ele></trkpt>
            <trkpt lat="53.5516500" lon="-1.8783600"><ele>436.7</ele></trkpt>
            <trkpt lat="53.5517700" lon="-1.8783900"><ele>436.0</ele></trkpt>
            <trkpt lat="53.5518800" lon="-1.8785200"><ele>435.9</ele></trkpt>
            <trkpt lat="53.5519500" lon="-1.8785200"><ele>435.2</ele></trkpt>
            <trkpt lat="53.5521700" lon="-1.8787300"><ele>432.9</ele></trkpt>
            <trkpt lat="53.5523800" lon="-1.8789800"><ele>430.0</ele></trkpt>
            <trkpt lat="53.5524700" lon="-1.8791600"><ele>429.0</ele></trkpt>
            <trkpt lat="53.5525700" lon="-1.8791700"><ele>428.7</ele></trkpt>
            <trkpt lat="53.5526700" lon="-1.8792500"><ele>428.7</ele></trkpt>
            <trkpt lat="53.5527100" lon="-1.8791900"><ele>428.4</ele></trkpt>
            <trkpt lat="53.5527900" lon="-1.8792200"><ele>428.0</ele></trkpt>
            <trkpt lat="53.5529300" lon="-1.8793100"><ele>427.4</ele></trkpt>
            <trkpt lat="53.5533000" lon="-1.8797100"><ele>426.2</ele></trkpt>
            <trkpt lat="53.5534500" lon="-1.8797600"><ele>425.3</ele></trkpt>
            <trkpt lat="53.5535400" lon="-1.8798500"><ele>425.1</ele></trkpt>
            <trkpt lat="53.5535900" lon="-1.8799600"><ele>425.4</ele></trkpt>
            <trkpt lat="53.5537500" lon="-1.8801200"><ele>424.5</ele></trkpt>
            <trkpt lat="53.5538000" lon="-1.8802300"><ele>424.5</ele></trkpt>
            <trkpt lat="53.5540100" lon="-1.8803700"><ele>423.4</ele></trkpt>
            <trkpt lat="53.5541100" lon="-1.8804800"><ele>423.1</ele></trkpt>
            <trkpt lat="53.5541800" lon="-1.8806300"><ele>423.0</ele></trkpt>
            <trkpt lat="53.5543400" lon="-1.8806900"><ele>422.2</ele></trkpt>
            <trkpt lat="53.5544300" lon="-1.8807700"><ele>421.7</ele></trkpt>
            <trkpt lat="53.5551600" lon="-1.8815500"><ele>415.9</ele></trkpt>
            <trkpt lat="53.5555600" lon="-1.8819300"><ele>407.3</ele></trkpt>
            <trkpt lat="53.5557000" lon="-1.8822300"><ele>403.1</ele></trkpt>
            <trkpt lat="53.5557700" lon="-1.8822900"><ele>401.4</ele></trkpt>
            <trkpt lat="53.5559000" lon="-1.8826000"><ele>400.0</ele></trkpt>
            <trkpt lat="53.5558900" lon="-1.8827400"><ele>400.4</ele></trkpt>
            <trkpt lat="53.5559100" lon="-1.8827700"><ele>400.4</ele></trkpt>
            <trkpt lat="53.5559500" lon="-1.8827300"><ele>400.4</ele></trkpt>
            <trkpt lat="53.5559900" lon="-1.8827800"><ele>400.6</ele></trkpt>
            <trkpt lat="53.5560600" lon="-1.8827500"><ele>401.0</ele></trkpt>
            <trkpt lat="53.5560900" lon="-1.8826900"><ele>400.8</ele></trkpt>
            <trkpt lat="53.5561200" lon="-1.8827300"><ele>401.5</ele></trkpt>
            <trkpt lat="53.5561000" lon="-1.8827900"><ele>401.8</ele></trkpt>
            <trkpt lat="53.5561400" lon="-1.8827800"><ele>401.7</ele></trkpt>
            <trkpt lat="53.5561600" lon="-1.8828500"><ele>402.6</ele></trkpt>
            <trkpt lat="53.5561900" lon="-1.8828400"><ele>402.9</ele></trkpt>
            <trkpt lat="53.5562100" lon="-1.8828000"><ele>403.0</ele></trkpt>
            <trkpt lat="53.5562500" lon="-1.8828000"><ele>403.7</ele></trkpt>
            <trkpt lat="53.5562800" lon="-1.8828300"><ele>404.4</ele></trkpt>
            <trkpt lat="53.5563400" lon="-1.8828500"><ele>405.2</ele></trkpt>
            <trkpt lat="53.5564300" lon="-1.8827800"><ele>406.1</ele></trkpt>
            <trkpt lat="53.5569900" lon="-1.8833300"><ele>414.6</ele></trkpt>
            <trkpt lat="53.5571300" lon="-1.8835600"><ele>416.2</ele></trkpt>
            <trkpt lat="53.5572400" lon="-1.8836500"><ele>416.6</ele></trkpt>
            <trkpt lat="53.5573900" lon="-1.8836500"><ele>416.5</ele></trkpt>
            <trkpt lat="53.5578500" lon="-1.8841600"><ele>418.9</ele></trkpt>
            <trkpt lat="53.5585600" lon="-1.8848100"><ele>418.1</ele></trkpt>
            <trkpt lat="53.5586200" lon="-1.8849800"><ele>418.1</ele></trkpt>
            <trkpt lat="53.5587400" lon="-1.8854300"><ele>419.4</ele></trkpt>
            <trkpt lat="53.5587400" lon="-1.8856600"><ele>420.9</ele></trkpt>
            <trkpt lat="53.5587800" lon="-1.8858000"><ele>421.4</ele></trkpt>
            <trkpt lat="53.5587700" lon="-1.8858800"><ele>421.8</ele></trkpt>
            <trkpt lat="53.5587900" lon="-1.8859000"><ele>421.8</ele></trkpt>
            <trkpt lat="53.5588600" lon="-1.8857800"><ele>421.6</ele></trkpt>
            <trkpt lat="53.5588700" lon="-1.8856700"><ele>421.3</ele></trkpt>
            <trkpt lat="53.5589300" lon="-1.8856000"><ele>421.1</ele></trkpt>
            <trkpt lat="53.5590000" lon="-1.8855700"><ele>421.6</ele></trkpt>
            <trkpt lat="53.5592000" lon="-1.8857300"><ele>424.2</ele></trkpt>
            <trkpt lat="53.5595700" lon="-1.8861100"><ele>428.9</ele></trkpt>
            <trkpt lat="53.5601300" lon="-1.8866300"><ele>435.4</ele></trkpt>
            <trkpt lat="53.5603500" lon="-1.8869500"><ele>438.9</ele></trkpt>
            <trkpt lat="53.5604500" lon="-1.8870000"><ele>440.2</ele></trkpt>
            <trkpt lat="53.5606300" lon="-1.8872100"><ele>442.7</ele></trkpt>
            <trkpt lat="53.5607400" lon="-1.8873000"><ele>444.1</ele></trkpt>
            <trkpt lat="53.5608800" lon="-1.8874600"><ele>446.4</ele></trkpt>
            <trkpt lat="53.5609600" lon="-1.8874900"><ele>447.4</ele></trkpt>
            <trkpt lat="53.5611500" lon="-1.8877000"><ele>449.8</ele></trkpt>
            <trkpt lat="53.5612500" lon="-1.8877200"><ele>450.7</ele></trkpt>
            <trkpt lat="53.5612400" lon="-1.8877100"><ele>450.5</ele></trkpt>
        </trkseg>
    </trk>
<!-- ele-hash:52dd553bb8cf86ee -->
</gpx>
