<?xml version="1.0" encoding="UTF-8" standalone="yes"?>
<gpx version="1.1" creator="OS Maps - Web" xmlns="http://www.topografix.com/GPX/1/1"
xmlns:xsi="http://www.w3.org/2001/XMLSchema-instance"
xsi:schemaLocation="http://www.topografix.com/GPX/1/1 http://www.topografix.com/GPX/1/1/gpx.xsd"
xmlns:gs="http://www.topografix.com/GPX/gpx_style/0/2"
xmlns:gh="https://graphhopper.com/public/schema/gpx/1.1"
xmlns:os="https://ordnancesurvey.co.uk/public/schema/route/0.1">
    <metadata>
        <name>Blakelow Hill &amp; Harboro Rocks (Ethels) - Circular (www.thelostpeak.co.uk)</name>
        <desc>www.thelostpeak.co.uk</desc>
        <bounds minlat="53.0922510" minlon="-1.6753300" maxlat="53.1389120" maxlon="-1.6142070"/>
        <extensions>
            <os:version>2.0</os:version>
            <os:point lat="53.0988670" lon="-1.6542540" type="start"/>
            <os:point lat="53.0988670" lon="-1.6542540" type="end"/>
            <os:activity>ON_FOOT_WALKING</os:activity>
            <os:difficulty>MODERATE</os:difficulty>
            <os:paths/>
            <os:distance>17028.6599651</os:distance>
            <os:elevation_ascent>468.1200000</os:elevation_ascent>
        </extensions>
    </metadata>
    <wpt lat="53.0988670" lon="-1.6542540"/>
    <wpt lat="53.0988670" lon="-1.6542540"/>
    <trk>
        <name>Blakelow Hill &amp; Harboro Rocks (Ethels) - Circular (www.thelostpeak.co.uk)</name>
        <trkseg>
            <trkpt lat="53.0988670" lon="-1.6542540"/>
            <trkpt lat="53.0988580" lon="-1.6539760"/>
            <trkpt lat="53.0987180" lon="-1.6539260"/>
            <trkpt lat="53.0988490" lon="-1.6536310"/>
            <trkpt lat="53.0987480" lon="-1.6534830"/>
            <trkpt lat="53.0986930" lon="-1.6533330"/>
            <trkpt lat="53.0985640" lon="-1.6527270"/>
            <trkpt lat="53.0982800" lon="-1.6515970"/>
            <trkpt lat="53.0980110" lon="-1.6514540"/>
            <trkpt lat="53.0980110" lon="-1.6509540"/>
            <trkpt lat="53.0975440" lon="-1.6483700"/>
            <trkpt lat="53.0972110" lon="-1.6466240"/>
            <trkpt lat="53.0970980" lon="-1.6463490"/>
            <trkpt lat="53.0968930" lon="-1.6460510"/>
            <trkpt lat="53.0929830" lon="-1.6417380"/>
            <trkpt lat="53.0926980" lon="-1.6408840"/>
            <trkpt lat="53.0922510" lon="-1.6393970"/>
            <trkpt lat="53.0925250" lon="-1.6392640"/>
            <trkpt lat="53.0927000" lon="-1.6392120"/>
            <trkpt lat="53.0933230" lon="-1.6392520"/>
            <trkpt lat="53.0933540" lon="-1.6391210"/>
            <trkpt lat="53.0935050" lon="-1.6391460"/>
            <trkpt lat="53.0937240" lon="-1.6392690"/>
            <trkpt lat="53.0937710" lon="-1.6392420"/>
            <trkpt lat="53.0938320" lon="-1.6390810"/>
            <trkpt lat="53.0938620" lon="-1.6387480"/>
            <trkpt lat="53.0940680" lon="-1.6385460"/>
            <trkpt lat="53.0943000" lon="-1.6373550"/>
            <trkpt lat="53.0948990" lon="-1.6358420"/>
            <trkpt lat="53.0957470" lon="-1.6340630"/>
            <trkpt lat="53.0960870" lon="-1.6332690"/>
            <trkpt lat="53.0962180" lon="-1.6328710"/>
            <trkpt lat="53.0961730" lon="-1.6326130"/>
            <trkpt lat="53.0969910" lon="-1.6309280"/>
            <trkpt lat="53.0970950" lon="-1.6308570"/>
            <trkpt lat="53.0975050" lon="-1.6314970"/>
            <trkpt lat="53.0979390" lon="-1.6321120"/>
            <trkpt lat="53.0982780" lon="-1.6323600"/>
            <trkpt lat="53.0991970" lon="-1.6328780"/>
            <trkpt lat="53.0992510" lon="-1.6329810"/>
            <trkpt lat="53.0994890" lon="-1.6332250"/>
            <trkpt lat="53.1001600" lon="-1.6335020"/>
            <trkpt lat="53.1011480" lon="-1.6337710"/>
            <trkpt lat="53.1016210" lon="-1.6340300"/>
            <trkpt lat="53.1028000" lon="-1.6345390"/>
            <trkpt lat="53.1033610" lon="-1.6349290"/>
            <trkpt lat="53.1044940" lon="-1.6359170"/>
            <trkpt lat="53.1056420" lon="-1.6370270"/>
            <trkpt lat="53.1061930" lon="-1.6374120"/>
            <trkpt lat="53.1065280" lon="-1.6376030"/>
            <trkpt lat="53.1067830" lon="-1.6378700"/>
            <trkpt lat="53.1071440" lon="-1.6384020"/>
            <trkpt lat="53.1079420" lon="-1.6378100"/>
            <trkpt lat="53.1081450" lon="-1.6375820"/>
            <trkpt lat="53.1095030" lon="-1.6363680"/>
            <trkpt lat="53.1098110" lon="-1.6356380"/>
            <trkpt lat="53.1100530" lon="-1.6356350"/>
            <trkpt lat="53.1101100" lon="-1.6356030"/>
            <trkpt lat="53.1102350" lon="-1.6354780"/>
            <trkpt lat="53.1103370" lon="-1.6352180"/>
            <trkpt lat="53.1103770" lon="-1.6349910"/>
            <trkpt lat="53.1101380" lon="-1.6345690"/>
            <trkpt lat="53.1096980" lon="-1.6339100"/>
            <trkpt lat="53.1100010" lon="-1.6328990"/>
            <trkpt lat="53.1101400" lon="-1.6326760"/>
            <trkpt lat="53.1102540" lon="-1.6323420"/>
            <trkpt lat="53.1102450" lon="-1.6316160"/>
            <trkpt lat="53.1105650" lon="-1.6303730"/>
            <trkpt lat="53.1106170" lon="-1.6303120"/>
            <trkpt lat="53.1107160" lon="-1.6299350"/>
            <trkpt lat="53.1104430" lon="-1.6297310"/>
            <trkpt lat="53.1105310" lon="-1.6293700"/>
            <trkpt lat="53.1108820" lon="-1.6287880"/>
            <trkpt lat="53.1113820" lon="-1.6277240"/>
            <trkpt lat="53.1116880" lon="-1.6266060"/>
            <trkpt lat="53.1122730" lon="-1.6264530"/>
            <trkpt lat="53.1129120" lon="-1.6261100"/>
            <trkpt lat="53.1132330" lon="-1.6260710"/>
            <trkpt lat="53.1133220" lon="-1.6260090"/>
            <trkpt lat="53.1135580" lon="-1.6259410"/>
            <trkpt lat="53.1136550" lon="-1.6258630"/>
            <trkpt lat="53.1138490" lon="-1.6254790"/>
            <trkpt lat="53.1140720" lon="-1.6251190"/>
            <trkpt lat="53.1146270" lon="-1.6245070"/>
            <trkpt lat="53.1150480" lon="-1.6241450"/>
            <trkpt lat="53.1152950" lon="-1.6240650"/>
            <trkpt lat="53.1165100" lon="-1.6238650"/>
            <trkpt lat="53.1178600" lon="-1.6237950"/>
            <trkpt lat="53.1187240" lon="-1.6236950"/>
            <trkpt lat="53.1187430" lon="-1.6236160"/>
            <trkpt lat="53.1187180" lon="-1.6235520"/>
            <trkpt lat="53.1183620" lon="-1.6232690"/>
            <trkpt lat="53.1181210" lon="-1.6231320"/>
            <trkpt lat="53.1183620" lon="-1.6232690"/>
            <trkpt lat="53.1187180" lon="-1.6235520"/>
            <trkpt lat="53.1187430" lon="-1.6236160"/>
            <trkpt lat="53.1187240" lon="-1.6236950"/>
            <trkpt lat="53.1196210" lon="-1.6238980"/>
            <trkpt lat="53.1198400" lon="-1.6239260"/>
            <trkpt lat="53.1202970" lon="-1.6239070"/>
            <trkpt lat="53.1203910" lon="-1.6238540"/>
            <trkpt lat="53.1205690" lon="-1.6235840"/>
            <trkpt lat="53.1213000" lon="-1.6221670"/>
            <trkpt lat="53.1220500" lon="-1.6205060"/>
            <trkpt lat="53.1233940" lon="-1.6176270"/>
            <trkpt lat="53.1237530" lon="-1.6169530"/>
            <trkpt lat="53.1240570" lon="-1.6162820"/>
            <trkpt lat="53.1241350" lon="-1.6158750"/>
            <trkpt lat="53.1243000" lon="-1.6152910"/>
            <trkpt lat="53.1243530" lon="-1.6149610"/>
            <trkpt lat="53.1245750" lon="-1.6142070"/>
            <trkpt lat="53.1249530" lon="-1.6148170"/>
            <trkpt lat="53.1254330" lon="-1.6151760"/>
            <trkpt lat="53.1254780" lon="-1.6153580"/>
            <trkpt lat="53.1258500" lon="-1.6163390"/>
            <trkpt lat="53.1265390" lon="-1.6167330"/>
            <trkpt lat="53.1265640" lon="-1.6168090"/>
            <trkpt lat="53.1269720" lon="-1.6176290"/>
            <trkpt lat="53.1274140" lon="-1.6181970"/>
            <trkpt lat="53.1275660" lon="-1.6187280"/>
            <trkpt lat="53.1277320" lon="-1.6189410"/>
            <trkpt lat="53.1279790" lon="-1.6195570"/>
            <trkpt lat="53.1283920" lon="-1.6201550"/>
            <trkpt lat="53.1289030" lon="-1.6210120"/>
            <trkpt lat="53.1291090" lon="-1.6214670"/>
            <trkpt lat="53.1292910" lon="-1.6226150"/>
            <trkpt lat="53.1298590" lon="-1.6237160"/>
            <trkpt lat="53.1303100" lon="-1.6247580"/>
            <trkpt lat="53.1303800" lon="-1.6248210"/>
            <trkpt lat="53.1305920" lon="-1.6258590"/>
            <trkpt lat="53.1306550" lon="-1.6268070"/>
            <trkpt lat="53.1305420" lon="-1.6283630"/>
            <trkpt lat="53.1305790" lon="-1.6287350"/>
            <trkpt lat="53.1304850" lon="-1.6289620"/>
            <trkpt lat="53.1304260" lon="-1.6291960"/>
            <trkpt lat="53.1304170" lon="-1.6294090"/>
            <trkpt lat="53.1304450" lon="-1.6296530"/>
            <trkpt lat="53.1312130" lon="-1.6301520"/>
            <trkpt lat="53.1317530" lon="-1.6303420"/>
            <trkpt lat="53.1320170" lon="-1.6305120"/>
            <trkpt lat="53.1320090" lon="-1.6306880"/>
            <trkpt lat="53.1322410" lon="-1.6311340"/>
            <trkpt lat="53.1324990" lon="-1.6317090"/>
            <trkpt lat="53.1327480" lon="-1.6324410"/>
            <trkpt lat="53.1331810" lon="-1.6329050"/>
            <trkpt lat="53.1341720" lon="-1.6344760"/>
            <trkpt lat="53.1344880" lon="-1.6353500"/>
            <trkpt lat="53.1345880" lon="-1.6353620"/>
            <trkpt lat="53.1346390" lon="-1.6372070"/>
            <trkpt lat="53.1355870" lon="-1.6371510"/>
            <trkpt lat="53.1360920" lon="-1.6372950"/>
            <trkpt lat="53.1361820" lon="-1.6373970"/>
            <trkpt lat="53.1363210" lon="-1.6377310"/>
            <trkpt lat="53.1365560" lon="-1.6383670"/>
            <trkpt lat="53.1366230" lon="-1.6386100"/>
            <trkpt lat="53.1373450" lon="-1.6397010"/>
            <trkpt lat="53.1373910" lon="-1.6398070"/>
            <trkpt lat="53.1381330" lon="-1.6408770"/>
            <trkpt lat="53.1382520" lon="-1.6410930"/>
            <trkpt lat="53.1382900" lon="-1.6401750"/>
            <trkpt lat="53.1383790" lon="-1.6392490"/>
            <trkpt lat="53.1382900" lon="-1.6401750"/>
            <trkpt lat="53.1382520" lon="-1.6410930"/>
            <trkpt lat="53.1387470" lon="-1.6415810"/>
            <trkpt lat="53.1389120" lon="-1.6418260"/>
            <trkpt lat="53.1387470" lon="-1.6415810"/>
            <trkpt lat="53.1382520" lon="-1.6410930"/>
            <trkpt lat="53.1382640" lon="-1.6418970"/>
            <trkpt lat="53.1381980" lon="-1.6420870"/>
            <trkpt lat="53.1377490" lon="-1.6429430"/>
            <trkpt lat="53.1373770" lon="-1.6451280"/>
            <trkpt lat="53.1372900" lon="-1.6460110"/>
            <trkpt lat="53.1367330" lon="-1.6462320"/>
            <trkpt lat="53.1361340" lon="-1.6463840"/>
            <trkpt lat="53.1351080" lon="-1.6461720"/>
            <trkpt lat="53.1350910" lon="-1.6462520"/>
            <trkpt lat="53.1342800" lon="-1.6473650"/>
            <trkpt lat="53.1335280" lon="-1.6476660"/>
            <trkpt lat="53.1331060" lon="-1.6479750"/>
            <trkpt lat="53.1326850" lon="-1.6483400"/>
            <trkpt lat="53.1320290" lon="-1.6487810"/>
            <trkpt lat="53.1304280" lon="-1.6497010"/>
            <trkpt lat="53.1302200" lon="-1.6498790"/>
            <trkpt lat="53.1300070" lon="-1.6501770"/>
            <trkpt lat="53.1285300" lon="-1.6519410"/>
            <trkpt lat="53.1278710" lon="-1.6531070"/>
            <trkpt lat="53.1267430" lon="-1.6548600"/>
            <trkpt lat="53.1257110" lon="-1.6558800"/>
            <trkpt lat="53.1252890" lon="-1.6563870"/>
            <trkpt lat="53.1250410" lon="-1.6567730"/>
            <trkpt lat="53.1247740" lon="-1.6569960"/>
            <trkpt lat="53.1244590" lon="-1.6570730"/>
            <trkpt lat="53.1235420" lon="-1.6570480"/>
            <trkpt lat="53.1232970" lon="-1.6572470"/>
            <trkpt lat="53.1233110" lon="-1.6573520"/>
            <trkpt lat="53.1232330" lon="-1.6574940"/>
            <trkpt lat="53.1227480" lon="-1.6572080"/>
            <trkpt lat="53.1225520" lon="-1.6571590"/>
            <trkpt lat="53.1222600" lon="-1.6573390"/>
            <trkpt lat="53.1220900" lon="-1.6573560"/>
            <trkpt lat="53.1217240" lon="-1.6574770"/>
            <trkpt lat="53.1212510" lon="-1.6577760"/>
            <trkpt lat="53.1203990" lon="-1.6587410"/>
            <trkpt lat="53.1191580" lon="-1.6597050"/>
            <trkpt lat="53.1190280" lon="-1.6596510"/>
            <trkpt lat="53.1184950" lon="-1.6596530"/>
            <trkpt lat="53.1175040" lon="-1.6598690"/>
            <trkpt lat="53.1166260" lon="-1.6597820"/>
            <trkpt lat="53.1164200" lon="-1.6601420"/>
            <trkpt lat="53.1144590" lon="-1.6600710"/>
            <trkpt lat="53.1143370" lon="-1.6601300"/>
            <trkpt lat="53.1141880" lon="-1.6601440"/>
            <trkpt lat="53.1140810" lon="-1.6599790"/>
            <trkpt lat="53.1140000" lon="-1.6599050"/>
            <trkpt lat="53.1136780" lon="-1.6598190"/>
            <trkpt lat="53.1134270" lon="-1.6597270"/>
            <trkpt lat="53.1133260" lon="-1.6594990"/>
            <trkpt lat="53.1132020" lon="-1.6594040"/>
            <trkpt lat="53.1130580" lon="-1.6593820"/>
            <trkpt lat="53.1129330" lon="-1.6594010"/>
            <trkpt lat="53.1128480" lon="-1.6594670"/>
            <trkpt lat="53.1129590" lon="-1.6604650"/>
            <trkpt lat="53.1129900" lon="-1.6605310"/>
            <trkpt lat="53.1133860" lon="-1.6606170"/>
            <trkpt lat="53.1134950" lon="-1.6607020"/>
            <trkpt lat="53.1135070" lon="-1.6611060"/>
            <trkpt lat="53.1135410" lon="-1.6612960"/>
            <trkpt lat="53.1135980" lon="-1.6613680"/>
            <trkpt lat="53.1135820" lon="-1.6615370"/>
            <trkpt lat="53.1134980" lon="-1.6617450"/>
            <trkpt lat="53.1138490" lon="-1.6627720"/>
            <trkpt lat="53.1138970" lon="-1.6628150"/>
            <trkpt lat="53.1140250" lon="-1.6637440"/>
            <trkpt lat="53.1140970" lon="-1.6646200"/>
            <trkpt lat="53.1140590" lon="-1.6653440"/>
            <trkpt lat="53.1138800" lon="-1.6659630"/>
            <trkpt lat="53.1136380" lon="-1.6669650"/>
            <trkpt lat="53.1131830" lon="-1.6685500"/>
            <trkpt lat="53.1128600" lon="-1.6698930"/>
            <trkpt lat="53.1126160" lon="-1.6707040"/>
            <trkpt lat="53.1125100" lon="-1.6709680"/>
            <trkpt lat="53.1122850" lon="-1.6719530"/>
            <trkpt lat="53.1118570" lon="-1.6742880"/>
            <trkpt lat="53.1117620" lon="-1.6743730"/>
            <trkpt lat="53.1114780" lon="-1.6750460"/>
            <trkpt lat="53.1113940" lon="-1.6753300"/>
            <trkpt lat="53.1111140" lon="-1.6752220"/>
            <trkpt lat="53.1104390" lon="-1.6750600"/>
            <trkpt lat="53.1101110" lon="-1.6749460"/>
            <trkpt lat="53.1097610" lon="-1.6747280"/>
            <trkpt lat="53.1081490" lon="-1.6733540"/>
            <trkpt lat="53.1078230" lon="-1.6730490"/>
            <trkpt lat="53.1076400" lon="-1.6728050"/>
            <trkpt lat="53.1032640" lon="-1.6665000"/>
            <trkpt lat="53.1027070" lon="-1.6657970"/>
            <trkpt lat="53.1047620" lon="-1.6621780"/>
            <trkpt lat="53.1047270" lon="-1.6621120"/>
            <trkpt lat="53.1011320" lon="-1.6592890"/>
            <trkpt lat="53.1007480" lon="-1.6589700"/>
            <trkpt lat="53.1007290" lon="-1.6590420"/>
            <trkpt lat="53.0989820" lon="-1.6587460"/>
            <trkpt lat="53.0988960" lon="-1.6598200"/>
            <trkpt lat="53.0986850" lon="-1.6596900"/>
            <trkpt lat="53.0986370" lon="-1.6595780"/>
            <trkpt lat="53.0984890" lon="-1.6594770"/>
            <trkpt lat="53.0983150" lon="-1.6593000"/>
            <trkpt lat="53.0976610" lon="-1.6588700"/>
            <trkpt lat="53.0975510" lon="-1.6588340"/>
            <trkpt lat="53.0978830" lon="-1.6581790"/>
            <trkpt lat="53.0980020" lon="-1.6578790"/>
            <trkpt lat="53.0983000" lon="-1.6561970"/>
            <trkpt lat="53.0985600" lon="-1.6544040"/>
            <trkpt lat="53.0986180" lon="-1.6540860"/>
            <trkpt lat="53.0987180" lon="-1.6539260"/>
            <trkpt lat="53.0988580" lon="-1.6539760"/>
            <trkpt lat="53.0988670" lon="-1.6542540"/>
        </trkseg>
    </trk>
</gpx>
