<?xml version="1.0" encoding="UTF-8" standalone="yes"?>
<gpx version="1.1" creator="OS Maps - Web" xmlns="http://www.topografix.com/GPX/1/1"
xmlns:xsi="http://www.w3.org/2001/XMLSchema-instance"
xsi:schemaLocation="http://www.topografix.com/GPX/1/1 http://www.topografix.com/GPX/1/1/gpx.xsd"
xmlns:gs="http://www.topografix.com/GPX/gpx_style/0/2"
xmlns:gh="https://graphhopper.com/public/schema/gpx/1.1"
xmlns:os="https://ordnancesurvey.co.uk/public/schema/route/0.1">
    <metadata>
        <name>Bolehill (Ethel) - Circular (www.thelostpeak.co.uk)</name>
        <desc></desc>
        <bounds minlat="53.0913900" minlon="-1.5894100" maxlat="53.1116600" maxlon="-1.5327800"/>
        <extensions>
            <os:version>2.0</os:version>
            <os:point lat="53.1096100" lon="-1.5527600" type="start"/>
            <os:point lat="53.1096100" lon="-1.5527600" type="end"/>
            <os:activity>ON_FOOT_WALKING</os:activity>
            <os:difficulty>MODERATE</os:difficulty>
            <os:paths/>
            <os:distance>11269.2390044</os:distance>
            <os:elevation_ascent>390.8500000</os:elevation_ascent>
        </extensions>
    </metadata>
    <wpt lat="53.1096100" lon="-1.5527600"/>
    <wpt lat="53.1096100" lon="-1.5527600"/>
    <trk>
        <name>Bolehill (Ethel) - Circular (www.thelostpeak.co.uk)</name>
        <trkseg>
            <trkpt lat="53.1096100" lon="-1.5527600"><ele>88.3</ele></trkpt>
            <trkpt lat="53.1095000" lon="-1.5522400"><ele>89.2</ele></trkpt>
            <trkpt lat="53.1094400" lon="-1.5522700"><ele>89.9</ele></trkpt>
            <trkpt lat="53.1092200" lon="-1.5524900"><ele>93.1</ele></trkpt>
            <trkpt lat="53.1086700" lon="-1.5513200"><ele>90.5</ele></trkpt>
            <trkpt lat="53.1084300" lon="-1.5506100"><ele>87.1</ele></trkpt>
            <trkpt lat="53.1082400" lon="-1.5501400"><ele>88.0</ele></trkpt>
            <trkpt lat="53.1080700" lon="-1.5498900"><ele>88.5</ele></trkpt>
            <trkpt lat="53.1075600" lon="-1.5493100"><ele>88.9</ele></trkpt>
            <trkpt lat="53.1072600" lon="-1.5487400"><ele>89.2</ele></trkpt>
            <trkpt lat="53.1071800" lon="-1.5485200"><ele>88.9</ele></trkpt>
            <trkpt lat="53.1071700" lon="-1.5484100"><ele>88.5</ele></trkpt>
            <trkpt lat="53.1066700" lon="-1.5466200"><ele>86.8</ele></trkpt>
            <trkpt lat="53.1064000" lon="-1.5459800"><ele>89.6</ele></trkpt>
            <trkpt lat="53.1058000" lon="-1.5448400"><ele>90.6</ele></trkpt>
            <trkpt lat="53.1055400" lon="-1.5444500"><ele>93.1</ele></trkpt>
            <trkpt lat="53.1052600" lon="-1.5441800"><ele>93.8</ele></trkpt>
            <trkpt lat="53.1051200" lon="-1.5439800"><ele>93.7</ele></trkpt>
            <trkpt lat="53.1047400" lon="-1.5432500"><ele>90.4</ele></trkpt>
            <trkpt lat="53.1040200" lon="-1.5420900"><ele>90.8</ele></trkpt>
            <trkpt lat="53.1035300" lon="-1.5411300"><ele>90.1</ele></trkpt>
            <trkpt lat="53.1030600" lon="-1.5404000"><ele>89.9</ele></trkpt>
            <trkpt lat="53.1027200" lon="-1.5399900"><ele>92.5</ele></trkpt>
            <trkpt lat="53.1026200" lon="-1.5397700"><ele>92.6</ele></trkpt>
            <trkpt lat="53.1025300" lon="-1.5392500"><ele>90.6</ele></trkpt>
            <trkpt lat="53.1023800" lon="-1.5386200"><ele>90.4</ele></trkpt>
            <trkpt lat="53.1020400" lon="-1.5377200"><ele>90.1</ele></trkpt>
            <trkpt lat="53.1017900" lon="-1.5371800"><ele>91.9</ele></trkpt>
            <trkpt lat="53.1016000" lon="-1.5366100"><ele>91.7</ele></trkpt>
            <trkpt lat="53.1014800" lon="-1.5362400"><ele>90.3</ele></trkpt>
            <trkpt lat="53.1012800" lon="-1.5354100"><ele>89.3</ele></trkpt>
            <trkpt lat="53.1010400" lon="-1.5346700"><ele>89.4</ele></trkpt>
            <trkpt lat="53.1008100" lon="-1.5338400"><ele>88.1</ele></trkpt>
            <trkpt lat="53.1005400" lon="-1.5332000"><ele>87.9</ele></trkpt>
            <trkpt lat="53.1002900" lon="-1.5327800"><ele>87.5</ele></trkpt>
            <trkpt lat="53.1001400" lon="-1.5330500"><ele>90.6</ele></trkpt>
            <trkpt lat="53.1002600" lon="-1.5344600"><ele>96.3</ele></trkpt>
            <trkpt lat="53.1005300" lon="-1.5365100"><ele>104.1</ele></trkpt>
            <trkpt lat="53.1005400" lon="-1.5366000"><ele>104.6</ele></trkpt>
            <trkpt lat="53.1005400" lon="-1.5369400"><ele>105.7</ele></trkpt>
            <trkpt lat="53.1008300" lon="-1.5396300"><ele>138.4</ele></trkpt>
            <trkpt lat="53.1016300" lon="-1.5464400"><ele>195.0</ele></trkpt>
            <trkpt lat="53.1016700" lon="-1.5469200"><ele>199.6</ele></trkpt>
            <trkpt lat="53.1022000" lon="-1.5520500"><ele>229.0</ele></trkpt>
            <trkpt lat="53.1021900" lon="-1.5523600"><ele>228.6</ele></trkpt>
            <trkpt lat="53.1021100" lon="-1.5528600"><ele>228.1</ele></trkpt>
            <trkpt lat="53.1017100" lon="-1.5546100"><ele>224.6</ele></trkpt>
            <trkpt lat="53.1011100" lon="-1.5577600"><ele>237.7</ele></trkpt>
            <trkpt lat="53.1009600" lon="-1.5582500"><ele>237.7</ele></trkpt>
            <trkpt lat="53.1005000" lon="-1.5591700"><ele>231.2</ele></trkpt>
            <trkpt lat="53.0993800" lon="-1.5612300"><ele>236.9</ele></trkpt>
            <trkpt lat="53.0992700" lon="-1.5615600"><ele>236.9</ele></trkpt>
            <trkpt lat="53.0991700" lon="-1.5620700"><ele>235.2</ele></trkpt>
            <trkpt lat="53.0989800" lon="-1.5634800"><ele>233.9</ele></trkpt>
            <trkpt lat="53.0989300" lon="-1.5634700"><ele>236.5</ele></trkpt>
            <trkpt lat="53.0988500" lon="-1.5639200"><ele>237.5</ele></trkpt>
            <trkpt lat="53.0987400" lon="-1.5642100"><ele>238.1</ele></trkpt>
            <trkpt lat="53.0985600" lon="-1.5648600"><ele>235.2</ele></trkpt>
            <trkpt lat="53.0984200" lon="-1.5651800"><ele>233.9</ele></trkpt>
            <trkpt lat="53.0983800" lon="-1.5650700"><ele>235.2</ele></trkpt>
            <trkpt lat="53.0982500" lon="-1.5649600"><ele>237.9</ele></trkpt>
            <trkpt lat="53.0981800" lon="-1.5650100"><ele>238.4</ele></trkpt>
            <trkpt lat="53.0980300" lon="-1.5649600"><ele>241.6</ele></trkpt>
            <trkpt lat="53.0978400" lon="-1.5645700"><ele>249.3</ele></trkpt>
            <trkpt lat="53.0975400" lon="-1.5641800"><ele>260.6</ele></trkpt>
            <trkpt lat="53.0974700" lon="-1.5638300"><ele>266.4</ele></trkpt>
            <trkpt lat="53.0974400" lon="-1.5634000"><ele>271.6</ele></trkpt>
            <trkpt lat="53.0973100" lon="-1.5628800"><ele>280.2</ele></trkpt>
            <trkpt lat="53.0972600" lon="-1.5625000"><ele>286.2</ele></trkpt>
            <trkpt lat="53.0973000" lon="-1.5621700"><ele>289.9</ele></trkpt>
            <trkpt lat="53.0970900" lon="-1.5616100"><ele>296.1</ele></trkpt>
            <trkpt lat="53.0970400" lon="-1.5615800"><ele>296.6</ele></trkpt>
            <trkpt lat="53.0969900" lon="-1.5617500"><ele>295.8</ele></trkpt>
            <trkpt lat="53.0969100" lon="-1.5618500"><ele>296.6</ele></trkpt>
            <trkpt lat="53.0968800" lon="-1.5620400"><ele>295.5</ele></trkpt>
            <trkpt lat="53.0967800" lon="-1.5621300"><ele>296.9</ele></trkpt>
            <trkpt lat="53.0966100" lon="-1.5621700"><ele>300.4</ele></trkpt>
            <trkpt lat="53.0965000" lon="-1.5620800"><ele>303.9</ele></trkpt>
            <trkpt lat="53.0962600" lon="-1.5621600"><ele>311.0</ele></trkpt>
            <trkpt lat="53.0957800" lon="-1.5625300"><ele>312.9</ele></trkpt>
            <trkpt lat="53.0956400" lon="-1.5625700"><ele>312.4</ele></trkpt>
            <trkpt lat="53.0955900" lon="-1.5625400"><ele>312.8</ele></trkpt>
            <trkpt lat="53.0954900" lon="-1.5625900"><ele>312.6</ele></trkpt>
            <trkpt lat="53.0953500" lon="-1.5625600"><ele>313.3</ele></trkpt>
            <trkpt lat="53.0952800" lon="-1.5626100"><ele>313.5</ele></trkpt>
            <trkpt lat="53.0951600" lon="-1.5626200"><ele>314.3</ele></trkpt>
            <trkpt lat="53.0950300" lon="-1.5625900"><ele>315.7</ele></trkpt>
            <trkpt lat="53.0947200" lon="-1.5626300"><ele>314.6</ele></trkpt>
            <trkpt lat="53.0946300" lon="-1.5625800"><ele>314.4</ele></trkpt>
            <trkpt lat="53.0945800" lon="-1.5625900"><ele>314.0</ele></trkpt>
            <trkpt lat="53.0943500" lon="-1.5623400"><ele>315.6</ele></trkpt>
            <trkpt lat="53.0941200" lon="-1.5619900"><ele>317.3</ele></trkpt>
            <trkpt lat="53.0938700" lon="-1.5615300"><ele>317.0</ele></trkpt>
            <trkpt lat="53.0935800" lon="-1.5610900"><ele>309.1</ele></trkpt>
            <trkpt lat="53.0933100" lon="-1.5609000"><ele>303.3</ele></trkpt>
            <trkpt lat="53.0931300" lon="-1.5609200"><ele>299.2</ele></trkpt>
            <trkpt lat="53.0927800" lon="-1.5607600"><ele>291.1</ele></trkpt>
            <trkpt lat="53.0924900" lon="-1.5610900"><ele>282.0</ele></trkpt>
            <trkpt lat="53.0922700" lon="-1.5614700"><ele>275.1</ele></trkpt>
            <trkpt lat="53.0920400" lon="-1.5621900"><ele>260.3</ele></trkpt>
            <trkpt lat="53.0921400" lon="-1.5624300"><ele>256.7</ele></trkpt>
            <trkpt lat="53.0923900" lon="-1.5634500"><ele>251.3</ele></trkpt>
            <trkpt lat="53.0923000" lon="-1.5635500"><ele>248.2</ele></trkpt>
            <trkpt lat="53.0921400" lon="-1.5636600"><ele>242.0</ele></trkpt>
            <trkpt lat="53.0921700" lon="-1.5637900"><ele>241.6</ele></trkpt>
            <trkpt lat="53.0920000" lon="-1.5639800"><ele>235.3</ele></trkpt>
            <trkpt lat="53.0916200" lon="-1.5641600"><ele>225.3</ele></trkpt>
            <trkpt lat="53.0915200" lon="-1.5641600"><ele>223.2</ele></trkpt>
            <trkpt lat="53.0913900" lon="-1.5643800"><ele>217.8</ele></trkpt>
            <trkpt lat="53.0919600" lon="-1.5648000"><ele>221.7</ele></trkpt>
            <trkpt lat="53.0920300" lon="-1.5648900"><ele>221.9</ele></trkpt>
            <trkpt lat="53.0921300" lon="-1.5650900"><ele>220.9</ele></trkpt>
            <trkpt lat="53.0922300" lon="-1.5653900"><ele>219.2</ele></trkpt>
            <trkpt lat="53.0923200" lon="-1.5659900"><ele>216.3</ele></trkpt>
            <trkpt lat="53.0924000" lon="-1.5661300"><ele>216.9</ele></trkpt>
            <trkpt lat="53.0923400" lon="-1.5666200"><ele>213.6</ele></trkpt>
            <trkpt lat="53.0923600" lon="-1.5668600"><ele>212.9</ele></trkpt>
            <trkpt lat="53.0923300" lon="-1.5682800"><ele>206.7</ele></trkpt>
            <trkpt lat="53.0923200" lon="-1.5694900"><ele>202.1</ele></trkpt>
            <trkpt lat="53.0926400" lon="-1.5694800"><ele>205.8</ele></trkpt>
            <trkpt lat="53.0926700" lon="-1.5699300"><ele>205.7</ele></trkpt>
            <trkpt lat="53.0927800" lon="-1.5702800"><ele>207.6</ele></trkpt>
            <trkpt lat="53.0929200" lon="-1.5705400"><ele>208.9</ele></trkpt>
            <trkpt lat="53.0929200" lon="-1.5706600"><ele>208.3</ele></trkpt>
            <trkpt lat="53.0928000" lon="-1.5710700"><ele>205.3</ele></trkpt>
            <trkpt lat="53.0927900" lon="-1.5714300"><ele>203.6</ele></trkpt>
            <trkpt lat="53.0926600" lon="-1.5716100"><ele>201.4</ele></trkpt>
            <trkpt lat="53.0926500" lon="-1.5717400"><ele>201.5</ele></trkpt>
            <trkpt lat="53.0926700" lon="-1.5719400"><ele>202.2</ele></trkpt>
            <trkpt lat="53.0927600" lon="-1.5721800"><ele>203.6</ele></trkpt>
            <trkpt lat="53.0929000" lon="-1.5723300"><ele>205.7</ele></trkpt>
            <trkpt lat="53.0929500" lon="-1.5724300"><ele>206.3</ele></trkpt>
            <trkpt lat="53.0930400" lon="-1.5732700"><ele>206.8</ele></trkpt>
            <trkpt lat="53.0932400" lon="-1.5735300"><ele>211.1</ele></trkpt>
            <trkpt lat="53.0932800" lon="-1.5736400"><ele>212.5</ele></trkpt>
            <trkpt lat="53.0933100" lon="-1.5736100"><ele>212.8</ele></trkpt>
            <trkpt lat="53.0933200" lon="-1.5734400"><ele>212.2</ele></trkpt>
            <trkpt lat="53.0933700" lon="-1.5736200"><ele>213.9</ele></trkpt>
            <trkpt lat="53.0936400" lon="-1.5737600"><ele>218.9</ele></trkpt>
            <trkpt lat="53.0936600" lon="-1.5737300"><ele>218.8</ele></trkpt>
            <trkpt lat="53.0936800" lon="-1.5738500"><ele>219.5</ele></trkpt>
            <trkpt lat="53.0937200" lon="-1.5739300"><ele>220.3</ele></trkpt>
            <trkpt lat="53.0938900" lon="-1.5736500"><ele>221.6</ele></trkpt>
            <trkpt lat="53.0940600" lon="-1.5738300"><ele>224.5</ele></trkpt>
            <trkpt lat="53.0941100" lon="-1.5739700"><ele>225.7</ele></trkpt>
            <trkpt lat="53.0941300" lon="-1.5742100"><ele>226.6</ele></trkpt>
            <trkpt lat="53.0943500" lon="-1.5743000"><ele>230.2</ele></trkpt>
            <trkpt lat="53.0951900" lon="-1.5748400"><ele>239.8</ele></trkpt>
            <trkpt lat="53.0952600" lon="-1.5748700"><ele>240.4</ele></trkpt>
            <trkpt lat="53.0953100" lon="-1.5750400"><ele>241.4</ele></trkpt>
            <trkpt lat="53.0954800" lon="-1.5752200"><ele>243.4</ele></trkpt>
            <trkpt lat="53.0955400" lon="-1.5755700"><ele>244.1</ele></trkpt>
            <trkpt lat="53.0956800" lon="-1.5757700"><ele>244.3</ele></trkpt>
            <trkpt lat="53.0957800" lon="-1.5758100"><ele>244.1</ele></trkpt>
            <trkpt lat="53.0958300" lon="-1.5760900"><ele>244.7</ele></trkpt>
            <trkpt lat="53.0958300" lon="-1.5766700"><ele>246.2</ele></trkpt>
            <trkpt lat="53.0958700" lon="-1.5768100"><ele>246.1</ele></trkpt>
            <trkpt lat="53.0958600" lon="-1.5768300"><ele>246.1</ele></trkpt>
            <trkpt lat="53.0960100" lon="-1.5769500"><ele>246.3</ele></trkpt>
            <trkpt lat="53.0964700" lon="-1.5774700"><ele>249.0</ele></trkpt>
            <trkpt lat="53.0967000" lon="-1.5776100"><ele>248.7</ele></trkpt>
            <trkpt lat="53.0968200" lon="-1.5776300"><ele>248.2</ele></trkpt>
            <trkpt lat="53.0968700" lon="-1.5776100"><ele>248.0</ele></trkpt>
            <trkpt lat="53.0968800" lon="-1.5776800"><ele>248.0</ele></trkpt>
            <trkpt lat="53.0970300" lon="-1.5779400"><ele>247.5</ele></trkpt>
            <trkpt lat="53.0973200" lon="-1.5782600"><ele>246.2</ele></trkpt>
            <trkpt lat="53.0973900" lon="-1.5784300"><ele>245.5</ele></trkpt>
            <trkpt lat="53.0974900" lon="-1.5785700"><ele>245.1</ele></trkpt>
            <trkpt lat="53.0975100" lon="-1.5787800"><ele>245.2</ele></trkpt>
            <trkpt lat="53.0977500" lon="-1.5790000"><ele>245.9</ele></trkpt>
            <trkpt lat="53.0978100" lon="-1.5791800"><ele>245.9</ele></trkpt>
            <trkpt lat="53.0978500" lon="-1.5793600"><ele>245.9</ele></trkpt>
            <trkpt lat="53.0978800" lon="-1.5805100"><ele>241.0</ele></trkpt>
            <trkpt lat="53.0978400" lon="-1.5807000"><ele>241.1</ele></trkpt>
            <trkpt lat="53.0979100" lon="-1.5815600"><ele>239.9</ele></trkpt>
            <trkpt lat="53.0979400" lon="-1.5817700"><ele>240.3</ele></trkpt>
            <trkpt lat="53.0979700" lon="-1.5823500"><ele>244.2</ele></trkpt>
            <trkpt lat="53.0980100" lon="-1.5841700"><ele>249.6</ele></trkpt>
            <trkpt lat="53.0980300" lon="-1.5845700"><ele>252.7</ele></trkpt>
            <trkpt lat="53.0980900" lon="-1.5847800"><ele>254.5</ele></trkpt>
            <trkpt lat="53.0981900" lon="-1.5850100"><ele>256.1</ele></trkpt>
            <trkpt lat="53.0996500" lon="-1.5873500"><ele>271.4</ele></trkpt>
            <trkpt lat="53.0995500" lon="-1.5876400"><ele>275.3</ele></trkpt>
            <trkpt lat="53.1002000" lon="-1.5881800"><ele>275.9</ele></trkpt>
            <trkpt lat="53.1010200" lon="-1.5890400"><ele>287.5</ele></trkpt>
            <trkpt lat="53.1012700" lon="-1.5891600"><ele>290.8</ele></trkpt>
            <trkpt lat="53.1014100" lon="-1.5891900"><ele>292.2</ele></trkpt>
            <trkpt lat="53.1015700" lon="-1.5893200"><ele>294.4</ele></trkpt>
            <trkpt lat="53.1016300" lon="-1.5894100"><ele>295.2</ele></trkpt>
            <trkpt lat="53.1018600" lon="-1.5889800"><ele>296.1</ele></trkpt>
            <trkpt lat="53.1019700" lon="-1.5885500"><ele>296.8</ele></trkpt>
            <trkpt lat="53.1021300" lon="-1.5878300"><ele>296.3</ele></trkpt>
            <trkpt lat="53.1022200" lon="-1.5876000"><ele>296.6</ele></trkpt>
            <trkpt lat="53.1025100" lon="-1.5870100"><ele>297.9</ele></trkpt>
            <trkpt lat="53.1027300" lon="-1.5862500"><ele>295.9</ele></trkpt>
            <trkpt lat="53.1030100" lon="-1.5855600"><ele>295.5</ele></trkpt>
            <trkpt lat="53.1031100" lon="-1.5852800"><ele>295.3</ele></trkpt>
            <trkpt lat="53.1034700" lon="-1.5847200"><ele>295.2</ele></trkpt>
            <trkpt lat="53.1038600" lon="-1.5843200"><ele>293.1</ele></trkpt>
            <trkpt lat="53.1039500" lon="-1.5841800"><ele>292.7</ele></trkpt>
            <trkpt lat="53.1040100" lon="-1.5841500"><ele>292.5</ele></trkpt>
            <trkpt lat="53.1047100" lon="-1.5840000"><ele>291.6</ele></trkpt>
            <trkpt lat="53.1048700" lon="-1.5839000"><ele>290.7</ele></trkpt>
            <trkpt lat="53.1050100" lon="-1.5837300"><ele>289.1</ele></trkpt>
            <trkpt lat="53.1059700" lon="-1.5831000"><ele>282.2</ele></trkpt>
            <trkpt lat="53.1065500" lon="-1.5830300"><ele>276.3</ele></trkpt>
            <trkpt lat="53.1068300" lon="-1.5830900"><ele>274.0</ele></trkpt>
            <trkpt lat="53.1072900" lon="-1.5827100"><ele>271.1</ele></trkpt>
            <trkpt lat="53.1075000" lon="-1.5827500"><ele>268.7</ele></trkpt>
            <trkpt lat="53.1077200" lon="-1.5826500"><ele>263.7</ele></trkpt>
            <trkpt lat="53.1078600" lon="-1.5827500"><ele>262.1</ele></trkpt>
            <trkpt lat="53.1081100" lon="-1.5827200"><ele>259.9</ele></trkpt>
            <trkpt lat="53.1082200" lon="-1.5827500"><ele>259.5</ele></trkpt>
            <trkpt lat="53.1085300" lon="-1.5829300"><ele>257.4</ele></trkpt>
            <trkpt lat="53.1087500" lon="-1.5831700"><ele>254.2</ele></trkpt>
            <trkpt lat="53.1088800" lon="-1.5832400"><ele>252.7</ele></trkpt>
            <trkpt lat="53.1089200" lon="-1.5832100"><ele>251.7</ele></trkpt>
            <trkpt lat="53.1089500" lon="-1.5832100"><ele>251.4</ele></trkpt>
            <trkpt lat="53.1093200" lon="-1.5827900"><ele>244.8</ele></trkpt>
            <trkpt lat="53.1097100" lon="-1.5822300"><ele>238.7</ele></trkpt>
            <trkpt lat="53.1098900" lon="-1.5820900"><ele>236.7</ele></trkpt>
            <trkpt lat="53.1102000" lon="-1.5815300"><ele>230.4</ele></trkpt>
            <trkpt lat="53.1107400" lon="-1.5806800"><ele>218.2</ele></trkpt>
            <trkpt lat="53.1108600" lon="-1.5805800"><ele>216.3</ele></trkpt>
            <trkpt lat="53.1109800" lon="-1.5806900"><ele>215.4</ele></trkpt>
            <trkpt lat="53.1110400" lon="-1.5804600"><ele>213.4</ele></trkpt>
            <trkpt lat="53.1113600" lon="-1.5796200"><ele>194.3</ele></trkpt>
            <trkpt lat="53.1115900" lon="-1.5781700"><ele>168.7</ele></trkpt>
            <trkpt lat="53.1116600" lon="-1.5779600"><ele>162.5</ele></trkpt>
            <trkpt lat="53.1116300" lon="-1.5776200"><ele>159.3</ele></trkpt>
            <trkpt lat="53.1114800" lon="-1.5772700"><ele>159.0</ele></trkpt>
            <trkpt lat="53.1112200" lon="-1.5768600"><ele>164.8</ele></trkpt>
            <trkpt lat="53.1111500" lon="-1.5768400"><ele>170.8</ele></trkpt>
            <trkpt lat="53.1112200" lon="-1.5764900"><ele>157.9</ele></trkpt>
            <trkpt lat="53.1112100" lon="-1.5762500"><ele>154.9</ele></trkpt>
            <trkpt lat="53.1111200" lon="-1.5760400"><ele>158.1</ele></trkpt>
            <trkpt lat="53.1109000" lon="-1.5756300"><ele>162.8</ele></trkpt>
            <trkpt lat="53.1108600" lon="-1.5755200"><ele>162.3</ele></trkpt>
            <trkpt lat="53.1108400" lon="-1.5753300"><ele>158.4</ele></trkpt>
            <trkpt lat="53.1106000" lon="-1.5744900"><ele>151.3</ele></trkpt>
            <trkpt lat="53.1104500" lon="-1.5733500"><ele>137.4</ele></trkpt>
            <trkpt lat="53.1103200" lon="-1.5729100"><ele>137.4</ele></trkpt>
            <trkpt lat="53.1102900" lon="-1.5723800"><ele>137.6</ele></trkpt>
            <trkpt lat="53.1103600" lon="-1.5720100"><ele>136.8</ele></trkpt>
            <trkpt lat="53.1105000" lon="-1.5714800"><ele>131.3</ele></trkpt>
            <trkpt lat="53.1105900" lon="-1.5713200"><ele>128.2</ele></trkpt>
            <trkpt lat="53.1108500" lon="-1.5707400"><ele>123.5</ele></trkpt>
            <trkpt lat="53.1110000" lon="-1.5703500"><ele>120.9</ele></trkpt>
            <trkpt lat="53.1110000" lon="-1.5702100"><ele>121.2</ele></trkpt>
            <trkpt lat="53.1111000" lon="-1.5699600"><ele>119.0</ele></trkpt>
            <trkpt lat="53.1111400" lon="-1.5696800"><ele>118.8</ele></trkpt>
            <trkpt lat="53.1111000" lon="-1.5693700"><ele>120.0</ele></trkpt>
            <trkpt lat="53.1103000" lon="-1.5675000"><ele>134.3</ele></trkpt>
            <trkpt lat="53.1100300" lon="-1.5667900"><ele>131.1</ele></trkpt>
            <trkpt lat="53.1098900" lon="-1.5663500"><ele>129.6</ele></trkpt>
            <trkpt lat="53.1094700" lon="-1.5652700"><ele>123.6</ele></trkpt>
            <trkpt lat="53.1092900" lon="-1.5651400"><ele>123.6</ele></trkpt>
            <trkpt lat="53.1091700" lon="-1.5649700"><ele>122.3</ele></trkpt>
            <trkpt lat="53.1092100" lon="-1.5646900"><ele>115.5</ele></trkpt>
            <trkpt lat="53.1090300" lon="-1.5641600"><ele>108.1</ele></trkpt>
            <trkpt lat="53.1092600" lon="-1.5640000"><ele>103.1</ele></trkpt>
            <trkpt lat="53.1093300" lon="-1.5639800"><ele>102.9</ele></trkpt>
            <trkpt lat="53.1094500" lon="-1.5637700"><ele>102.8</ele></trkpt>
            <trkpt lat="53.1094000" lon="-1.5636800"><ele>102.4</ele></trkpt>
            <trkpt lat="53.1094500" lon="-1.5635600"><ele>104.2</ele></trkpt>
            <trkpt lat="53.1094200" lon="-1.5631900"><ele>106.6</ele></trkpt>
            <trkpt lat="53.1093300" lon="-1.5626900"><ele>107.9</ele></trkpt>
            <trkpt lat="53.1090400" lon="-1.5608700"><ele>101.8</ele></trkpt>
            <trkpt lat="53.1088400" lon="-1.5599100"><ele>96.2</ele></trkpt>
            <trkpt lat="53.1087800" lon="-1.5597300"><ele>96.5</ele></trkpt>
            <trkpt lat="53.1089100" lon="-1.5594800"><ele>97.2</ele></trkpt>
            <trkpt lat="53.1091800" lon="-1.5590200"><ele>99.4</ele></trkpt>
            <trkpt lat="53.1094700" lon="-1.5595700"><ele>101.4</ele></trkpt>
            <trkpt lat="53.1095500" lon="-1.5593700"><ele>99.0</ele></trkpt>
            <trkpt lat="53.1096300" lon="-1.5590600"><ele>99.2</ele></trkpt>
            <trkpt lat="53.1096200" lon="-1.5587700"><ele>101.2</ele></trkpt>
            <trkpt lat="53.1097800" lon="-1.5575000"><ele>104.6</ele></trkpt>
            <trkpt lat="53.1100500" lon="-1.5556600"><ele>93.0</ele></trkpt>
            <trkpt lat="53.1098900" lon="-1.5555600"><ele>93.3</ele></trkpt>
            <trkpt lat="53.1096700" lon="-1.5544700"><ele>90.7</ele></trkpt>
            <trkpt lat="53.1095900" lon="-1.5542300"><ele>91.7</ele></trkpt>
            <trkpt lat="53.1096400" lon="-1.5540900"><ele>90.7</ele></trkpt>
            <trkpt lat="53.1097700" lon="-1.5539000"><ele>88.9</ele></trkpt>
            <trkpt lat="53.1096800" lon="-1.5536700"><ele>89.4</ele></trkpt>
            <trkpt lat="53.1096700" lon="-1.5535700"><ele>89.0</ele></trkpt>
            <trkpt lat="53.1095700" lon="-1.5532500"><ele>90.4</ele></trkpt>
            <trkpt lat="53.1097100" lon="-1.5531800"><ele>87.6</ele></trkpt>
            <trkpt lat="53.1096100" lon="-1.5527600"><ele>88.3</ele></trkpt>
        </trkseg>
    </trk>
<!-- ele-hash:9db76e83d83ea75b -->
</gpx>
