<?xml version="1.0" encoding="UTF-8" standalone="yes"?>
<gpx version="1.1" creator="OS Maps - Web" xmlns="http://www.topografix.com/GPX/1/1"
xmlns:xsi="http://www.w3.org/2001/XMLSchema-instance"
xsi:schemaLocation="http://www.topografix.com/GPX/1/1 http://www.topografix.com/GPX/1/1/gpx.xsd"
xmlns:gs="http://www.topografix.com/GPX/gpx_style/0/2"
xmlns:gh="https://graphhopper.com/public/schema/gpx/1.1"
xmlns:os="https://ordnancesurvey.co.uk/public/schema/route/0.1">
    <metadata>
        <name>Bradwell Moor (Ethel) - Circular (www.thelostpeak.co.uk)</name>
        <desc></desc>
        <bounds minlat="53.3132100" minlon="-1.8135300" maxlat="53.3439700" maxlon="-1.7753000"/>
        <extensions>
            <os:version>2.0</os:version>
            <os:point lat="53.3132100" lon="-1.8084400" type="start"/>
            <os:point lat="53.3132100" lon="-1.8084400" type="end"/>
            <os:activity>ON_FOOT_WALKING</os:activity>
            <os:difficulty>MODERATE</os:difficulty>
            <os:paths/>
            <os:distance>11852.1109441</os:distance>
            <os:elevation_ascent>419.1600000</os:elevation_ascent>
        </extensions>
    </metadata>
    <wpt lat="53.3132100" lon="-1.8084400"/>
    <wpt lat="53.3132100" lon="-1.8084400"/>
    <trk>
        <name>Bradwell Moor (Ethel) - Circular (www.thelostpeak.co.uk)</name>
        <trkseg>
            <trkpt lat="53.3132100" lon="-1.8084400"><ele>404.8</ele></trkpt>
            <trkpt lat="53.3134900" lon="-1.8082600"><ele>409.0</ele></trkpt>
            <trkpt lat="53.3137200" lon="-1.8082800"><ele>412.4</ele></trkpt>
            <trkpt lat="53.3137100" lon="-1.8081300"><ele>412.9</ele></trkpt>
            <trkpt lat="53.3137300" lon="-1.8081000"><ele>413.6</ele></trkpt>
            <trkpt lat="53.3141100" lon="-1.8082400"><ele>418.3</ele></trkpt>
            <trkpt lat="53.3142500" lon="-1.8081700"><ele>420.7</ele></trkpt>
            <trkpt lat="53.3146700" lon="-1.8077000"><ele>431.3</ele></trkpt>
            <trkpt lat="53.3151300" lon="-1.8073100"><ele>438.7</ele></trkpt>
            <trkpt lat="53.3157200" lon="-1.8069500"><ele>446.0</ele></trkpt>
            <trkpt lat="53.3168500" lon="-1.8060700"><ele>457.8</ele></trkpt>
            <trkpt lat="53.3170500" lon="-1.8060400"><ele>458.0</ele></trkpt>
            <trkpt lat="53.3175400" lon="-1.8055700"><ele>459.3</ele></trkpt>
            <trkpt lat="53.3179600" lon="-1.8048500"><ele>463.3</ele></trkpt>
            <trkpt lat="53.3180500" lon="-1.8039700"><ele>467.7</ele></trkpt>
            <trkpt lat="53.3179900" lon="-1.8036200"><ele>468.6</ele></trkpt>
            <trkpt lat="53.3180500" lon="-1.8039700"><ele>467.7</ele></trkpt>
            <trkpt lat="53.3179600" lon="-1.8048500"><ele>463.3</ele></trkpt>
            <trkpt lat="53.3175400" lon="-1.8055700"><ele>459.3</ele></trkpt>
            <trkpt lat="53.3170500" lon="-1.8060400"><ele>458.0</ele></trkpt>
            <trkpt lat="53.3173500" lon="-1.8060000"><ele>457.3</ele></trkpt>
            <trkpt lat="53.3175800" lon="-1.8058500"><ele>456.6</ele></trkpt>
            <trkpt lat="53.3182200" lon="-1.8052000"><ele>454.3</ele></trkpt>
            <trkpt lat="53.3190700" lon="-1.8045100"><ele>450.8</ele></trkpt>
            <trkpt lat="53.3193400" lon="-1.8043400"><ele>450.3</ele></trkpt>
            <trkpt lat="53.3200200" lon="-1.8039900"><ele>448.6</ele></trkpt>
            <trkpt lat="53.3204300" lon="-1.8037100"><ele>449.1</ele></trkpt>
            <trkpt lat="53.3207600" lon="-1.8033500"><ele>444.1</ele></trkpt>
            <trkpt lat="53.3209300" lon="-1.8031100"><ele>442.5</ele></trkpt>
            <trkpt lat="53.3214200" lon="-1.8022600"><ele>439.9</ele></trkpt>
            <trkpt lat="53.3219400" lon="-1.8023300"><ele>431.1</ele></trkpt>
            <trkpt lat="53.3226200" lon="-1.8023400"><ele>425.4</ele></trkpt>
            <trkpt lat="53.3229800" lon="-1.8021500"><ele>424.6</ele></trkpt>
            <trkpt lat="53.3233100" lon="-1.8020800"><ele>422.6</ele></trkpt>
            <trkpt lat="53.3236700" lon="-1.8022000"><ele>419.3</ele></trkpt>
            <trkpt lat="53.3237900" lon="-1.8021700"><ele>419.0</ele></trkpt>
            <trkpt lat="53.3239800" lon="-1.8020800"><ele>418.7</ele></trkpt>
            <trkpt lat="53.3246400" lon="-1.8015500"><ele>420.4</ele></trkpt>
            <trkpt lat="53.3269800" lon="-1.7994500"><ele>421.9</ele></trkpt>
            <trkpt lat="53.3282700" lon="-1.7984500"><ele>423.4</ele></trkpt>
            <trkpt lat="53.3285200" lon="-1.7981800"><ele>423.9</ele></trkpt>
            <trkpt lat="53.3286200" lon="-1.7981600"><ele>423.9</ele></trkpt>
            <trkpt lat="53.3288700" lon="-1.7979600"><ele>424.2</ele></trkpt>
            <trkpt lat="53.3289500" lon="-1.7978200"><ele>424.3</ele></trkpt>
            <trkpt lat="53.3296800" lon="-1.7963100"><ele>420.8</ele></trkpt>
            <trkpt lat="53.3306000" lon="-1.7947100"><ele>415.3</ele></trkpt>
            <trkpt lat="53.3310500" lon="-1.7938500"><ele>411.8</ele></trkpt>
            <trkpt lat="53.3311800" lon="-1.7935500"><ele>410.3</ele></trkpt>
            <trkpt lat="53.3312300" lon="-1.7934000"><ele>409.5</ele></trkpt>
            <trkpt lat="53.3312700" lon="-1.7931700"><ele>408.2</ele></trkpt>
            <trkpt lat="53.3312800" lon="-1.7927400"><ele>406.8</ele></trkpt>
            <trkpt lat="53.3313400" lon="-1.7922400"><ele>404.8</ele></trkpt>
            <trkpt lat="53.3313300" lon="-1.7921200"><ele>404.7</ele></trkpt>
            <trkpt lat="53.3314000" lon="-1.7916800"><ele>404.6</ele></trkpt>
            <trkpt lat="53.3314700" lon="-1.7915100"><ele>404.5</ele></trkpt>
            <trkpt lat="53.3315000" lon="-1.7913500"><ele>404.4</ele></trkpt>
            <trkpt lat="53.3314800" lon="-1.7905500"><ele>403.1</ele></trkpt>
            <trkpt lat="53.3315500" lon="-1.7896100"><ele>400.9</ele></trkpt>
            <trkpt lat="53.3318000" lon="-1.7893300"><ele>399.0</ele></trkpt>
            <trkpt lat="53.3320600" lon="-1.7892000"><ele>398.0</ele></trkpt>
            <trkpt lat="53.3322200" lon="-1.7891800"><ele>397.1</ele></trkpt>
            <trkpt lat="53.3325800" lon="-1.7889900"><ele>394.8</ele></trkpt>
            <trkpt lat="53.3329600" lon="-1.7887400"><ele>392.5</ele></trkpt>
            <trkpt lat="53.3333600" lon="-1.7885800"><ele>388.5</ele></trkpt>
            <trkpt lat="53.3341300" lon="-1.7881000"><ele>382.2</ele></trkpt>
            <trkpt lat="53.3342700" lon="-1.7879900"><ele>381.3</ele></trkpt>
            <trkpt lat="53.3346200" lon="-1.7875500"><ele>377.6</ele></trkpt>
            <trkpt lat="53.3349900" lon="-1.7868900"><ele>370.7</ele></trkpt>
            <trkpt lat="53.3352900" lon="-1.7864100"><ele>365.6</ele></trkpt>
            <trkpt lat="53.3354400" lon="-1.7861200"><ele>361.9</ele></trkpt>
            <trkpt lat="53.3355300" lon="-1.7858600"><ele>359.5</ele></trkpt>
            <trkpt lat="53.3355800" lon="-1.7855200"><ele>356.9</ele></trkpt>
            <trkpt lat="53.3355700" lon="-1.7848300"><ele>354.7</ele></trkpt>
            <trkpt lat="53.3357300" lon="-1.7838200"><ele>350.7</ele></trkpt>
            <trkpt lat="53.3358600" lon="-1.7825700"><ele>341.9</ele></trkpt>
            <trkpt lat="53.3358000" lon="-1.7812000"><ele>336.9</ele></trkpt>
            <trkpt lat="53.3358000" lon="-1.7808400"><ele>333.0</ele></trkpt>
            <trkpt lat="53.3358700" lon="-1.7803000"><ele>326.1</ele></trkpt>
            <trkpt lat="53.3359500" lon="-1.7799400"><ele>322.6</ele></trkpt>
            <trkpt lat="53.3361800" lon="-1.7794000"><ele>318.7</ele></trkpt>
            <trkpt lat="53.3363300" lon="-1.7789300"><ele>319.4</ele></trkpt>
            <trkpt lat="53.3364300" lon="-1.7787600"><ele>319.0</ele></trkpt>
            <trkpt lat="53.3370300" lon="-1.7781900"><ele>305.4</ele></trkpt>
            <trkpt lat="53.3371200" lon="-1.7781500"><ele>303.1</ele></trkpt>
            <trkpt lat="53.3376400" lon="-1.7781900"><ele>285.2</ele></trkpt>
            <trkpt lat="53.3379400" lon="-1.7780500"><ele>279.0</ele></trkpt>
            <trkpt lat="53.3382200" lon="-1.7778200"><ele>271.1</ele></trkpt>
            <trkpt lat="53.3384200" lon="-1.7777100"><ele>266.1</ele></trkpt>
            <trkpt lat="53.3385600" lon="-1.7776800"><ele>263.2</ele></trkpt>
            <trkpt lat="53.3387100" lon="-1.7777300"><ele>261.1</ele></trkpt>
            <trkpt lat="53.3389600" lon="-1.7776500"><ele>259.7</ele></trkpt>
            <trkpt lat="53.3391200" lon="-1.7774200"><ele>258.0</ele></trkpt>
            <trkpt lat="53.3394700" lon="-1.7766600"><ele>255.5</ele></trkpt>
            <trkpt lat="53.3397300" lon="-1.7762300"><ele>252.6</ele></trkpt>
            <trkpt lat="53.3401500" lon="-1.7756600"><ele>249.2</ele></trkpt>
            <trkpt lat="53.3403100" lon="-1.7755600"><ele>246.8</ele></trkpt>
            <trkpt lat="53.3410200" lon="-1.7754900"><ele>225.1</ele></trkpt>
            <trkpt lat="53.3414400" lon="-1.7753000"><ele>212.0</ele></trkpt>
            <trkpt lat="53.3416100" lon="-1.7755500"><ele>208.2</ele></trkpt>
            <trkpt lat="53.3417300" lon="-1.7756000"><ele>204.6</ele></trkpt>
            <trkpt lat="53.3419000" lon="-1.7760200"><ele>201.3</ele></trkpt>
            <trkpt lat="53.3419200" lon="-1.7762600"><ele>201.2</ele></trkpt>
            <trkpt lat="53.3424100" lon="-1.7762600"><ele>197.6</ele></trkpt>
            <trkpt lat="53.3428500" lon="-1.7762900"><ele>195.4</ele></trkpt>
            <trkpt lat="53.3431500" lon="-1.7762700"><ele>193.7</ele></trkpt>
            <trkpt lat="53.3431600" lon="-1.7771200"><ele>190.3</ele></trkpt>
            <trkpt lat="53.3431700" lon="-1.7771500"><ele>190.2</ele></trkpt>
            <trkpt lat="53.3431600" lon="-1.7772700"><ele>190.0</ele></trkpt>
            <trkpt lat="53.3431600" lon="-1.7779200"><ele>190.1</ele></trkpt>
            <trkpt lat="53.3431200" lon="-1.7785900"><ele>191.5</ele></trkpt>
            <trkpt lat="53.3430600" lon="-1.7785800"><ele>191.6</ele></trkpt>
            <trkpt lat="53.3428900" lon="-1.7796100"><ele>194.3</ele></trkpt>
            <trkpt lat="53.3425000" lon="-1.7823600"><ele>199.0</ele></trkpt>
            <trkpt lat="53.3424200" lon="-1.7836400"><ele>204.1</ele></trkpt>
            <trkpt lat="53.3424200" lon="-1.7840200"><ele>205.6</ele></trkpt>
            <trkpt lat="53.3424800" lon="-1.7841700"><ele>205.8</ele></trkpt>
            <trkpt lat="53.3425100" lon="-1.7844400"><ele>206.0</ele></trkpt>
            <trkpt lat="53.3424300" lon="-1.7844700"><ele>206.3</ele></trkpt>
            <trkpt lat="53.3423300" lon="-1.7861500"><ele>211.8</ele></trkpt>
            <trkpt lat="53.3421300" lon="-1.7879200"><ele>221.2</ele></trkpt>
            <trkpt lat="53.3418700" lon="-1.7892700"><ele>227.0</ele></trkpt>
            <trkpt lat="53.3415900" lon="-1.7916400"><ele>247.7</ele></trkpt>
            <trkpt lat="53.3415500" lon="-1.7916100"><ele>248.0</ele></trkpt>
            <trkpt lat="53.3414800" lon="-1.7919900"><ele>251.0</ele></trkpt>
            <trkpt lat="53.3414800" lon="-1.7920800"><ele>251.5</ele></trkpt>
            <trkpt lat="53.3415100" lon="-1.7920800"><ele>250.9</ele></trkpt>
            <trkpt lat="53.3414000" lon="-1.7928900"><ele>257.6</ele></trkpt>
            <trkpt lat="53.3414400" lon="-1.7930500"><ele>259.0</ele></trkpt>
            <trkpt lat="53.3414200" lon="-1.7931500"><ele>260.4</ele></trkpt>
            <trkpt lat="53.3414600" lon="-1.7932300"><ele>260.7</ele></trkpt>
            <trkpt lat="53.3416400" lon="-1.7938800"><ele>271.5</ele></trkpt>
            <trkpt lat="53.3418200" lon="-1.7944600"><ele>285.9</ele></trkpt>
            <trkpt lat="53.3415300" lon="-1.7965200"><ele>341.4</ele></trkpt>
            <trkpt lat="53.3415100" lon="-1.7971000"><ele>357.4</ele></trkpt>
            <trkpt lat="53.3415400" lon="-1.7973400"><ele>363.0</ele></trkpt>
            <trkpt lat="53.3417700" lon="-1.7985700"><ele>379.9</ele></trkpt>
            <trkpt lat="53.3419900" lon="-1.7993200"><ele>389.8</ele></trkpt>
            <trkpt lat="53.3420600" lon="-1.7993000"><ele>392.2</ele></trkpt>
            <trkpt lat="53.3421600" lon="-1.7993100"><ele>394.4</ele></trkpt>
            <trkpt lat="53.3423000" lon="-1.7998600"><ele>393.5</ele></trkpt>
            <trkpt lat="53.3427400" lon="-1.8003300"><ele>389.7</ele></trkpt>
            <trkpt lat="53.3429700" lon="-1.8005200"><ele>387.4</ele></trkpt>
            <trkpt lat="53.3433000" lon="-1.8009400"><ele>386.4</ele></trkpt>
            <trkpt lat="53.3435400" lon="-1.8013600"><ele>384.8</ele></trkpt>
            <trkpt lat="53.3436900" lon="-1.8020400"><ele>383.2</ele></trkpt>
            <trkpt lat="53.3438200" lon="-1.8022600"><ele>383.8</ele></trkpt>
            <trkpt lat="53.3439700" lon="-1.8026500"><ele>384.5</ele></trkpt>
            <trkpt lat="53.3439000" lon="-1.8033300"><ele>386.1</ele></trkpt>
            <trkpt lat="53.3437600" lon="-1.8040400"><ele>389.3</ele></trkpt>
            <trkpt lat="53.3437300" lon="-1.8044000"><ele>390.4</ele></trkpt>
            <trkpt lat="53.3437500" lon="-1.8046800"><ele>390.6</ele></trkpt>
            <trkpt lat="53.3437400" lon="-1.8049200"><ele>390.8</ele></trkpt>
            <trkpt lat="53.3437600" lon="-1.8051800"><ele>391.1</ele></trkpt>
            <trkpt lat="53.3438400" lon="-1.8054200"><ele>390.8</ele></trkpt>
            <trkpt lat="53.3430000" lon="-1.8052500"><ele>391.1</ele></trkpt>
            <trkpt lat="53.3426200" lon="-1.8046000"><ele>393.6</ele></trkpt>
            <trkpt lat="53.3425300" lon="-1.8046200"><ele>394.3</ele></trkpt>
            <trkpt lat="53.3426100" lon="-1.8054100"><ele>392.7</ele></trkpt>
            <trkpt lat="53.3425400" lon="-1.8059400"><ele>394.7</ele></trkpt>
            <trkpt lat="53.3424000" lon="-1.8065400"><ele>397.0</ele></trkpt>
            <trkpt lat="53.3417300" lon="-1.8088800"><ele>404.8</ele></trkpt>
            <trkpt lat="53.3413300" lon="-1.8099700"><ele>409.7</ele></trkpt>
            <trkpt lat="53.3412900" lon="-1.8101600"><ele>410.8</ele></trkpt>
            <trkpt lat="53.3411300" lon="-1.8103300"><ele>413.1</ele></trkpt>
            <trkpt lat="53.3409000" lon="-1.8108700"><ele>416.1</ele></trkpt>
            <trkpt lat="53.3407200" lon="-1.8112100"><ele>416.2</ele></trkpt>
            <trkpt lat="53.3406800" lon="-1.8111400"><ele>416.5</ele></trkpt>
            <trkpt lat="53.3403500" lon="-1.8110500"><ele>417.4</ele></trkpt>
            <trkpt lat="53.3391900" lon="-1.8111800"><ele>425.1</ele></trkpt>
            <trkpt lat="53.3383200" lon="-1.8112200"><ele>425.1</ele></trkpt>
            <trkpt lat="53.3374600" lon="-1.8113000"><ele>430.7</ele></trkpt>
            <trkpt lat="53.3366100" lon="-1.8111100"><ele>433.7</ele></trkpt>
            <trkpt lat="53.3355900" lon="-1.8112300"><ele>449.2</ele></trkpt>
            <trkpt lat="53.3353000" lon="-1.8114300"><ele>453.7</ele></trkpt>
            <trkpt lat="53.3347100" lon="-1.8117200"><ele>459.1</ele></trkpt>
            <trkpt lat="53.3344700" lon="-1.8118900"><ele>462.3</ele></trkpt>
            <trkpt lat="53.3340800" lon="-1.8122600"><ele>466.2</ele></trkpt>
            <trkpt lat="53.3339100" lon="-1.8123700"><ele>467.5</ele></trkpt>
            <trkpt lat="53.3337900" lon="-1.8123800"><ele>468.6</ele></trkpt>
            <trkpt lat="53.3335200" lon="-1.8126200"><ele>470.8</ele></trkpt>
            <trkpt lat="53.3331200" lon="-1.8130900"><ele>472.1</ele></trkpt>
            <trkpt lat="53.3330000" lon="-1.8132000"><ele>472.7</ele></trkpt>
            <trkpt lat="53.3327400" lon="-1.8133600"><ele>472.5</ele></trkpt>
            <trkpt lat="53.3322300" lon="-1.8134800"><ele>471.3</ele></trkpt>
            <trkpt lat="53.3317800" lon="-1.8135300"><ele>468.3</ele></trkpt>
            <trkpt lat="53.3300300" lon="-1.8127700"><ele>459.3</ele></trkpt>
            <trkpt lat="53.3298100" lon="-1.8126500"><ele>456.4</ele></trkpt>
            <trkpt lat="53.3295400" lon="-1.8124100"><ele>453.2</ele></trkpt>
            <trkpt lat="53.3295800" lon="-1.8120600"><ele>453.0</ele></trkpt>
            <trkpt lat="53.3296000" lon="-1.8113800"><ele>452.0</ele></trkpt>
            <trkpt lat="53.3295800" lon="-1.8099600"><ele>449.6</ele></trkpt>
            <trkpt lat="53.3295200" lon="-1.8084400"><ele>448.0</ele></trkpt>
            <trkpt lat="53.3295000" lon="-1.8057200"><ele>439.0</ele></trkpt>
            <trkpt lat="53.3294400" lon="-1.8046600"><ele>434.9</ele></trkpt>
            <trkpt lat="53.3292100" lon="-1.8014900"><ele>425.7</ele></trkpt>
            <trkpt lat="53.3291500" lon="-1.8011200"><ele>424.4</ele></trkpt>
            <trkpt lat="53.3290600" lon="-1.8001300"><ele>423.5</ele></trkpt>
            <trkpt lat="53.3285800" lon="-1.7981700"><ele>423.9</ele></trkpt>
            <trkpt lat="53.3285200" lon="-1.7981800"><ele>423.9</ele></trkpt>
            <trkpt lat="53.3282700" lon="-1.7984500"><ele>423.4</ele></trkpt>
            <trkpt lat="53.3269800" lon="-1.7994500"><ele>421.9</ele></trkpt>
            <trkpt lat="53.3246400" lon="-1.8015500"><ele>420.4</ele></trkpt>
            <trkpt lat="53.3239800" lon="-1.8020800"><ele>418.7</ele></trkpt>
            <trkpt lat="53.3237900" lon="-1.8021700"><ele>419.0</ele></trkpt>
            <trkpt lat="53.3236700" lon="-1.8022000"><ele>419.3</ele></trkpt>
            <trkpt lat="53.3233100" lon="-1.8020800"><ele>422.6</ele></trkpt>
            <trkpt lat="53.3229800" lon="-1.8021500"><ele>424.6</ele></trkpt>
            <trkpt lat="53.3226200" lon="-1.8023400"><ele>425.4</ele></trkpt>
            <trkpt lat="53.3219400" lon="-1.8023300"><ele>431.1</ele></trkpt>
            <trkpt lat="53.3214200" lon="-1.8022600"><ele>439.9</ele></trkpt>
            <trkpt lat="53.3209300" lon="-1.8031100"><ele>442.5</ele></trkpt>
            <trkpt lat="53.3207600" lon="-1.8033500"><ele>444.1</ele></trkpt>
            <trkpt lat="53.3204300" lon="-1.8037100"><ele>449.1</ele></trkpt>
            <trkpt lat="53.3200200" lon="-1.8039900"><ele>448.6</ele></trkpt>
            <trkpt lat="53.3193400" lon="-1.8043400"><ele>450.3</ele></trkpt>
            <trkpt lat="53.3190700" lon="-1.8045100"><ele>450.8</ele></trkpt>
            <trkpt lat="53.3182200" lon="-1.8052000"><ele>454.3</ele></trkpt>
            <trkpt lat="53.3175800" lon="-1.8058500"><ele>456.6</ele></trkpt>
            <trkpt lat="53.3173500" lon="-1.8060000"><ele>457.3</ele></trkpt>
            <trkpt lat="53.3169700" lon="-1.8060400"><ele>458.2</ele></trkpt>
            <trkpt lat="53.3168500" lon="-1.8060700"><ele>457.8</ele></trkpt>
            <trkpt lat="53.3157200" lon="-1.8069500"><ele>446.0</ele></trkpt>
            <trkpt lat="53.3151300" lon="-1.8073100"><ele>438.7</ele></trkpt>
            <trkpt lat="53.3146700" lon="-1.8077000"><ele>431.3</ele></trkpt>
            <trkpt lat="53.3142500" lon="-1.8081700"><ele>420.7</ele></trkpt>
            <trkpt lat="53.3141100" lon="-1.8082400"><ele>418.3</ele></trkpt>
            <trkpt lat="53.3137300" lon="-1.8081000"><ele>413.6</ele></trkpt>
            <trkpt lat="53.3137100" lon="-1.8081300"><ele>412.9</ele></trkpt>
            <trkpt lat="53.3137200" lon="-1.8082800"><ele>412.4</ele></trkpt>
            <trkpt lat="53.3134900" lon="-1.8082600"><ele>409.0</ele></trkpt>
            <trkpt lat="53.3132100" lon="-1.8084400"><ele>404.8</ele></trkpt>
        </trkseg>
    </trk>
<!-- ele-hash:21db2c6a3485bf27 -->
</gpx>
