<?xml version="1.0" encoding="UTF-8" standalone="yes"?>
<gpx version="1.1" creator="OS Maps - Web" xmlns="http://www.topografix.com/GPX/1/1"
xmlns:xsi="http://www.w3.org/2001/XMLSchema-instance"
xsi:schemaLocation="http://www.topografix.com/GPX/1/1 http://www.topografix.com/GPX/1/1/gpx.xsd"
xmlns:gs="http://www.topografix.com/GPX/gpx_style/0/2"
xmlns:gh="https://graphhopper.com/public/schema/gpx/1.1"
xmlns:os="https://ordnancesurvey.co.uk/public/schema/route/0.1">
    <metadata>
        <name>Burbage Edge (Ethel) - Circular (www.thelostpeak.co.uk)</name>
        <desc></desc>
        <bounds minlat="53.2430630" minlon="-1.9830590" maxlat="53.2700250" maxlon="-1.9284710"/>
        <extensions>
            <os:version>2.0</os:version>
            <os:point lat="53.2450060" lon="-1.9284710" type="start"/>
            <os:point lat="53.2450060" lon="-1.9284710" type="end"/>
            <os:activity>ON_FOOT_WALKING</os:activity>
            <os:difficulty>MODERATE</os:difficulty>
            <os:paths/>
            <os:distance>13724.9602908</os:distance>
            <os:elevation_ascent>498.9700000</os:elevation_ascent>
        </extensions>
    </metadata>
    <wpt lat="53.2450060" lon="-1.9284710"/>
    <wpt lat="53.2452440" lon="-1.9288430"/>
    <wpt lat="53.2454730" lon="-1.9300330"/>
    <wpt lat="53.2453650" lon="-1.9303540"/>
    <wpt lat="53.2456230" lon="-1.9325310"/>
    <wpt lat="53.2448600" lon="-1.9346610"/>
    <wpt lat="53.2450350" lon="-1.9351990"/>
    <wpt lat="53.2444730" lon="-1.9359430"/>
    <wpt lat="53.2435810" lon="-1.9361940"/>
    <wpt lat="53.2434290" lon="-1.9391050"/>
    <wpt lat="53.2432070" lon="-1.9391780"/>
    <wpt lat="53.2431170" lon="-1.9400420"/>
    <wpt lat="53.2444280" lon="-1.9402150"/>
    <wpt lat="53.2456960" lon="-1.9400090"/>
    <wpt lat="53.2467700" lon="-1.9395100"/>
    <wpt lat="53.2472300" lon="-1.9410900"/>
    <wpt lat="53.2494210" lon="-1.9406880"/>
    <wpt lat="53.2494680" lon="-1.9420720"/>
    <wpt lat="53.2489330" lon="-1.9433710"/>
    <wpt lat="53.2488030" lon="-1.9449260"/>
    <wpt lat="53.2494400" lon="-1.9449870"/>
    <wpt lat="53.2484670" lon="-1.9483220"/>
    <wpt lat="53.2478780" lon="-1.9494570"/>
    <wpt lat="53.2468760" lon="-1.9507650"/>
    <wpt lat="53.2464970" lon="-1.9519040"/>
    <wpt lat="53.2466790" lon="-1.9545030"/>
    <wpt lat="53.2464830" lon="-1.9568170"/>
    <wpt lat="53.2468980" lon="-1.9577390"/>
    <wpt lat="53.2469760" lon="-1.9583770"/>
    <wpt lat="53.2467740" lon="-1.9603400"/>
    <wpt lat="53.2465750" lon="-1.9608530"/>
    <wpt lat="53.2470220" lon="-1.9610930"/>
    <wpt lat="53.2477550" lon="-1.9608810"/>
    <wpt lat="53.2486800" lon="-1.9612720"/>
    <wpt lat="53.2504220" lon="-1.9611880"/>
    <wpt lat="53.2511420" lon="-1.9622980"/>
    <wpt lat="53.2513130" lon="-1.9635080"/>
    <wpt lat="53.2512520" lon="-1.9651930"/>
    <wpt lat="53.2514660" lon="-1.9657900"/>
    <wpt lat="53.2519090" lon="-1.9657890"/>
    <wpt lat="53.2520940" lon="-1.9680470"/>
    <wpt lat="53.2526770" lon="-1.9708380"/>
    <wpt lat="53.2527420" lon="-1.9737060"/>
    <wpt lat="53.2532740" lon="-1.9772340"/>
    <wpt lat="53.2542490" lon="-1.9786100"/>
    <wpt lat="53.2560400" lon="-1.9802270"/>
    <wpt lat="53.2567610" lon="-1.9819780"/>
    <wpt lat="53.2574090" lon="-1.9827860"/>
    <wpt lat="53.2585200" lon="-1.9830590"/>
    <wpt lat="53.2595670" lon="-1.9829530"/>
    <wpt lat="53.2603040" lon="-1.9824290"/>
    <wpt lat="53.2628330" lon="-1.9818450"/>
    <wpt lat="53.2634760" lon="-1.9824900"/>
    <wpt lat="53.2644780" lon="-1.9828750"/>
    <wpt lat="53.2649910" lon="-1.9828280"/>
    <wpt lat="53.2658230" lon="-1.9826790"/>
    <wpt lat="53.2669610" lon="-1.9816760"/>
    <wpt lat="53.2675950" lon="-1.9782630"/>
    <wpt lat="53.2683480" lon="-1.9774170"/>
    <wpt lat="53.2680610" lon="-1.9745150"/>
    <wpt lat="53.2680100" lon="-1.9723490"/>
    <wpt lat="53.2682710" lon="-1.9719980"/>
    <wpt lat="53.2690720" lon="-1.9717220"/>
    <wpt lat="53.2698080" lon="-1.9709220"/>
    <wpt lat="53.2698960" lon="-1.9704440"/>
    <wpt lat="53.2700250" lon="-1.9690580"/>
    <wpt lat="53.2696980" lon="-1.9667560"/>
    <wpt lat="53.2686590" lon="-1.9646000"/>
    <wpt lat="53.2682990" lon="-1.9644280"/>
    <wpt lat="53.2673610" lon="-1.9629390"/>
    <wpt lat="53.2668360" lon="-1.9613590"/>
    <wpt lat="53.2668600" lon="-1.9605250"/>
    <wpt lat="53.2667020" lon="-1.9602970"/>
    <wpt lat="53.2666440" lon="-1.9595570"/>
    <wpt lat="53.2649050" lon="-1.9577220"/>
    <wpt lat="53.2643530" lon="-1.9555450"/>
    <wpt lat="53.2641390" lon="-1.9553690"/>
    <wpt lat="53.2635880" lon="-1.9561930"/>
    <wpt lat="53.2629670" lon="-1.9564700"/>
    <wpt lat="53.2597290" lon="-1.9570840"/>
    <wpt lat="53.2505770" lon="-1.9567710"/>
    <wpt lat="53.2496920" lon="-1.9546550"/>
    <wpt lat="53.2470870" lon="-1.9514840"/>
    <wpt lat="53.2470770" lon="-1.9509900"/>
    <wpt lat="53.2478790" lon="-1.9497650"/>
    <wpt lat="53.2484670" lon="-1.9483220"/>
    <wpt lat="53.2494400" lon="-1.9449870"/>
    <wpt lat="53.2488030" lon="-1.9449260"/>
    <wpt lat="53.2489330" lon="-1.9433710"/>
    <wpt lat="53.2494680" lon="-1.9420720"/>
    <wpt lat="53.2494210" lon="-1.9406880"/>
    <wpt lat="53.2472300" lon="-1.9410900"/>
    <wpt lat="53.2467700" lon="-1.9395100"/>
    <wpt lat="53.2456960" lon="-1.9400090"/>
    <wpt lat="53.2444280" lon="-1.9402150"/>
    <wpt lat="53.2431170" lon="-1.9400420"/>
    <wpt lat="53.2432070" lon="-1.9391780"/>
    <wpt lat="53.2434290" lon="-1.9391050"/>
    <wpt lat="53.2435810" lon="-1.9361940"/>
    <wpt lat="53.2444730" lon="-1.9359430"/>
    <wpt lat="53.2450350" lon="-1.9351990"/>
    <wpt lat="53.2448600" lon="-1.9346610"/>
    <wpt lat="53.2456230" lon="-1.9325310"/>
    <wpt lat="53.2453650" lon="-1.9303540"/>
    <wpt lat="53.2454730" lon="-1.9300330"/>
    <wpt lat="53.2452440" lon="-1.9288430"/>
    <wpt lat="53.2450060" lon="-1.9284710"/>
    <trk>
        <name>Burbage Edge (Ethel) - Circular (www.thelostpeak.co.uk)</name>
        <trkseg>
            <trkpt lat="53.2450060" lon="-1.9284710"><ele>398.9</ele></trkpt>
            <trkpt lat="53.2450890" lon="-1.9284710"><ele>398.2</ele></trkpt>
            <trkpt lat="53.2451350" lon="-1.9285200"><ele>398.1</ele></trkpt>
            <trkpt lat="53.2452440" lon="-1.9288430"><ele>398.0</ele></trkpt>
            <trkpt lat="53.2454730" lon="-1.9300330"><ele>401.3</ele></trkpt>
            <trkpt lat="53.2454330" lon="-1.9300600"><ele>401.5</ele></trkpt>
            <trkpt lat="53.2453650" lon="-1.9303540"><ele>403.5</ele></trkpt>
            <trkpt lat="53.2456460" lon="-1.9322260"><ele>411.5</ele></trkpt>
            <trkpt lat="53.2456230" lon="-1.9325310"><ele>410.7</ele></trkpt>
            <trkpt lat="53.2452990" lon="-1.9335670"><ele>404.7</ele></trkpt>
            <trkpt lat="53.2448600" lon="-1.9346610"><ele>396.7</ele></trkpt>
            <trkpt lat="53.2450350" lon="-1.9351990"><ele>395.4</ele></trkpt>
            <trkpt lat="53.2446600" lon="-1.9357470"><ele>394.8</ele></trkpt>
            <trkpt lat="53.2444730" lon="-1.9359430"><ele>393.7</ele></trkpt>
            <trkpt lat="53.2443590" lon="-1.9360080"><ele>392.6</ele></trkpt>
            <trkpt lat="53.2435810" lon="-1.9361940"><ele>390.9</ele></trkpt>
            <trkpt lat="53.2435880" lon="-1.9362540"><ele>390.9</ele></trkpt>
            <trkpt lat="53.2435240" lon="-1.9364000"><ele>391.0</ele></trkpt>
            <trkpt lat="53.2434940" lon="-1.9366510"><ele>391.0</ele></trkpt>
            <trkpt lat="53.2434240" lon="-1.9386670"><ele>386.6</ele></trkpt>
            <trkpt lat="53.2434290" lon="-1.9391050"><ele>386.4</ele></trkpt>
            <trkpt lat="53.2432610" lon="-1.9392510"><ele>388.4</ele></trkpt>
            <trkpt lat="53.2432070" lon="-1.9391780"><ele>388.9</ele></trkpt>
            <trkpt lat="53.2430630" lon="-1.9398720"><ele>389.5</ele></trkpt>
            <trkpt lat="53.2431170" lon="-1.9400420"><ele>389.0</ele></trkpt>
            <trkpt lat="53.2432000" lon="-1.9401670"><ele>388.3</ele></trkpt>
            <trkpt lat="53.2435010" lon="-1.9401110"><ele>385.8</ele></trkpt>
            <trkpt lat="53.2440680" lon="-1.9402510"><ele>379.9</ele></trkpt>
            <trkpt lat="53.2444280" lon="-1.9402150"><ele>378.5</ele></trkpt>
            <trkpt lat="53.2447680" lon="-1.9401240"><ele>376.2</ele></trkpt>
            <trkpt lat="53.2456130" lon="-1.9400330"><ele>369.1</ele></trkpt>
            <trkpt lat="53.2456960" lon="-1.9400090"><ele>368.3</ele></trkpt>
            <trkpt lat="53.2464190" lon="-1.9395830"><ele>364.7</ele></trkpt>
            <trkpt lat="53.2464000" lon="-1.9396600"><ele>363.9</ele></trkpt>
            <trkpt lat="53.2467200" lon="-1.9395100"><ele>361.4</ele></trkpt>
            <trkpt lat="53.2467700" lon="-1.9395100"><ele>360.4</ele></trkpt>
            <trkpt lat="53.2468000" lon="-1.9395700"><ele>359.3</ele></trkpt>
            <trkpt lat="53.2471000" lon="-1.9408700"><ele>349.6</ele></trkpt>
            <trkpt lat="53.2471800" lon="-1.9410600"><ele>349.0</ele></trkpt>
            <trkpt lat="53.2472300" lon="-1.9410900"><ele>349.0</ele></trkpt>
            <trkpt lat="53.2472600" lon="-1.9411000"><ele>349.0</ele></trkpt>
            <trkpt lat="53.2474300" lon="-1.9410500"><ele>348.8</ele></trkpt>
            <trkpt lat="53.2474340" lon="-1.9410870"><ele>348.9</ele></trkpt>
            <trkpt lat="53.2483020" lon="-1.9408490"><ele>343.9</ele></trkpt>
            <trkpt lat="53.2488900" lon="-1.9407610"><ele>341.3</ele></trkpt>
            <trkpt lat="53.2490110" lon="-1.9407280"><ele>341.0</ele></trkpt>
            <trkpt lat="53.2492150" lon="-1.9406050"><ele>340.5</ele></trkpt>
            <trkpt lat="53.2494210" lon="-1.9406880"><ele>340.8</ele></trkpt>
            <trkpt lat="53.2493850" lon="-1.9408890"><ele>341.0</ele></trkpt>
            <trkpt lat="53.2493930" lon="-1.9411250"><ele>341.9</ele></trkpt>
            <trkpt lat="53.2494650" lon="-1.9418280"><ele>344.8</ele></trkpt>
            <trkpt lat="53.2494680" lon="-1.9420720"><ele>345.8</ele></trkpt>
            <trkpt lat="53.2494170" lon="-1.9423890"><ele>346.9</ele></trkpt>
            <trkpt lat="53.2493120" lon="-1.9426460"><ele>348.6</ele></trkpt>
            <trkpt lat="53.2490630" lon="-1.9430080"><ele>351.4</ele></trkpt>
            <trkpt lat="53.2489330" lon="-1.9433710"><ele>353.1</ele></trkpt>
            <trkpt lat="53.2488060" lon="-1.9440010"><ele>355.6</ele></trkpt>
            <trkpt lat="53.2488030" lon="-1.9449260"><ele>360.4</ele></trkpt>
            <trkpt lat="53.2493650" lon="-1.9449340"><ele>360.6</ele></trkpt>
            <trkpt lat="53.2494400" lon="-1.9449870"><ele>360.8</ele></trkpt>
            <trkpt lat="53.2487380" lon="-1.9474360"><ele>379.8</ele></trkpt>
            <trkpt lat="53.2484670" lon="-1.9483220"><ele>385.2</ele></trkpt>
            <trkpt lat="53.2482070" lon="-1.9488850"><ele>389.8</ele></trkpt>
            <trkpt lat="53.2480330" lon="-1.9490740"><ele>393.0</ele></trkpt>
            <trkpt lat="53.2478780" lon="-1.9494570"><ele>399.0</ele></trkpt>
            <trkpt lat="53.2471200" lon="-1.9503760"><ele>407.8</ele></trkpt>
            <trkpt lat="53.2468760" lon="-1.9507650"><ele>406.9</ele></trkpt>
            <trkpt lat="53.2467110" lon="-1.9511180"><ele>406.7</ele></trkpt>
            <trkpt lat="53.2465520" lon="-1.9516480"><ele>407.8</ele></trkpt>
            <trkpt lat="53.2464970" lon="-1.9519040"><ele>409.9</ele></trkpt>
            <trkpt lat="53.2464900" lon="-1.9520410"><ele>410.8</ele></trkpt>
            <trkpt lat="53.2465780" lon="-1.9532100"><ele>420.5</ele></trkpt>
            <trkpt lat="53.2466730" lon="-1.9540750"><ele>427.9</ele></trkpt>
            <trkpt lat="53.2466790" lon="-1.9545030"><ele>431.4</ele></trkpt>
            <trkpt lat="53.2466440" lon="-1.9549710"><ele>433.0</ele></trkpt>
            <trkpt lat="53.2464800" lon="-1.9559260"><ele>440.9</ele></trkpt>
            <trkpt lat="53.2464660" lon="-1.9564040"><ele>447.4</ele></trkpt>
            <trkpt lat="53.2464830" lon="-1.9568170"><ele>452.9</ele></trkpt>
            <trkpt lat="53.2468980" lon="-1.9577390"><ele>462.4</ele></trkpt>
            <trkpt lat="53.2469760" lon="-1.9583770"><ele>467.2</ele></trkpt>
            <trkpt lat="53.2467740" lon="-1.9603400"><ele>477.8</ele></trkpt>
            <trkpt lat="53.2466860" lon="-1.9606360"><ele>478.0</ele></trkpt>
            <trkpt lat="53.2465750" lon="-1.9608530"><ele>477.9</ele></trkpt>
            <trkpt lat="53.2466570" lon="-1.9609980"><ele>477.8</ele></trkpt>
            <trkpt lat="53.2467010" lon="-1.9610350"><ele>477.7</ele></trkpt>
            <trkpt lat="53.2470220" lon="-1.9610930"><ele>477.1</ele></trkpt>
            <trkpt lat="53.2477550" lon="-1.9608810"><ele>483.3</ele></trkpt>
            <trkpt lat="53.2481670" lon="-1.9611870"><ele>483.9</ele></trkpt>
            <trkpt lat="53.2484000" lon="-1.9611860"><ele>484.1</ele></trkpt>
            <trkpt lat="53.2486800" lon="-1.9612720"><ele>482.7</ele></trkpt>
            <trkpt lat="53.2489570" lon="-1.9611750"><ele>482.0</ele></trkpt>
            <trkpt lat="53.2503430" lon="-1.9611720"><ele>480.5</ele></trkpt>
            <trkpt lat="53.2504220" lon="-1.9611880"><ele>480.5</ele></trkpt>
            <trkpt lat="53.2505310" lon="-1.9612730"><ele>480.9</ele></trkpt>
            <trkpt lat="53.2511420" lon="-1.9622980"><ele>472.2</ele></trkpt>
            <trkpt lat="53.2512320" lon="-1.9627360"><ele>468.2</ele></trkpt>
            <trkpt lat="53.2512530" lon="-1.9632020"><ele>463.5</ele></trkpt>
            <trkpt lat="53.2513130" lon="-1.9635080"><ele>459.0</ele></trkpt>
            <trkpt lat="53.2512420" lon="-1.9644960"><ele>448.9</ele></trkpt>
            <trkpt lat="53.2512520" lon="-1.9651930"><ele>440.6</ele></trkpt>
            <trkpt lat="53.2513440" lon="-1.9656430"><ele>435.7</ele></trkpt>
            <trkpt lat="53.2514660" lon="-1.9657900"><ele>433.8</ele></trkpt>
            <trkpt lat="53.2516720" lon="-1.9657920"><ele>433.6</ele></trkpt>
            <trkpt lat="53.2518460" lon="-1.9656420"><ele>435.8</ele></trkpt>
            <trkpt lat="53.2519090" lon="-1.9657890"><ele>434.2</ele></trkpt>
            <trkpt lat="53.2520000" lon="-1.9673260"><ele>423.3</ele></trkpt>
            <trkpt lat="53.2520940" lon="-1.9680470"><ele>417.3</ele></trkpt>
            <trkpt lat="53.2524440" lon="-1.9695750"><ele>402.5</ele></trkpt>
            <trkpt lat="53.2524190" lon="-1.9698080"><ele>400.6</ele></trkpt>
            <trkpt lat="53.2526770" lon="-1.9708380"><ele>396.1</ele></trkpt>
            <trkpt lat="53.2527420" lon="-1.9737060"><ele>376.2</ele></trkpt>
            <trkpt lat="53.2530010" lon="-1.9749620"><ele>371.1</ele></trkpt>
            <trkpt lat="53.2529950" lon="-1.9756150"><ele>367.8</ele></trkpt>
            <trkpt lat="53.2532740" lon="-1.9772340"><ele>354.4</ele></trkpt>
            <trkpt lat="53.2534960" lon="-1.9775880"><ele>352.4</ele></trkpt>
            <trkpt lat="53.2536850" lon="-1.9777880"><ele>353.1</ele></trkpt>
            <trkpt lat="53.2539230" lon="-1.9780790"><ele>352.3</ele></trkpt>
            <trkpt lat="53.2542490" lon="-1.9786100"><ele>350.8</ele></trkpt>
            <trkpt lat="53.2544670" lon="-1.9788380"><ele>350.1</ele></trkpt>
            <trkpt lat="53.2548550" lon="-1.9790180"><ele>353.0</ele></trkpt>
            <trkpt lat="53.2553880" lon="-1.9796210"><ele>351.0</ele></trkpt>
            <trkpt lat="53.2554220" lon="-1.9797960"><ele>349.2</ele></trkpt>
            <trkpt lat="53.2560400" lon="-1.9802270"><ele>351.1</ele></trkpt>
            <trkpt lat="53.2567610" lon="-1.9819780"><ele>341.1</ele></trkpt>
            <trkpt lat="53.2574090" lon="-1.9827860"><ele>339.1</ele></trkpt>
            <trkpt lat="53.2576830" lon="-1.9828130"><ele>340.8</ele></trkpt>
            <trkpt lat="53.2585200" lon="-1.9830590"><ele>338.0</ele></trkpt>
            <trkpt lat="53.2591640" lon="-1.9828900"><ele>334.7</ele></trkpt>
            <trkpt lat="53.2593480" lon="-1.9829460"><ele>333.3</ele></trkpt>
            <trkpt lat="53.2595670" lon="-1.9829530"><ele>331.6</ele></trkpt>
            <trkpt lat="53.2596640" lon="-1.9829040"><ele>331.4</ele></trkpt>
            <trkpt lat="53.2599730" lon="-1.9825980"><ele>333.1</ele></trkpt>
            <trkpt lat="53.2603040" lon="-1.9824290"><ele>334.3</ele></trkpt>
            <trkpt lat="53.2606260" lon="-1.9824600"><ele>332.0</ele></trkpt>
            <trkpt lat="53.2616370" lon="-1.9822290"><ele>330.2</ele></trkpt>
            <trkpt lat="53.2619040" lon="-1.9820440"><ele>332.5</ele></trkpt>
            <trkpt lat="53.2620970" lon="-1.9820750"><ele>331.6</ele></trkpt>
            <trkpt lat="53.2625570" lon="-1.9820440"><ele>332.9</ele></trkpt>
            <trkpt lat="53.2628330" lon="-1.9818450"><ele>337.5</ele></trkpt>
            <trkpt lat="53.2629520" lon="-1.9818600"><ele>338.2</ele></trkpt>
            <trkpt lat="53.2631820" lon="-1.9822750"><ele>331.8</ele></trkpt>
            <trkpt lat="53.2634760" lon="-1.9824900"><ele>329.1</ele></trkpt>
            <trkpt lat="53.2637430" lon="-1.9825360"><ele>329.4</ele></trkpt>
            <trkpt lat="53.2641000" lon="-1.9827330"><ele>328.0</ele></trkpt>
            <trkpt lat="53.2644780" lon="-1.9828750"><ele>327.7</ele></trkpt>
            <trkpt lat="53.2649910" lon="-1.9828280"><ele>329.3</ele></trkpt>
            <trkpt lat="53.2654130" lon="-1.9827210"><ele>330.0</ele></trkpt>
            <trkpt lat="53.2656100" lon="-1.9826000"><ele>330.9</ele></trkpt>
            <trkpt lat="53.2658230" lon="-1.9826790"><ele>327.3</ele></trkpt>
            <trkpt lat="53.2663620" lon="-1.9823130"><ele>325.8</ele></trkpt>
            <trkpt lat="53.2669610" lon="-1.9816760"><ele>326.6</ele></trkpt>
            <trkpt lat="53.2671080" lon="-1.9811680"><ele>328.8</ele></trkpt>
            <trkpt lat="53.2671260" lon="-1.9804000"><ele>331.7</ele></trkpt>
            <trkpt lat="53.2673370" lon="-1.9792160"><ele>326.6</ele></trkpt>
            <trkpt lat="53.2675950" lon="-1.9782630"><ele>325.1</ele></trkpt>
            <trkpt lat="53.2678340" lon="-1.9779100"><ele>322.6</ele></trkpt>
            <trkpt lat="53.2682200" lon="-1.9777100"><ele>317.8</ele></trkpt>
            <trkpt lat="53.2683480" lon="-1.9774170"><ele>314.3</ele></trkpt>
            <trkpt lat="53.2682510" lon="-1.9767630"><ele>312.7</ele></trkpt>
            <trkpt lat="53.2681770" lon="-1.9760320"><ele>308.7</ele></trkpt>
            <trkpt lat="53.2680610" lon="-1.9745150"><ele>305.9</ele></trkpt>
            <trkpt lat="53.2679710" lon="-1.9726090"><ele>308.6</ele></trkpt>
            <trkpt lat="53.2680100" lon="-1.9723490"><ele>310.3</ele></trkpt>
            <trkpt lat="53.2680750" lon="-1.9721560"><ele>310.9</ele></trkpt>
            <trkpt lat="53.2682710" lon="-1.9719980"><ele>308.4</ele></trkpt>
            <trkpt lat="53.2684230" lon="-1.9719210"><ele>305.9</ele></trkpt>
            <trkpt lat="53.2690720" lon="-1.9717220"><ele>305.2</ele></trkpt>
            <trkpt lat="53.2694250" lon="-1.9711990"><ele>307.7</ele></trkpt>
            <trkpt lat="53.2696570" lon="-1.9710680"><ele>309.1</ele></trkpt>
            <trkpt lat="53.2698080" lon="-1.9709220"><ele>311.6</ele></trkpt>
            <trkpt lat="53.2698170" lon="-1.9706730"><ele>311.6</ele></trkpt>
            <trkpt lat="53.2698960" lon="-1.9704440"><ele>313.1</ele></trkpt>
            <trkpt lat="53.2699280" lon="-1.9702340"><ele>313.6</ele></trkpt>
            <trkpt lat="53.2699230" lon="-1.9698140"><ele>314.9</ele></trkpt>
            <trkpt lat="53.2700120" lon="-1.9693200"><ele>319.4</ele></trkpt>
            <trkpt lat="53.2700250" lon="-1.9690580"><ele>320.2</ele></trkpt>
            <trkpt lat="53.2698650" lon="-1.9683010"><ele>320.3</ele></trkpt>
            <trkpt lat="53.2698780" lon="-1.9678930"><ele>322.8</ele></trkpt>
            <trkpt lat="53.2696980" lon="-1.9667560"><ele>327.9</ele></trkpt>
            <trkpt lat="53.2689730" lon="-1.9652330"><ele>331.8</ele></trkpt>
            <trkpt lat="53.2688510" lon="-1.9651150"><ele>330.4</ele></trkpt>
            <trkpt lat="53.2687420" lon="-1.9648890"><ele>330.5</ele></trkpt>
            <trkpt lat="53.2686590" lon="-1.9646000"><ele>332.7</ele></trkpt>
            <trkpt lat="53.2685370" lon="-1.9644920"><ele>332.5</ele></trkpt>
            <trkpt lat="53.2682990" lon="-1.9644280"><ele>329.0</ele></trkpt>
            <trkpt lat="53.2682030" lon="-1.9642990"><ele>329.1</ele></trkpt>
            <trkpt lat="53.2680940" lon="-1.9640200"><ele>331.6</ele></trkpt>
            <trkpt lat="53.2679400" lon="-1.9637410"><ele>333.0</ele></trkpt>
            <trkpt lat="53.2675100" lon="-1.9631830"><ele>331.6</ele></trkpt>
            <trkpt lat="53.2673610" lon="-1.9629390"><ele>331.0</ele></trkpt>
            <trkpt lat="53.2671120" lon="-1.9624220"><ele>331.3</ele></trkpt>
            <trkpt lat="53.2668360" lon="-1.9613590"><ele>335.4</ele></trkpt>
            <trkpt lat="53.2668230" lon="-1.9611020"><ele>336.6</ele></trkpt>
            <trkpt lat="53.2668430" lon="-1.9608450"><ele>338.4</ele></trkpt>
            <trkpt lat="53.2668810" lon="-1.9607480"><ele>339.8</ele></trkpt>
            <trkpt lat="53.2668490" lon="-1.9606190"><ele>340.4</ele></trkpt>
            <trkpt lat="53.2668600" lon="-1.9605250"><ele>341.8</ele></trkpt>
            <trkpt lat="53.2668100" lon="-1.9604500"><ele>341.0</ele></trkpt>
            <trkpt lat="53.2667530" lon="-1.9604370"><ele>340.0</ele></trkpt>
            <trkpt lat="53.2667020" lon="-1.9602970"><ele>339.5</ele></trkpt>
            <trkpt lat="53.2666890" lon="-1.9601260"><ele>339.6</ele></trkpt>
            <trkpt lat="53.2667140" lon="-1.9599970"><ele>340.6</ele></trkpt>
            <trkpt lat="53.2666820" lon="-1.9599000"><ele>340.4</ele></trkpt>
            <trkpt lat="53.2666440" lon="-1.9595570"><ele>340.7</ele></trkpt>
            <trkpt lat="53.2665030" lon="-1.9593100"><ele>340.5</ele></trkpt>
            <trkpt lat="53.2664250" lon="-1.9592350"><ele>340.6</ele></trkpt>
            <trkpt lat="53.2663290" lon="-1.9592350"><ele>340.6</ele></trkpt>
            <trkpt lat="53.2661560" lon="-1.9591390"><ele>343.2</ele></trkpt>
            <trkpt lat="53.2659700" lon="-1.9589670"><ele>346.5</ele></trkpt>
            <trkpt lat="53.2653540" lon="-1.9583060"><ele>352.4</ele></trkpt>
            <trkpt lat="53.2650590" lon="-1.9578730"><ele>357.8</ele></trkpt>
            <trkpt lat="53.2649050" lon="-1.9577220"><ele>360.6</ele></trkpt>
            <trkpt lat="53.2648280" lon="-1.9575720"><ele>363.1</ele></trkpt>
            <trkpt lat="53.2648020" lon="-1.9573040"><ele>366.0</ele></trkpt>
            <trkpt lat="53.2644180" lon="-1.9557580"><ele>386.6</ele></trkpt>
            <trkpt lat="53.2643530" lon="-1.9555450"><ele>387.8</ele></trkpt>
            <trkpt lat="53.2641390" lon="-1.9553690"><ele>387.4</ele></trkpt>
            <trkpt lat="53.2640930" lon="-1.9554880"><ele>386.6</ele></trkpt>
            <trkpt lat="53.2639810" lon="-1.9556130"><ele>385.3</ele></trkpt>
            <trkpt lat="53.2638480" lon="-1.9558440"><ele>383.5</ele></trkpt>
            <trkpt lat="53.2635880" lon="-1.9561930"><ele>382.5</ele></trkpt>
            <trkpt lat="53.2631480" lon="-1.9563110"><ele>387.9</ele></trkpt>
            <trkpt lat="53.2630260" lon="-1.9563810"><ele>391.0</ele></trkpt>
            <trkpt lat="53.2629670" lon="-1.9564700"><ele>392.0</ele></trkpt>
            <trkpt lat="53.2612720" lon="-1.9567620"><ele>442.7</ele></trkpt>
            <trkpt lat="53.2604260" lon="-1.9569610"><ele>451.8</ele></trkpt>
            <trkpt lat="53.2598830" lon="-1.9570310"><ele>461.5</ele></trkpt>
            <trkpt lat="53.2597290" lon="-1.9570840"><ele>464.5</ele></trkpt>
            <trkpt lat="53.2594050" lon="-1.9571000"><ele>469.7</ele></trkpt>
            <trkpt lat="53.2584300" lon="-1.9570630"><ele>479.8</ele></trkpt>
            <trkpt lat="53.2583300" lon="-1.9570900"><ele>481.3</ele></trkpt>
            <trkpt lat="53.2579320" lon="-1.9570250"><ele>486.6</ele></trkpt>
            <trkpt lat="53.2570180" lon="-1.9570250"><ele>494.0</ele></trkpt>
            <trkpt lat="53.2565650" lon="-1.9569720"><ele>496.4</ele></trkpt>
            <trkpt lat="53.2563150" lon="-1.9570400"><ele>496.9</ele></trkpt>
            <trkpt lat="53.2562410" lon="-1.9571040"><ele>497.2</ele></trkpt>
            <trkpt lat="53.2561930" lon="-1.9570490"><ele>497.3</ele></trkpt>
            <trkpt lat="53.2559880" lon="-1.9569560"><ele>497.9</ele></trkpt>
            <trkpt lat="53.2546360" lon="-1.9569240"><ele>491.4</ele></trkpt>
            <trkpt lat="53.2541770" lon="-1.9570270"><ele>491.2</ele></trkpt>
            <trkpt lat="53.2540560" lon="-1.9569340"><ele>490.0</ele></trkpt>
            <trkpt lat="53.2536220" lon="-1.9569290"><ele>489.0</ele></trkpt>
            <trkpt lat="53.2531570" lon="-1.9569930"><ele>489.7</ele></trkpt>
            <trkpt lat="53.2524440" lon="-1.9568970"><ele>486.6</ele></trkpt>
            <trkpt lat="53.2523260" lon="-1.9569220"><ele>486.6</ele></trkpt>
            <trkpt lat="53.2520750" lon="-1.9568430"><ele>486.2</ele></trkpt>
            <trkpt lat="53.2508750" lon="-1.9568380"><ele>486.3</ele></trkpt>
            <trkpt lat="53.2507870" lon="-1.9567950"><ele>486.0</ele></trkpt>
            <trkpt lat="53.2505770" lon="-1.9567710"><ele>484.4</ele></trkpt>
            <trkpt lat="53.2505370" lon="-1.9565560"><ele>484.1</ele></trkpt>
            <trkpt lat="53.2504500" lon="-1.9562780"><ele>481.8</ele></trkpt>
            <trkpt lat="53.2502650" lon="-1.9558220"><ele>476.7</ele></trkpt>
            <trkpt lat="53.2501140" lon="-1.9554910"><ele>473.1</ele></trkpt>
            <trkpt lat="53.2497260" lon="-1.9548210"><ele>463.7</ele></trkpt>
            <trkpt lat="53.2496920" lon="-1.9546550"><ele>463.1</ele></trkpt>
            <trkpt lat="53.2491750" lon="-1.9539330"><ele>458.5</ele></trkpt>
            <trkpt lat="53.2488990" lon="-1.9536250"><ele>456.4</ele></trkpt>
            <trkpt lat="53.2479280" lon="-1.9523770"><ele>442.0</ele></trkpt>
            <trkpt lat="53.2476730" lon="-1.9520800"><ele>437.2</ele></trkpt>
            <trkpt lat="53.2470870" lon="-1.9514840"><ele>419.6</ele></trkpt>
            <trkpt lat="53.2470390" lon="-1.9512640"><ele>417.0</ele></trkpt>
            <trkpt lat="53.2470390" lon="-1.9511620"><ele>416.1</ele></trkpt>
            <trkpt lat="53.2470770" lon="-1.9509900"><ele>414.9</ele></trkpt>
            <trkpt lat="53.2478790" lon="-1.9497650"><ele>405.5</ele></trkpt>
            <trkpt lat="53.2479260" lon="-1.9496520"><ele>403.8</ele></trkpt>
            <trkpt lat="53.2478780" lon="-1.9494570"><ele>399.0</ele></trkpt>
            <trkpt lat="53.2480330" lon="-1.9490740"><ele>393.0</ele></trkpt>
            <trkpt lat="53.2482070" lon="-1.9488850"><ele>389.8</ele></trkpt>
            <trkpt lat="53.2484670" lon="-1.9483220"><ele>385.2</ele></trkpt>
            <trkpt lat="53.2487380" lon="-1.9474360"><ele>379.8</ele></trkpt>
            <trkpt lat="53.2494400" lon="-1.9449870"><ele>360.8</ele></trkpt>
            <trkpt lat="53.2493650" lon="-1.9449340"><ele>360.6</ele></trkpt>
            <trkpt lat="53.2488030" lon="-1.9449260"><ele>360.4</ele></trkpt>
            <trkpt lat="53.2488060" lon="-1.9440010"><ele>355.6</ele></trkpt>
            <trkpt lat="53.2489330" lon="-1.9433710"><ele>353.1</ele></trkpt>
            <trkpt lat="53.2490630" lon="-1.9430080"><ele>351.4</ele></trkpt>
            <trkpt lat="53.2493120" lon="-1.9426460"><ele>348.6</ele></trkpt>
            <trkpt lat="53.2494170" lon="-1.9423890"><ele>346.9</ele></trkpt>
            <trkpt lat="53.2494680" lon="-1.9420720"><ele>345.8</ele></trkpt>
            <trkpt lat="53.2494650" lon="-1.9418280"><ele>344.8</ele></trkpt>
            <trkpt lat="53.2493930" lon="-1.9411250"><ele>341.9</ele></trkpt>
            <trkpt lat="53.2493850" lon="-1.9408890"><ele>341.0</ele></trkpt>
            <trkpt lat="53.2494210" lon="-1.9406880"><ele>340.8</ele></trkpt>
            <trkpt lat="53.2492150" lon="-1.9406050"><ele>340.5</ele></trkpt>
            <trkpt lat="53.2490110" lon="-1.9407280"><ele>341.0</ele></trkpt>
            <trkpt lat="53.2488900" lon="-1.9407610"><ele>341.3</ele></trkpt>
            <trkpt lat="53.2483020" lon="-1.9408490"><ele>343.9</ele></trkpt>
            <trkpt lat="53.2474340" lon="-1.9410870"><ele>348.9</ele></trkpt>
            <trkpt lat="53.2474300" lon="-1.9410500"><ele>348.8</ele></trkpt>
            <trkpt lat="53.2472600" lon="-1.9411000"><ele>349.0</ele></trkpt>
            <trkpt lat="53.2472300" lon="-1.9410900"><ele>349.0</ele></trkpt>
            <trkpt lat="53.2471800" lon="-1.9410600"><ele>349.0</ele></trkpt>
            <trkpt lat="53.2471000" lon="-1.9408700"><ele>349.6</ele></trkpt>
            <trkpt lat="53.2468000" lon="-1.9395700"><ele>359.3</ele></trkpt>
            <trkpt lat="53.2467700" lon="-1.9395100"><ele>360.4</ele></trkpt>
            <trkpt lat="53.2467200" lon="-1.9395100"><ele>361.4</ele></trkpt>
            <trkpt lat="53.2464000" lon="-1.9396600"><ele>363.9</ele></trkpt>
            <trkpt lat="53.2464190" lon="-1.9395830"><ele>364.7</ele></trkpt>
            <trkpt lat="53.2456960" lon="-1.9400090"><ele>368.3</ele></trkpt>
            <trkpt lat="53.2456130" lon="-1.9400330"><ele>369.1</ele></trkpt>
            <trkpt lat="53.2447680" lon="-1.9401240"><ele>376.2</ele></trkpt>
            <trkpt lat="53.2444280" lon="-1.9402150"><ele>378.5</ele></trkpt>
            <trkpt lat="53.2440680" lon="-1.9402510"><ele>379.9</ele></trkpt>
            <trkpt lat="53.2435010" lon="-1.9401110"><ele>385.8</ele></trkpt>
            <trkpt lat="53.2432000" lon="-1.9401670"><ele>388.3</ele></trkpt>
            <trkpt lat="53.2431170" lon="-1.9400420"><ele>389.0</ele></trkpt>
            <trkpt lat="53.2430630" lon="-1.9398720"><ele>389.5</ele></trkpt>
            <trkpt lat="53.2432070" lon="-1.9391780"><ele>388.9</ele></trkpt>
            <trkpt lat="53.2432610" lon="-1.9392510"><ele>388.4</ele></trkpt>
            <trkpt lat="53.2434290" lon="-1.9391050"><ele>386.4</ele></trkpt>
            <trkpt lat="53.2434240" lon="-1.9386670"><ele>386.6</ele></trkpt>
            <trkpt lat="53.2434940" lon="-1.9366510"><ele>391.0</ele></trkpt>
            <trkpt lat="53.2435240" lon="-1.9364000"><ele>391.0</ele></trkpt>
            <trkpt lat="53.2435880" lon="-1.9362540"><ele>390.9</ele></trkpt>
            <trkpt lat="53.2435810" lon="-1.9361940"><ele>390.9</ele></trkpt>
            <trkpt lat="53.2443590" lon="-1.9360080"><ele>392.6</ele></trkpt>
            <trkpt lat="53.2444730" lon="-1.9359430"><ele>393.7</ele></trkpt>
            <trkpt lat="53.2446600" lon="-1.9357470"><ele>394.8</ele></trkpt>
            <trkpt lat="53.2450350" lon="-1.9351990"><ele>395.4</ele></trkpt>
            <trkpt lat="53.2448600" lon="-1.9346610"><ele>396.7</ele></trkpt>
            <trkpt lat="53.2452990" lon="-1.9335670"><ele>404.7</ele></trkpt>
            <trkpt lat="53.2456230" lon="-1.9325310"><ele>410.7</ele></trkpt>
            <trkpt lat="53.2456460" lon="-1.9322260"><ele>411.5</ele></trkpt>
            <trkpt lat="53.2453650" lon="-1.9303540"><ele>403.5</ele></trkpt>
            <trkpt lat="53.2454330" lon="-1.9300600"><ele>401.5</ele></trkpt>
            <trkpt lat="53.2454730" lon="-1.9300330"><ele>401.3</ele></trkpt>
            <trkpt lat="53.2452440" lon="-1.9288430"><ele>398.0</ele></trkpt>
            <trkpt lat="53.2451350" lon="-1.9285200"><ele>398.1</ele></trkpt>
            <trkpt lat="53.2450890" lon="-1.9284710"><ele>398.2</ele></trkpt>
            <trkpt lat="53.2450060" lon="-1.9284710"><ele>398.9</ele></trkpt>
        </trkseg>
    </trk>
<!-- ele-hash:486594dd6dda52d3 -->
</gpx>
