<?xml version="1.0" encoding="UTF-8" standalone="yes"?>
<gpx version="1.1" creator="OS Maps - Web" xmlns="http://www.topografix.com/GPX/1/1"
xmlns:xsi="http://www.w3.org/2001/XMLSchema-instance"
xsi:schemaLocation="http://www.topografix.com/GPX/1/1 http://www.topografix.com/GPX/1/1/gpx.xsd"
xmlns:gs="http://www.topografix.com/GPX/gpx_style/0/2"
xmlns:gh="https://graphhopper.com/public/schema/gpx/1.1"
xmlns:os="https://ordnancesurvey.co.uk/public/schema/route/0.1">
    <metadata>
        <name>Cats Tor, Shining Tor &amp; Foxlow Edge (Ethels) - Circular (www.thelostpeak.co.uk)</name>
        <desc></desc>
        <bounds minlat="53.2534620" minlon="-2.0094460" maxlat="53.2873100" maxlon="-1.9646300"/>
        <extensions>
            <os:version>2.0</os:version>
            <os:point lat="53.2734800" lon="-1.9664520" type="start"/>
            <os:point lat="53.2734800" lon="-1.9664520" type="end"/>
            <os:activity>ON_FOOT_WALKING</os:activity>
            <os:difficulty>MODERATE</os:difficulty>
            <os:paths/>
            <os:distance>14719.5075002</os:distance>
            <os:elevation_ascent>598.8300000</os:elevation_ascent>
        </extensions>
    </metadata>
    <wpt lat="53.2734800" lon="-1.9664520"/>
    <wpt lat="53.2734800" lon="-1.9664520"/>
    <trk>
        <name>Cats Tor, Shining Tor &amp; Foxlow Edge (Ethels) - Circular (www.thelostpeak.co.uk)</name>
        <trkseg>
            <trkpt lat="53.2734800" lon="-1.9664520"><ele>388.8</ele></trkpt>
            <trkpt lat="53.2735060" lon="-1.9663960"><ele>388.8</ele></trkpt>
            <trkpt lat="53.2735110" lon="-1.9662140"><ele>388.2</ele></trkpt>
            <trkpt lat="53.2734890" lon="-1.9661560"><ele>387.7</ele></trkpt>
            <trkpt lat="53.2738760" lon="-1.9655410"><ele>388.6</ele></trkpt>
            <trkpt lat="53.2740580" lon="-1.9651100"><ele>389.5</ele></trkpt>
            <trkpt lat="53.2741370" lon="-1.9646300"><ele>390.8</ele></trkpt>
            <trkpt lat="53.2746760" lon="-1.9647110"><ele>389.3</ele></trkpt>
            <trkpt lat="53.2752720" lon="-1.9650860"><ele>384.4</ele></trkpt>
            <trkpt lat="53.2760060" lon="-1.9656790"><ele>378.0</ele></trkpt>
            <trkpt lat="53.2763450" lon="-1.9660170"><ele>376.3</ele></trkpt>
            <trkpt lat="53.2766110" lon="-1.9663430"><ele>371.9</ele></trkpt>
            <trkpt lat="53.2772290" lon="-1.9672830"><ele>360.3</ele></trkpt>
            <trkpt lat="53.2774640" lon="-1.9675700"><ele>357.1</ele></trkpt>
            <trkpt lat="53.2776490" lon="-1.9680570"><ele>354.4</ele></trkpt>
            <trkpt lat="53.2777350" lon="-1.9681850"><ele>352.1</ele></trkpt>
            <trkpt lat="53.2778680" lon="-1.9682650"><ele>349.2</ele></trkpt>
            <trkpt lat="53.2781800" lon="-1.9682950"><ele>342.1</ele></trkpt>
            <trkpt lat="53.2782560" lon="-1.9683390"><ele>339.6</ele></trkpt>
            <trkpt lat="53.2783220" lon="-1.9684490"><ele>337.4</ele></trkpt>
            <trkpt lat="53.2783450" lon="-1.9685710"><ele>336.1</ele></trkpt>
            <trkpt lat="53.2786220" lon="-1.9689020"><ele>326.6</ele></trkpt>
            <trkpt lat="53.2792860" lon="-1.9698860"><ele>304.1</ele></trkpt>
            <trkpt lat="53.2796740" lon="-1.9708710"><ele>289.7</ele></trkpt>
            <trkpt lat="53.2801250" lon="-1.9713600"><ele>278.9</ele></trkpt>
            <trkpt lat="53.2800760" lon="-1.9719540"><ele>280.5</ele></trkpt>
            <trkpt lat="53.2800200" lon="-1.9723060"><ele>281.9</ele></trkpt>
            <trkpt lat="53.2800320" lon="-1.9729500"><ele>284.2</ele></trkpt>
            <trkpt lat="53.2800540" lon="-1.9731110"><ele>284.2</ele></trkpt>
            <trkpt lat="53.2801910" lon="-1.9735530"><ele>282.9</ele></trkpt>
            <trkpt lat="53.2802160" lon="-1.9737230"><ele>282.3</ele></trkpt>
            <trkpt lat="53.2801320" lon="-1.9742370"><ele>284.0</ele></trkpt>
            <trkpt lat="53.2801410" lon="-1.9746120"><ele>283.2</ele></trkpt>
            <trkpt lat="53.2801090" lon="-1.9747710"><ele>283.6</ele></trkpt>
            <trkpt lat="53.2800570" lon="-1.9748500"><ele>284.4</ele></trkpt>
            <trkpt lat="53.2800080" lon="-1.9748650"><ele>285.5</ele></trkpt>
            <trkpt lat="53.2799590" lon="-1.9748360"><ele>286.8</ele></trkpt>
            <trkpt lat="53.2798900" lon="-1.9750560"><ele>286.8</ele></trkpt>
            <trkpt lat="53.2797370" lon="-1.9752730"><ele>287.0</ele></trkpt>
            <trkpt lat="53.2794830" lon="-1.9754400"><ele>286.1</ele></trkpt>
            <trkpt lat="53.2791610" lon="-1.9755530"><ele>285.0</ele></trkpt>
            <trkpt lat="53.2790600" lon="-1.9756520"><ele>283.1</ele></trkpt>
            <trkpt lat="53.2790270" lon="-1.9758030"><ele>281.4</ele></trkpt>
            <trkpt lat="53.2790990" lon="-1.9797980"><ele>289.2</ele></trkpt>
            <trkpt lat="53.2790790" lon="-1.9798960"><ele>289.6</ele></trkpt>
            <trkpt lat="53.2790110" lon="-1.9800250"><ele>290.6</ele></trkpt>
            <trkpt lat="53.2789790" lon="-1.9803460"><ele>293.2</ele></trkpt>
            <trkpt lat="53.2789450" lon="-1.9804690"><ele>294.5</ele></trkpt>
            <trkpt lat="53.2782320" lon="-1.9809470"><ele>303.5</ele></trkpt>
            <trkpt lat="53.2780010" lon="-1.9809420"><ele>302.0</ele></trkpt>
            <trkpt lat="53.2779560" lon="-1.9810760"><ele>303.8</ele></trkpt>
            <trkpt lat="53.2776940" lon="-1.9808680"><ele>299.4</ele></trkpt>
            <trkpt lat="53.2775300" lon="-1.9808020"><ele>300.3</ele></trkpt>
            <trkpt lat="53.2773260" lon="-1.9808020"><ele>301.2</ele></trkpt>
            <trkpt lat="53.2770680" lon="-1.9808540"><ele>302.0</ele></trkpt>
            <trkpt lat="53.2770370" lon="-1.9809610"><ele>303.3</ele></trkpt>
            <trkpt lat="53.2769740" lon="-1.9810260"><ele>304.5</ele></trkpt>
            <trkpt lat="53.2765370" lon="-1.9812120"><ele>302.5</ele></trkpt>
            <trkpt lat="53.2755930" lon="-1.9817910"><ele>296.4</ele></trkpt>
            <trkpt lat="53.2746660" lon="-1.9823330"><ele>295.2</ele></trkpt>
            <trkpt lat="53.2744860" lon="-1.9823540"><ele>295.0</ele></trkpt>
            <trkpt lat="53.2743120" lon="-1.9825120"><ele>295.0</ele></trkpt>
            <trkpt lat="53.2731590" lon="-1.9832950"><ele>293.6</ele></trkpt>
            <trkpt lat="53.2729440" lon="-1.9833290"><ele>292.1</ele></trkpt>
            <trkpt lat="53.2725310" lon="-1.9836980"><ele>295.6</ele></trkpt>
            <trkpt lat="53.2721350" lon="-1.9839390"><ele>293.0</ele></trkpt>
            <trkpt lat="53.2718680" lon="-1.9839320"><ele>291.5</ele></trkpt>
            <trkpt lat="53.2716160" lon="-1.9838370"><ele>292.4</ele></trkpt>
            <trkpt lat="53.2715590" lon="-1.9837970"><ele>292.6</ele></trkpt>
            <trkpt lat="53.2715480" lon="-1.9838510"><ele>293.4</ele></trkpt>
            <trkpt lat="53.2713750" lon="-1.9837940"><ele>294.3</ele></trkpt>
            <trkpt lat="53.2711810" lon="-1.9838080"><ele>295.7</ele></trkpt>
            <trkpt lat="53.2708000" lon="-1.9845930"><ele>303.4</ele></trkpt>
            <trkpt lat="53.2706700" lon="-1.9850220"><ele>308.1</ele></trkpt>
            <trkpt lat="53.2706610" lon="-1.9853040"><ele>309.4</ele></trkpt>
            <trkpt lat="53.2706100" lon="-1.9856960"><ele>312.4</ele></trkpt>
            <trkpt lat="53.2706370" lon="-1.9859360"><ele>313.2</ele></trkpt>
            <trkpt lat="53.2706310" lon="-1.9861010"><ele>313.7</ele></trkpt>
            <trkpt lat="53.2704010" lon="-1.9874040"><ele>314.4</ele></trkpt>
            <trkpt lat="53.2702090" lon="-1.9881620"><ele>314.6</ele></trkpt>
            <trkpt lat="53.2701000" lon="-1.9884270"><ele>315.9</ele></trkpt>
            <trkpt lat="53.2700450" lon="-1.9884980"><ele>316.5</ele></trkpt>
            <trkpt lat="53.2695160" lon="-1.9888340"><ele>322.0</ele></trkpt>
            <trkpt lat="53.2693310" lon="-1.9890820"><ele>326.2</ele></trkpt>
            <trkpt lat="53.2693860" lon="-1.9891180"><ele>325.7</ele></trkpt>
            <trkpt lat="53.2694860" lon="-1.9889740"><ele>323.5</ele></trkpt>
            <trkpt lat="53.2697460" lon="-1.9888480"><ele>319.6</ele></trkpt>
            <trkpt lat="53.2697410" lon="-1.9890200"><ele>322.2</ele></trkpt>
            <trkpt lat="53.2697150" lon="-1.9890630"><ele>323.0</ele></trkpt>
            <trkpt lat="53.2696520" lon="-1.9891180"><ele>323.9</ele></trkpt>
            <trkpt lat="53.2694910" lon="-1.9891390"><ele>325.0</ele></trkpt>
            <trkpt lat="53.2694740" lon="-1.9891670"><ele>325.0</ele></trkpt>
            <trkpt lat="53.2692620" lon="-1.9897320"><ele>332.5</ele></trkpt>
            <trkpt lat="53.2693400" lon="-1.9899350"><ele>334.3</ele></trkpt>
            <trkpt lat="53.2693880" lon="-1.9900050"><ele>335.5</ele></trkpt>
            <trkpt lat="53.2696060" lon="-1.9901630"><ele>340.2</ele></trkpt>
            <trkpt lat="53.2696610" lon="-1.9903240"><ele>342.6</ele></trkpt>
            <trkpt lat="53.2696380" lon="-1.9910980"><ele>351.2</ele></trkpt>
            <trkpt lat="53.2697120" lon="-1.9914700"><ele>355.4</ele></trkpt>
            <trkpt lat="53.2696940" lon="-1.9916640"><ele>355.1</ele></trkpt>
            <trkpt lat="53.2697200" lon="-1.9917570"><ele>355.6</ele></trkpt>
            <trkpt lat="53.2697780" lon="-1.9916930"><ele>356.9</ele></trkpt>
            <trkpt lat="53.2698400" lon="-1.9916780"><ele>358.2</ele></trkpt>
            <trkpt lat="53.2699090" lon="-1.9915910"><ele>358.8</ele></trkpt>
            <trkpt lat="53.2699960" lon="-1.9916680"><ele>357.9</ele></trkpt>
            <trkpt lat="53.2700660" lon="-1.9919970"><ele>356.4</ele></trkpt>
            <trkpt lat="53.2701020" lon="-1.9923810"><ele>352.0</ele></trkpt>
            <trkpt lat="53.2700650" lon="-1.9926000"><ele>349.1</ele></trkpt>
            <trkpt lat="53.2699940" lon="-1.9927260"><ele>348.1</ele></trkpt>
            <trkpt lat="53.2700160" lon="-1.9928420"><ele>345.7</ele></trkpt>
            <trkpt lat="53.2701700" lon="-1.9931790"><ele>340.7</ele></trkpt>
            <trkpt lat="53.2702760" lon="-1.9932730"><ele>339.7</ele></trkpt>
            <trkpt lat="53.2703600" lon="-1.9932310"><ele>338.9</ele></trkpt>
            <trkpt lat="53.2704210" lon="-1.9931660"><ele>338.3</ele></trkpt>
            <trkpt lat="53.2704630" lon="-1.9930700"><ele>337.7</ele></trkpt>
            <trkpt lat="53.2706700" lon="-1.9927590"><ele>334.3</ele></trkpt>
            <trkpt lat="53.2706680" lon="-1.9926180"><ele>334.3</ele></trkpt>
            <trkpt lat="53.2706020" lon="-1.9924890"><ele>335.7</ele></trkpt>
            <trkpt lat="53.2706350" lon="-1.9924200"><ele>334.9</ele></trkpt>
            <trkpt lat="53.2706140" lon="-1.9923730"><ele>335.3</ele></trkpt>
            <trkpt lat="53.2706250" lon="-1.9921930"><ele>335.3</ele></trkpt>
            <trkpt lat="53.2707640" lon="-1.9917200"><ele>337.0</ele></trkpt>
            <trkpt lat="53.2708240" lon="-1.9915590"><ele>338.9</ele></trkpt>
            <trkpt lat="53.2708820" lon="-1.9912580"><ele>341.1</ele></trkpt>
            <trkpt lat="53.2709400" lon="-1.9904470"><ele>344.9</ele></trkpt>
            <trkpt lat="53.2709510" lon="-1.9899330"><ele>342.8</ele></trkpt>
            <trkpt lat="53.2709960" lon="-1.9897640"><ele>343.0</ele></trkpt>
            <trkpt lat="53.2710180" lon="-1.9898450"><ele>344.5</ele></trkpt>
            <trkpt lat="53.2710640" lon="-1.9899130"><ele>345.8</ele></trkpt>
            <trkpt lat="53.2711920" lon="-1.9900330"><ele>350.3</ele></trkpt>
            <trkpt lat="53.2714310" lon="-1.9902080"><ele>359.1</ele></trkpt>
            <trkpt lat="53.2715950" lon="-1.9901180"><ele>363.9</ele></trkpt>
            <trkpt lat="53.2719440" lon="-1.9903220"><ele>374.2</ele></trkpt>
            <trkpt lat="53.2720390" lon="-1.9904980"><ele>376.1</ele></trkpt>
            <trkpt lat="53.2722350" lon="-1.9910260"><ele>383.3</ele></trkpt>
            <trkpt lat="53.2723500" lon="-1.9912350"><ele>387.5</ele></trkpt>
            <trkpt lat="53.2724870" lon="-1.9913810"><ele>390.6</ele></trkpt>
            <trkpt lat="53.2726540" lon="-1.9915230"><ele>393.2</ele></trkpt>
            <trkpt lat="53.2727230" lon="-1.9916060"><ele>394.3</ele></trkpt>
            <trkpt lat="53.2728780" lon="-1.9917160"><ele>396.2</ele></trkpt>
            <trkpt lat="53.2731960" lon="-1.9919910"><ele>401.5</ele></trkpt>
            <trkpt lat="53.2733350" lon="-1.9920700"><ele>403.6</ele></trkpt>
            <trkpt lat="53.2734910" lon="-1.9921020"><ele>406.9</ele></trkpt>
            <trkpt lat="53.2736180" lon="-1.9921570"><ele>409.0</ele></trkpt>
            <trkpt lat="53.2740940" lon="-1.9925040"><ele>411.4</ele></trkpt>
            <trkpt lat="53.2742630" lon="-1.9926060"><ele>411.9</ele></trkpt>
            <trkpt lat="53.2744590" lon="-1.9926730"><ele>414.2</ele></trkpt>
            <trkpt lat="53.2748990" lon="-1.9927160"><ele>420.5</ele></trkpt>
            <trkpt lat="53.2750430" lon="-1.9927480"><ele>422.1</ele></trkpt>
            <trkpt lat="53.2755400" lon="-1.9931140"><ele>426.7</ele></trkpt>
            <trkpt lat="53.2757500" lon="-1.9932560"><ele>429.0</ele></trkpt>
            <trkpt lat="53.2761950" lon="-1.9935160"><ele>434.0</ele></trkpt>
            <trkpt lat="53.2768380" lon="-1.9939810"><ele>441.3</ele></trkpt>
            <trkpt lat="53.2769440" lon="-1.9941150"><ele>442.1</ele></trkpt>
            <trkpt lat="53.2770220" lon="-1.9942690"><ele>442.2</ele></trkpt>
            <trkpt lat="53.2771540" lon="-1.9944620"><ele>441.2</ele></trkpt>
            <trkpt lat="53.2773990" lon="-1.9946070"><ele>442.5</ele></trkpt>
            <trkpt lat="53.2775140" lon="-1.9946470"><ele>443.4</ele></trkpt>
            <trkpt lat="53.2776180" lon="-1.9946590"><ele>444.2</ele></trkpt>
            <trkpt lat="53.2779710" lon="-1.9948950"><ele>442.0</ele></trkpt>
            <trkpt lat="53.2780820" lon="-1.9949940"><ele>440.9</ele></trkpt>
            <trkpt lat="53.2786170" lon="-1.9951310"><ele>443.2</ele></trkpt>
            <trkpt lat="53.2787960" lon="-1.9951240"><ele>443.6</ele></trkpt>
            <trkpt lat="53.2791440" lon="-1.9952650"><ele>442.0</ele></trkpt>
            <trkpt lat="53.2793050" lon="-1.9952890"><ele>441.4</ele></trkpt>
            <trkpt lat="53.2796460" lon="-1.9954740"><ele>439.7</ele></trkpt>
            <trkpt lat="53.2799290" lon="-1.9956080"><ele>437.4</ele></trkpt>
            <trkpt lat="53.2800090" lon="-1.9956240"><ele>436.8</ele></trkpt>
            <trkpt lat="53.2801740" lon="-1.9957660"><ele>434.8</ele></trkpt>
            <trkpt lat="53.2802370" lon="-1.9958720"><ele>433.7</ele></trkpt>
            <trkpt lat="53.2803690" lon="-1.9962420"><ele>431.5</ele></trkpt>
            <trkpt lat="53.2805180" lon="-1.9964320"><ele>430.7</ele></trkpt>
            <trkpt lat="53.2806760" lon="-1.9967070"><ele>429.0</ele></trkpt>
            <trkpt lat="53.2807740" lon="-1.9969080"><ele>427.0</ele></trkpt>
            <trkpt lat="53.2808900" lon="-1.9970780"><ele>424.6</ele></trkpt>
            <trkpt lat="53.2810270" lon="-1.9973690"><ele>421.4</ele></trkpt>
            <trkpt lat="53.2812500" lon="-1.9977360"><ele>422.2</ele></trkpt>
            <trkpt lat="53.2815930" lon="-1.9983800"><ele>426.6</ele></trkpt>
            <trkpt lat="53.2822870" lon="-1.9988240"><ele>436.3</ele></trkpt>
            <trkpt lat="53.2823680" lon="-1.9987820"><ele>437.0</ele></trkpt>
            <trkpt lat="53.2822860" lon="-1.9985110"><ele>435.7</ele></trkpt>
            <trkpt lat="53.2823190" lon="-1.9984910"><ele>435.9</ele></trkpt>
            <trkpt lat="53.2823410" lon="-1.9984030"><ele>435.9</ele></trkpt>
            <trkpt lat="53.2824690" lon="-1.9988020"><ele>438.1</ele></trkpt>
            <trkpt lat="53.2825590" lon="-1.9991530"><ele>439.5</ele></trkpt>
            <trkpt lat="53.2830750" lon="-2.0006480"><ele>444.0</ele></trkpt>
            <trkpt lat="53.2836140" lon="-2.0014400"><ele>443.7</ele></trkpt>
            <trkpt lat="53.2840760" lon="-2.0023680"><ele>440.9</ele></trkpt>
            <trkpt lat="53.2843720" lon="-2.0028900"><ele>439.3</ele></trkpt>
            <trkpt lat="53.2846320" lon="-2.0031670"><ele>439.9</ele></trkpt>
            <trkpt lat="53.2849260" lon="-2.0034060"><ele>442.6</ele></trkpt>
            <trkpt lat="53.2851990" lon="-2.0036800"><ele>444.6</ele></trkpt>
            <trkpt lat="53.2857800" lon="-2.0044090"><ele>447.1</ele></trkpt>
            <trkpt lat="53.2861220" lon="-2.0049330"><ele>451.6</ele></trkpt>
            <trkpt lat="53.2869400" lon="-2.0063170"><ele>461.6</ele></trkpt>
            <trkpt lat="53.2872940" lon="-2.0072750"><ele>468.5</ele></trkpt>
            <trkpt lat="53.2872240" lon="-2.0073300"><ele>470.0</ele></trkpt>
            <trkpt lat="53.2873100" lon="-2.0075690"><ele>469.5</ele></trkpt>
            <trkpt lat="53.2871440" lon="-2.0077770"><ele>471.4</ele></trkpt>
            <trkpt lat="53.2868950" lon="-2.0081790"><ele>473.1</ele></trkpt>
            <trkpt lat="53.2864940" lon="-2.0082100"><ele>479.3</ele></trkpt>
            <trkpt lat="53.2854850" lon="-2.0081250"><ele>489.6</ele></trkpt>
            <trkpt lat="53.2842720" lon="-2.0081910"><ele>490.2</ele></trkpt>
            <trkpt lat="53.2835380" lon="-2.0080750"><ele>488.8</ele></trkpt>
            <trkpt lat="53.2833450" lon="-2.0081010"><ele>488.6</ele></trkpt>
            <trkpt lat="53.2823300" lon="-2.0085190"><ele>499.8</ele></trkpt>
            <trkpt lat="53.2812030" lon="-2.0088550"><ele>512.3</ele></trkpt>
            <trkpt lat="53.2809060" lon="-2.0090170"><ele>512.6</ele></trkpt>
            <trkpt lat="53.2801110" lon="-2.0091280"><ele>519.5</ele></trkpt>
            <trkpt lat="53.2798300" lon="-2.0089860"><ele>519.1</ele></trkpt>
            <trkpt lat="53.2795860" lon="-2.0088950"><ele>517.5</ele></trkpt>
            <trkpt lat="53.2792270" lon="-2.0088290"><ele>515.5</ele></trkpt>
            <trkpt lat="53.2789090" lon="-2.0086880"><ele>514.8</ele></trkpt>
            <trkpt lat="53.2785680" lon="-2.0086200"><ele>512.9</ele></trkpt>
            <trkpt lat="53.2782440" lon="-2.0085050"><ele>510.8</ele></trkpt>
            <trkpt lat="53.2780430" lon="-2.0083800"><ele>509.6</ele></trkpt>
            <trkpt lat="53.2777930" lon="-2.0081620"><ele>509.2</ele></trkpt>
            <trkpt lat="53.2769820" lon="-2.0079760"><ele>505.7</ele></trkpt>
            <trkpt lat="53.2766630" lon="-2.0078140"><ele>503.8</ele></trkpt>
            <trkpt lat="53.2763960" lon="-2.0076240"><ele>501.7</ele></trkpt>
            <trkpt lat="53.2759690" lon="-2.0072290"><ele>499.2</ele></trkpt>
            <trkpt lat="53.2750730" lon="-2.0071420"><ele>495.8</ele></trkpt>
            <trkpt lat="53.2748880" lon="-2.0071080"><ele>494.7</ele></trkpt>
            <trkpt lat="53.2746800" lon="-2.0070160"><ele>494.3</ele></trkpt>
            <trkpt lat="53.2742890" lon="-2.0069870"><ele>491.0</ele></trkpt>
            <trkpt lat="53.2734050" lon="-2.0068370"><ele>488.0</ele></trkpt>
            <trkpt lat="53.2731620" lon="-2.0067600"><ele>487.4</ele></trkpt>
            <trkpt lat="53.2727840" lon="-2.0067360"><ele>486.6</ele></trkpt>
            <trkpt lat="53.2719370" lon="-2.0065710"><ele>486.6</ele></trkpt>
            <trkpt lat="53.2718060" lon="-2.0065100"><ele>486.8</ele></trkpt>
            <trkpt lat="53.2714070" lon="-2.0061190"><ele>484.8</ele></trkpt>
            <trkpt lat="53.2701860" lon="-2.0056020"><ele>486.8</ele></trkpt>
            <trkpt lat="53.2692280" lon="-2.0051260"><ele>493.5</ele></trkpt>
            <trkpt lat="53.2691280" lon="-2.0051060"><ele>494.6</ele></trkpt>
            <trkpt lat="53.2688760" lon="-2.0052090"><ele>498.5</ele></trkpt>
            <trkpt lat="53.2677530" lon="-2.0053080"><ele>514.6</ele></trkpt>
            <trkpt lat="53.2672940" lon="-2.0055080"><ele>519.8</ele></trkpt>
            <trkpt lat="53.2666060" lon="-2.0059770"><ele>520.6</ele></trkpt>
            <trkpt lat="53.2660680" lon="-2.0064650"><ele>525.9</ele></trkpt>
            <trkpt lat="53.2658400" lon="-2.0065810"><ele>528.0</ele></trkpt>
            <trkpt lat="53.2654030" lon="-2.0069050"><ele>531.6</ele></trkpt>
            <trkpt lat="53.2649060" lon="-2.0071560"><ele>537.2</ele></trkpt>
            <trkpt lat="53.2635440" lon="-2.0079970"><ele>542.4</ele></trkpt>
            <trkpt lat="53.2631350" lon="-2.0081250"><ele>546.2</ele></trkpt>
            <trkpt lat="53.2622200" lon="-2.0085720"><ele>554.6</ele></trkpt>
            <trkpt lat="53.2619920" lon="-2.0086160"><ele>555.5</ele></trkpt>
            <trkpt lat="53.2618040" lon="-2.0086010"><ele>555.9</ele></trkpt>
            <trkpt lat="53.2616710" lon="-2.0087130"><ele>555.7</ele></trkpt>
            <trkpt lat="53.2615930" lon="-2.0088430"><ele>555.6</ele></trkpt>
            <trkpt lat="53.2614800" lon="-2.0089600"><ele>555.1</ele></trkpt>
            <trkpt lat="53.2606540" lon="-2.0094460"><ele>554.0</ele></trkpt>
            <trkpt lat="53.2605100" lon="-2.0092790"><ele>555.5</ele></trkpt>
            <trkpt lat="53.2599040" lon="-2.0081730"><ele>552.7</ele></trkpt>
            <trkpt lat="53.2596650" lon="-2.0076370"><ele>551.3</ele></trkpt>
            <trkpt lat="53.2595040" lon="-2.0074290"><ele>548.9</ele></trkpt>
            <trkpt lat="53.2593030" lon="-2.0070960"><ele>546.0</ele></trkpt>
            <trkpt lat="53.2592250" lon="-2.0069050"><ele>544.7</ele></trkpt>
            <trkpt lat="53.2588520" lon="-2.0063060"><ele>539.5</ele></trkpt>
            <trkpt lat="53.2585410" lon="-2.0057120"><ele>533.8</ele></trkpt>
            <trkpt lat="53.2583150" lon="-2.0051780"><ele>529.1</ele></trkpt>
            <trkpt lat="53.2580070" lon="-2.0048300"><ele>523.9</ele></trkpt>
            <trkpt lat="53.2570270" lon="-2.0030770"><ele>511.4</ele></trkpt>
            <trkpt lat="53.2555570" lon="-2.0006460"><ele>521.7</ele></trkpt>
            <trkpt lat="53.2554380" lon="-2.0003510"><ele>523.2</ele></trkpt>
            <trkpt lat="53.2554350" lon="-2.0002950"><ele>523.4</ele></trkpt>
            <trkpt lat="53.2539920" lon="-2.0008310"><ele>520.6</ele></trkpt>
            <trkpt lat="53.2538320" lon="-2.0007550"><ele>520.1</ele></trkpt>
            <trkpt lat="53.2537110" lon="-2.0000430"><ele>520.2</ele></trkpt>
            <trkpt lat="53.2534620" lon="-1.9982040"><ele>507.9</ele></trkpt>
            <trkpt lat="53.2534640" lon="-1.9980360"><ele>506.6</ele></trkpt>
            <trkpt lat="53.2537540" lon="-1.9947810"><ele>463.0</ele></trkpt>
            <trkpt lat="53.2538270" lon="-1.9937960"><ele>449.2</ele></trkpt>
            <trkpt lat="53.2538200" lon="-1.9936270"><ele>447.3</ele></trkpt>
            <trkpt lat="53.2538900" lon="-1.9931890"><ele>441.8</ele></trkpt>
            <trkpt lat="53.2538870" lon="-1.9928330"><ele>438.2</ele></trkpt>
            <trkpt lat="53.2539170" lon="-1.9926010"><ele>435.8</ele></trkpt>
            <trkpt lat="53.2539570" lon="-1.9924400"><ele>434.9</ele></trkpt>
            <trkpt lat="53.2542070" lon="-1.9917690"><ele>427.2</ele></trkpt>
            <trkpt lat="53.2542970" lon="-1.9914370"><ele>423.2</ele></trkpt>
            <trkpt lat="53.2545480" lon="-1.9910230"><ele>419.7</ele></trkpt>
            <trkpt lat="53.2547360" lon="-1.9908670"><ele>417.3</ele></trkpt>
            <trkpt lat="53.2548380" lon="-1.9908790"><ele>416.2</ele></trkpt>
            <trkpt lat="53.2550540" lon="-1.9908340"><ele>414.6</ele></trkpt>
            <trkpt lat="53.2551030" lon="-1.9908020"><ele>414.5</ele></trkpt>
            <trkpt lat="53.2551620" lon="-1.9906540"><ele>413.7</ele></trkpt>
            <trkpt lat="53.2554360" lon="-1.9907030"><ele>411.5</ele></trkpt>
            <trkpt lat="53.2556350" lon="-1.9906180"><ele>410.0</ele></trkpt>
            <trkpt lat="53.2557760" lon="-1.9905160"><ele>408.7</ele></trkpt>
            <trkpt lat="53.2561450" lon="-1.9897160"><ele>402.3</ele></trkpt>
            <trkpt lat="53.2564000" lon="-1.9894510"><ele>396.4</ele></trkpt>
            <trkpt lat="53.2566680" lon="-1.9892820"><ele>391.3</ele></trkpt>
            <trkpt lat="53.2569610" lon="-1.9889040"><ele>386.2</ele></trkpt>
            <trkpt lat="53.2571510" lon="-1.9884110"><ele>382.0</ele></trkpt>
            <trkpt lat="53.2573960" lon="-1.9881660"><ele>377.9</ele></trkpt>
            <trkpt lat="53.2578790" lon="-1.9878150"><ele>373.0</ele></trkpt>
            <trkpt lat="53.2585230" lon="-1.9870660"><ele>364.8</ele></trkpt>
            <trkpt lat="53.2587020" lon="-1.9867710"><ele>361.9</ele></trkpt>
            <trkpt lat="53.2587020" lon="-1.9864230"><ele>358.8</ele></trkpt>
            <trkpt lat="53.2586140" lon="-1.9857820"><ele>356.1</ele></trkpt>
            <trkpt lat="53.2587040" lon="-1.9851650"><ele>349.3</ele></trkpt>
            <trkpt lat="53.2587300" lon="-1.9847440"><ele>344.2</ele></trkpt>
            <trkpt lat="53.2586280" lon="-1.9846870"><ele>344.5</ele></trkpt>
            <trkpt lat="53.2578230" lon="-1.9843770"><ele>341.2</ele></trkpt>
            <trkpt lat="53.2572330" lon="-1.9835970"><ele>338.3</ele></trkpt>
            <trkpt lat="53.2569570" lon="-1.9833550"><ele>340.7</ele></trkpt>
            <trkpt lat="53.2566550" lon="-1.9832230"><ele>343.9</ele></trkpt>
            <trkpt lat="53.2565050" lon="-1.9829140"><ele>342.0</ele></trkpt>
            <trkpt lat="53.2565290" lon="-1.9827020"><ele>339.6</ele></trkpt>
            <trkpt lat="53.2563770" lon="-1.9823440"><ele>340.3</ele></trkpt>
            <trkpt lat="53.2562990" lon="-1.9820680"><ele>341.9</ele></trkpt>
            <trkpt lat="53.2563230" lon="-1.9820810"><ele>341.4</ele></trkpt>
            <trkpt lat="53.2563740" lon="-1.9820310"><ele>340.3</ele></trkpt>
            <trkpt lat="53.2564630" lon="-1.9820930"><ele>339.1</ele></trkpt>
            <trkpt lat="53.2566920" lon="-1.9823830"><ele>338.4</ele></trkpt>
            <trkpt lat="53.2568370" lon="-1.9823830"><ele>338.9</ele></trkpt>
            <trkpt lat="53.2569160" lon="-1.9824460"><ele>338.9</ele></trkpt>
            <trkpt lat="53.2571040" lon="-1.9827060"><ele>338.9</ele></trkpt>
            <trkpt lat="53.2574090" lon="-1.9827860"><ele>339.1</ele></trkpt>
            <trkpt lat="53.2576830" lon="-1.9828130"><ele>340.8</ele></trkpt>
            <trkpt lat="53.2585200" lon="-1.9830590"><ele>338.0</ele></trkpt>
            <trkpt lat="53.2591640" lon="-1.9828900"><ele>334.7</ele></trkpt>
            <trkpt lat="53.2593480" lon="-1.9829460"><ele>333.3</ele></trkpt>
            <trkpt lat="53.2595670" lon="-1.9829530"><ele>331.6</ele></trkpt>
            <trkpt lat="53.2596640" lon="-1.9829040"><ele>331.4</ele></trkpt>
            <trkpt lat="53.2599730" lon="-1.9825980"><ele>333.1</ele></trkpt>
            <trkpt lat="53.2603040" lon="-1.9824290"><ele>334.3</ele></trkpt>
            <trkpt lat="53.2606260" lon="-1.9824600"><ele>332.0</ele></trkpt>
            <trkpt lat="53.2616370" lon="-1.9822290"><ele>330.2</ele></trkpt>
            <trkpt lat="53.2619040" lon="-1.9820440"><ele>332.5</ele></trkpt>
            <trkpt lat="53.2620970" lon="-1.9820750"><ele>331.6</ele></trkpt>
            <trkpt lat="53.2625570" lon="-1.9820440"><ele>332.9</ele></trkpt>
            <trkpt lat="53.2628330" lon="-1.9818450"><ele>337.5</ele></trkpt>
            <trkpt lat="53.2629520" lon="-1.9818600"><ele>338.2</ele></trkpt>
            <trkpt lat="53.2631820" lon="-1.9822750"><ele>331.8</ele></trkpt>
            <trkpt lat="53.2634760" lon="-1.9824900"><ele>329.1</ele></trkpt>
            <trkpt lat="53.2637430" lon="-1.9825360"><ele>329.4</ele></trkpt>
            <trkpt lat="53.2641000" lon="-1.9827330"><ele>328.0</ele></trkpt>
            <trkpt lat="53.2644780" lon="-1.9828750"><ele>327.7</ele></trkpt>
            <trkpt lat="53.2649910" lon="-1.9828280"><ele>329.3</ele></trkpt>
            <trkpt lat="53.2654130" lon="-1.9827210"><ele>330.0</ele></trkpt>
            <trkpt lat="53.2656100" lon="-1.9826000"><ele>330.9</ele></trkpt>
            <trkpt lat="53.2658230" lon="-1.9826790"><ele>327.3</ele></trkpt>
            <trkpt lat="53.2663620" lon="-1.9823130"><ele>325.8</ele></trkpt>
            <trkpt lat="53.2669610" lon="-1.9816760"><ele>326.6</ele></trkpt>
            <trkpt lat="53.2671080" lon="-1.9811680"><ele>328.8</ele></trkpt>
            <trkpt lat="53.2671260" lon="-1.9804000"><ele>331.7</ele></trkpt>
            <trkpt lat="53.2673370" lon="-1.9792160"><ele>326.6</ele></trkpt>
            <trkpt lat="53.2675950" lon="-1.9782630"><ele>325.1</ele></trkpt>
            <trkpt lat="53.2678340" lon="-1.9779100"><ele>322.6</ele></trkpt>
            <trkpt lat="53.2682200" lon="-1.9777100"><ele>317.8</ele></trkpt>
            <trkpt lat="53.2683480" lon="-1.9774170"><ele>314.3</ele></trkpt>
            <trkpt lat="53.2682510" lon="-1.9767630"><ele>312.7</ele></trkpt>
            <trkpt lat="53.2681770" lon="-1.9760320"><ele>308.7</ele></trkpt>
            <trkpt lat="53.2680610" lon="-1.9745150"><ele>305.9</ele></trkpt>
            <trkpt lat="53.2679710" lon="-1.9726090"><ele>308.6</ele></trkpt>
            <trkpt lat="53.2680100" lon="-1.9723490"><ele>310.3</ele></trkpt>
            <trkpt lat="53.2680750" lon="-1.9721560"><ele>310.9</ele></trkpt>
            <trkpt lat="53.2682710" lon="-1.9719980"><ele>308.4</ele></trkpt>
            <trkpt lat="53.2684230" lon="-1.9719210"><ele>305.9</ele></trkpt>
            <trkpt lat="53.2690720" lon="-1.9717220"><ele>305.2</ele></trkpt>
            <trkpt lat="53.2694250" lon="-1.9711990"><ele>307.7</ele></trkpt>
            <trkpt lat="53.2696570" lon="-1.9710680"><ele>309.1</ele></trkpt>
            <trkpt lat="53.2698080" lon="-1.9709220"><ele>311.6</ele></trkpt>
            <trkpt lat="53.2698170" lon="-1.9706730"><ele>311.6</ele></trkpt>
            <trkpt lat="53.2698960" lon="-1.9704440"><ele>313.1</ele></trkpt>
            <trkpt lat="53.2699280" lon="-1.9702340"><ele>313.6</ele></trkpt>
            <trkpt lat="53.2701910" lon="-1.9694770"><ele>324.2</ele></trkpt>
            <trkpt lat="53.2703340" lon="-1.9693490"><ele>328.9</ele></trkpt>
            <trkpt lat="53.2703880" lon="-1.9693360"><ele>330.4</ele></trkpt>
            <trkpt lat="53.2704470" lon="-1.9691690"><ele>331.8</ele></trkpt>
            <trkpt lat="53.2712290" lon="-1.9689560"><ele>352.3</ele></trkpt>
            <trkpt lat="53.2719810" lon="-1.9677930"><ele>368.5</ele></trkpt>
            <trkpt lat="53.2722950" lon="-1.9674340"><ele>373.0</ele></trkpt>
            <trkpt lat="53.2726680" lon="-1.9670620"><ele>379.5</ele></trkpt>
            <trkpt lat="53.2728500" lon="-1.9669250"><ele>381.7</ele></trkpt>
            <trkpt lat="53.2731210" lon="-1.9669040"><ele>386.2</ele></trkpt>
            <trkpt lat="53.2731480" lon="-1.9666880"><ele>385.3</ele></trkpt>
            <trkpt lat="53.2732680" lon="-1.9666980"><ele>387.2</ele></trkpt>
            <trkpt lat="53.2733160" lon="-1.9664550"><ele>386.6</ele></trkpt>
            <trkpt lat="53.2734890" lon="-1.9661560"><ele>387.7</ele></trkpt>
            <trkpt lat="53.2735110" lon="-1.9662140"><ele>388.2</ele></trkpt>
            <trkpt lat="53.2735060" lon="-1.9663960"><ele>388.8</ele></trkpt>
            <trkpt lat="53.2734800" lon="-1.9664520"><ele>388.8</ele></trkpt>
        </trkseg>
    </trk>
<!-- ele-hash:43db9df9f49210bf -->
</gpx>
