<?xml version="1.0" encoding="UTF-8" standalone="yes"?>
<gpx version="1.1" creator="OS Maps - Web" xmlns="http://www.topografix.com/GPX/1/1"
xmlns:xsi="http://www.w3.org/2001/XMLSchema-instance"
xsi:schemaLocation="http://www.topografix.com/GPX/1/1 http://www.topografix.com/GPX/1/1/gpx.xsd"
xmlns:gs="http://www.topografix.com/GPX/gpx_style/0/2"
xmlns:gh="https://graphhopper.com/public/schema/gpx/1.1"
xmlns:os="https://ordnancesurvey.co.uk/public/schema/route/0.1">
    <metadata>
        <name>Cheeks Hill &amp; Axe Edge Moor (Ethels) - Circular (www.thelostpeak.co.uk)</name>
        <desc>www.thelostpeak.co.uk</desc>
        <bounds minlat="53.2151390" minlon="-2.0004021" maxlat="53.2467860" maxlon="-1.9489830"/>
        <extensions>
            <os:version>2.0</os:version>
            <os:point lat="53.2412362" lon="-1.9746520" type="start"/>
            <os:point lat="53.2411262" lon="-1.9747570" type="end"/>
            <os:activity>ON_FOOT_WALKING</os:activity>
            <os:difficulty>MODERATE</os:difficulty>
            <os:paths/>
            <os:distance>14946.4898295</os:distance>
            <os:elevation_ascent>385.7100000</os:elevation_ascent>
        </extensions>
    </metadata>
    <wpt lat="53.2412362" lon="-1.9746520"/>
    <wpt lat="53.2425304" lon="-2.0004015"/>
    <wpt lat="53.2270506" lon="-1.9868361"/>
    <wpt lat="53.2191556" lon="-1.9754159"/>
    <wpt lat="53.2263203" lon="-1.9623922"/>
    <wpt lat="53.2213944" lon="-1.9597319"/>
    <wpt lat="53.2258486" lon="-1.9524145"/>
    <wpt lat="53.2325515" lon="-1.9490592"/>
    <wpt lat="53.2390485" lon="-1.9581866"/>
    <wpt lat="53.2411262" lon="-1.9747570"/>
    <trk>
        <name>Cheeks Hill &amp; Axe Edge Moor (Ethels) - Circular (www.thelostpeak.co.uk)</name>
        <trkseg>
            <trkpt lat="53.2412362" lon="-1.9746520"/>
            <trkpt lat="53.2402860" lon="-1.9773210"/>
            <trkpt lat="53.2404830" lon="-1.9772450"/>
            <trkpt lat="53.2403270" lon="-1.9781180"/>
            <trkpt lat="53.2402590" lon="-1.9784070"/>
            <trkpt lat="53.2400420" lon="-1.9795730"/>
            <trkpt lat="53.2400060" lon="-1.9798540"/>
            <trkpt lat="53.2400040" lon="-1.9801330"/>
            <trkpt lat="53.2401430" lon="-1.9807500"/>
            <trkpt lat="53.2403030" lon="-1.9818510"/>
            <trkpt lat="53.2407560" lon="-1.9844240"/>
            <trkpt lat="53.2409330" lon="-1.9853730"/>
            <trkpt lat="53.2412570" lon="-1.9868480"/>
            <trkpt lat="53.2414100" lon="-1.9877020"/>
            <trkpt lat="53.2416030" lon="-1.9897440"/>
            <trkpt lat="53.2418580" lon="-1.9913090"/>
            <trkpt lat="53.2421730" lon="-1.9929930"/>
            <trkpt lat="53.2423630" lon="-1.9941930"/>
            <trkpt lat="53.2424790" lon="-1.9962520"/>
            <trkpt lat="53.2425300" lon="-1.9966980"/>
            <trkpt lat="53.2440546" lon="-1.9995892"/>
            <trkpt lat="53.2438187" lon="-1.9999301"/>
            <trkpt lat="53.2425304" lon="-2.0004015"/>
            <trkpt lat="53.2425288" lon="-2.0004021"/>
            <trkpt lat="53.2391939" lon="-1.9992746"/>
            <trkpt lat="53.2375108" lon="-1.9996154"/>
            <trkpt lat="53.2350883" lon="-1.9987502"/>
            <trkpt lat="53.2337827" lon="-1.9995368"/>
            <trkpt lat="53.2337220" lon="-1.9996210"/>
            <trkpt lat="53.2329580" lon="-1.9980740"/>
            <trkpt lat="53.2323740" lon="-1.9969950"/>
            <trkpt lat="53.2316220" lon="-1.9960120"/>
            <trkpt lat="53.2313150" lon="-1.9957050"/>
            <trkpt lat="53.2308570" lon="-1.9951790"/>
            <trkpt lat="53.2304550" lon="-1.9945500"/>
            <trkpt lat="53.2302130" lon="-1.9940080"/>
            <trkpt lat="53.2298300" lon="-1.9929350"/>
            <trkpt lat="53.2294280" lon="-1.9917240"/>
            <trkpt lat="53.2289550" lon="-1.9904370"/>
            <trkpt lat="53.2286580" lon="-1.9895450"/>
            <trkpt lat="53.2284380" lon="-1.9887990"/>
            <trkpt lat="53.2281880" lon="-1.9880260"/>
            <trkpt lat="53.2280160" lon="-1.9877190"/>
            <trkpt lat="53.2277900" lon="-1.9873800"/>
            <trkpt lat="53.2275430" lon="-1.9870770"/>
            <trkpt lat="53.2273530" lon="-1.9869550"/>
            <trkpt lat="53.2270506" lon="-1.9868361"/>
            <trkpt lat="53.2269970" lon="-1.9868150"/>
            <trkpt lat="53.2269550" lon="-1.9867880"/>
            <trkpt lat="53.2268720" lon="-1.9866630"/>
            <trkpt lat="53.2268430" lon="-1.9866610"/>
            <trkpt lat="53.2265560" lon="-1.9868240"/>
            <trkpt lat="53.2266190" lon="-1.9863310"/>
            <trkpt lat="53.2268610" lon="-1.9854080"/>
            <trkpt lat="53.2268640" lon="-1.9845340"/>
            <trkpt lat="53.2268020" lon="-1.9839040"/>
            <trkpt lat="53.2266650" lon="-1.9829970"/>
            <trkpt lat="53.2266520" lon="-1.9826780"/>
            <trkpt lat="53.2267420" lon="-1.9821950"/>
            <trkpt lat="53.2267670" lon="-1.9819360"/>
            <trkpt lat="53.2267600" lon="-1.9818060"/>
            <trkpt lat="53.2266900" lon="-1.9816110"/>
            <trkpt lat="53.2266820" lon="-1.9815290"/>
            <trkpt lat="53.2267090" lon="-1.9814090"/>
            <trkpt lat="53.2268080" lon="-1.9812130"/>
            <trkpt lat="53.2268100" lon="-1.9811190"/>
            <trkpt lat="53.2267900" lon="-1.9810120"/>
            <trkpt lat="53.2267970" lon="-1.9809410"/>
            <trkpt lat="53.2268390" lon="-1.9807600"/>
            <trkpt lat="53.2268650" lon="-1.9807130"/>
            <trkpt lat="53.2268370" lon="-1.9806020"/>
            <trkpt lat="53.2266590" lon="-1.9805960"/>
            <trkpt lat="53.2265000" lon="-1.9807100"/>
            <trkpt lat="53.2264450" lon="-1.9807020"/>
            <trkpt lat="53.2263910" lon="-1.9810420"/>
            <trkpt lat="53.2263460" lon="-1.9810900"/>
            <trkpt lat="53.2261960" lon="-1.9816110"/>
            <trkpt lat="53.2260790" lon="-1.9818200"/>
            <trkpt lat="53.2259730" lon="-1.9820830"/>
            <trkpt lat="53.2258450" lon="-1.9823100"/>
            <trkpt lat="53.2251970" lon="-1.9835840"/>
            <trkpt lat="53.2251310" lon="-1.9836690"/>
            <trkpt lat="53.2249010" lon="-1.9837750"/>
            <trkpt lat="53.2248120" lon="-1.9839260"/>
            <trkpt lat="53.2247600" lon="-1.9840620"/>
            <trkpt lat="53.2245790" lon="-1.9843410"/>
            <trkpt lat="53.2241040" lon="-1.9848370"/>
            <trkpt lat="53.2238890" lon="-1.9849890"/>
            <trkpt lat="53.2236720" lon="-1.9849930"/>
            <trkpt lat="53.2234100" lon="-1.9850450"/>
            <trkpt lat="53.2231040" lon="-1.9849770"/>
            <trkpt lat="53.2226950" lon="-1.9848480"/>
            <trkpt lat="53.2222320" lon="-1.9846660"/>
            <trkpt lat="53.2215620" lon="-1.9842040"/>
            <trkpt lat="53.2210820" lon="-1.9837720"/>
            <trkpt lat="53.2205340" lon="-1.9836040"/>
            <trkpt lat="53.2201420" lon="-1.9831130"/>
            <trkpt lat="53.2199110" lon="-1.9827610"/>
            <trkpt lat="53.2198160" lon="-1.9825490"/>
            <trkpt lat="53.2197120" lon="-1.9822080"/>
            <trkpt lat="53.2195560" lon="-1.9818120"/>
            <trkpt lat="53.2188380" lon="-1.9796450"/>
            <trkpt lat="53.2185860" lon="-1.9789390"/>
            <trkpt lat="53.2184630" lon="-1.9782150"/>
            <trkpt lat="53.2184700" lon="-1.9778100"/>
            <trkpt lat="53.2185530" lon="-1.9774130"/>
            <trkpt lat="53.2188680" lon="-1.9765350"/>
            <trkpt lat="53.2190430" lon="-1.9762600"/>
            <trkpt lat="53.2190700" lon="-1.9761750"/>
            <trkpt lat="53.2191270" lon="-1.9758050"/>
            <trkpt lat="53.2191410" lon="-1.9756190"/>
            <trkpt lat="53.2191240" lon="-1.9754820"/>
            <trkpt lat="53.2191556" lon="-1.9754159"/>
            <trkpt lat="53.2197641" lon="-1.9741404"/>
            <trkpt lat="53.2209589" lon="-1.9707848"/>
            <trkpt lat="53.2263206" lon="-1.9623931"/>
            <trkpt lat="53.2263203" lon="-1.9623922"/>
            <trkpt lat="53.2257524" lon="-1.9605070"/>
            <trkpt lat="53.2259772" lon="-1.9602334"/>
            <trkpt lat="53.2254409" lon="-1.9602549"/>
            <trkpt lat="53.2249900" lon="-1.9602020"/>
            <trkpt lat="53.2245950" lon="-1.9599530"/>
            <trkpt lat="53.2243380" lon="-1.9597580"/>
            <trkpt lat="53.2233620" lon="-1.9593110"/>
            <trkpt lat="53.2228550" lon="-1.9592570"/>
            <trkpt lat="53.2224190" lon="-1.9592490"/>
            <trkpt lat="53.2219230" lon="-1.9595050"/>
            <trkpt lat="53.2217860" lon="-1.9596510"/>
            <trkpt lat="53.2213970" lon="-1.9597320"/>
            <trkpt lat="53.2213944" lon="-1.9597319"/>
            <trkpt lat="53.2212210" lon="-1.9597270"/>
            <trkpt lat="53.2210650" lon="-1.9596510"/>
            <trkpt lat="53.2207920" lon="-1.9591530"/>
            <trkpt lat="53.2202980" lon="-1.9586120"/>
            <trkpt lat="53.2198330" lon="-1.9582130"/>
            <trkpt lat="53.2194510" lon="-1.9579180"/>
            <trkpt lat="53.2189400" lon="-1.9575990"/>
            <trkpt lat="53.2185390" lon="-1.9574740"/>
            <trkpt lat="53.2183630" lon="-1.9575360"/>
            <trkpt lat="53.2182590" lon="-1.9575230"/>
            <trkpt lat="53.2181720" lon="-1.9574220"/>
            <trkpt lat="53.2181040" lon="-1.9572920"/>
            <trkpt lat="53.2179900" lon="-1.9572070"/>
            <trkpt lat="53.2178430" lon="-1.9572350"/>
            <trkpt lat="53.2178220" lon="-1.9572770"/>
            <trkpt lat="53.2169050" lon="-1.9569190"/>
            <trkpt lat="53.2162200" lon="-1.9568650"/>
            <trkpt lat="53.2157950" lon="-1.9568630"/>
            <trkpt lat="53.2153800" lon="-1.9570870"/>
            <trkpt lat="53.2152560" lon="-1.9571120"/>
            <trkpt lat="53.2151390" lon="-1.9570820"/>
            <trkpt lat="53.2152690" lon="-1.9560690"/>
            <trkpt lat="53.2153730" lon="-1.9557730"/>
            <trkpt lat="53.2153730" lon="-1.9555820"/>
            <trkpt lat="53.2153390" lon="-1.9554390"/>
            <trkpt lat="53.2153840" lon="-1.9553130"/>
            <trkpt lat="53.2155420" lon="-1.9551000"/>
            <trkpt lat="53.2156440" lon="-1.9550780"/>
            <trkpt lat="53.2157580" lon="-1.9549780"/>
            <trkpt lat="53.2159270" lon="-1.9549170"/>
            <trkpt lat="53.2160240" lon="-1.9547520"/>
            <trkpt lat="53.2161170" lon="-1.9546570"/>
            <trkpt lat="53.2162470" lon="-1.9546440"/>
            <trkpt lat="53.2163830" lon="-1.9544570"/>
            <trkpt lat="53.2165940" lon="-1.9543870"/>
            <trkpt lat="53.2169710" lon="-1.9541050"/>
            <trkpt lat="53.2171790" lon="-1.9541220"/>
            <trkpt lat="53.2173380" lon="-1.9539700"/>
            <trkpt lat="53.2175090" lon="-1.9539220"/>
            <trkpt lat="53.2176390" lon="-1.9538310"/>
            <trkpt lat="53.2178080" lon="-1.9538350"/>
            <trkpt lat="53.2180690" lon="-1.9536480"/>
            <trkpt lat="53.2182480" lon="-1.9535830"/>
            <trkpt lat="53.2183810" lon="-1.9534180"/>
            <trkpt lat="53.2187140" lon="-1.9533400"/>
            <trkpt lat="53.2189450" lon="-1.9533570"/>
            <trkpt lat="53.2208760" lon="-1.9527580"/>
            <trkpt lat="53.2211780" lon="-1.9524800"/>
            <trkpt lat="53.2216850" lon="-1.9524230"/>
            <trkpt lat="53.2219370" lon="-1.9522620"/>
            <trkpt lat="53.2220100" lon="-1.9522710"/>
            <trkpt lat="53.2220860" lon="-1.9521450"/>
            <trkpt lat="53.2224080" lon="-1.9523010"/>
            <trkpt lat="53.2225540" lon="-1.9522970"/>
            <trkpt lat="53.2227520" lon="-1.9523930"/>
            <trkpt lat="53.2230980" lon="-1.9522970"/>
            <trkpt lat="53.2231810" lon="-1.9522150"/>
            <trkpt lat="53.2232590" lon="-1.9522280"/>
            <trkpt lat="53.2233420" lon="-1.9521020"/>
            <trkpt lat="53.2239090" lon="-1.9519890"/>
            <trkpt lat="53.2240680" lon="-1.9521060"/>
            <trkpt lat="53.2242010" lon="-1.9520840"/>
            <trkpt lat="53.2243700" lon="-1.9521060"/>
            <trkpt lat="53.2247700" lon="-1.9522490"/>
            <trkpt lat="53.2248900" lon="-1.9525360"/>
            <trkpt lat="53.2249812" lon="-1.9526134"/>
            <trkpt lat="53.2254993" lon="-1.9529049"/>
            <trkpt lat="53.2258486" lon="-1.9524145"/>
            <trkpt lat="53.2260450" lon="-1.9521460"/>
            <trkpt lat="53.2261250" lon="-1.9516310"/>
            <trkpt lat="53.2262120" lon="-1.9514350"/>
            <trkpt lat="53.2264850" lon="-1.9511990"/>
            <trkpt lat="53.2265680" lon="-1.9511670"/>
            <trkpt lat="53.2266790" lon="-1.9510790"/>
            <trkpt lat="53.2270000" lon="-1.9508940"/>
            <trkpt lat="53.2271490" lon="-1.9508290"/>
            <trkpt lat="53.2274110" lon="-1.9506360"/>
            <trkpt lat="53.2279980" lon="-1.9505440"/>
            <trkpt lat="53.2283960" lon="-1.9506510"/>
            <trkpt lat="53.2287500" lon="-1.9510040"/>
            <trkpt lat="53.2289040" lon="-1.9509230"/>
            <trkpt lat="53.2291790" lon="-1.9506790"/>
            <trkpt lat="53.2292510" lon="-1.9506390"/>
            <trkpt lat="53.2294070" lon="-1.9505770"/>
            <trkpt lat="53.2294620" lon="-1.9505740"/>
            <trkpt lat="53.2296640" lon="-1.9506470"/>
            <trkpt lat="53.2299350" lon="-1.9505770"/>
            <trkpt lat="53.2300560" lon="-1.9504560"/>
            <trkpt lat="53.2302760" lon="-1.9503380"/>
            <trkpt lat="53.2304920" lon="-1.9501830"/>
            <trkpt lat="53.2306770" lon="-1.9500140"/>
            <trkpt lat="53.2308020" lon="-1.9499680"/>
            <trkpt lat="53.2311840" lon="-1.9499200"/>
            <trkpt lat="53.2313450" lon="-1.9497940"/>
            <trkpt lat="53.2314400" lon="-1.9497620"/>
            <trkpt lat="53.2315940" lon="-1.9496330"/>
            <trkpt lat="53.2316790" lon="-1.9495880"/>
            <trkpt lat="53.2318220" lon="-1.9494640"/>
            <trkpt lat="53.2319580" lon="-1.9493110"/>
            <trkpt lat="53.2321490" lon="-1.9492250"/>
            <trkpt lat="53.2322300" lon="-1.9491500"/>
            <trkpt lat="53.2325120" lon="-1.9489840"/>
            <trkpt lat="53.2325510" lon="-1.9489830"/>
            <trkpt lat="53.2325515" lon="-1.9490592"/>
            <trkpt lat="53.2325530" lon="-1.9492740"/>
            <trkpt lat="53.2325760" lon="-1.9493880"/>
            <trkpt lat="53.2325990" lon="-1.9498190"/>
            <trkpt lat="53.2326760" lon="-1.9500630"/>
            <trkpt lat="53.2326780" lon="-1.9504480"/>
            <trkpt lat="53.2327860" lon="-1.9512430"/>
            <trkpt lat="53.2328600" lon="-1.9523430"/>
            <trkpt lat="53.2328130" lon="-1.9530320"/>
            <trkpt lat="53.2326800" lon="-1.9536740"/>
            <trkpt lat="53.2326050" lon="-1.9538210"/>
            <trkpt lat="53.2325860" lon="-1.9539850"/>
            <trkpt lat="53.2326130" lon="-1.9546780"/>
            <trkpt lat="53.2326950" lon="-1.9550090"/>
            <trkpt lat="53.2326860" lon="-1.9551750"/>
            <trkpt lat="53.2328410" lon="-1.9557350"/>
            <trkpt lat="53.2328820" lon="-1.9559400"/>
            <trkpt lat="53.2328410" lon="-1.9563960"/>
            <trkpt lat="53.2329610" lon="-1.9569800"/>
            <trkpt lat="53.2333200" lon="-1.9574160"/>
            <trkpt lat="53.2334420" lon="-1.9584150"/>
            <trkpt lat="53.2335410" lon="-1.9586430"/>
            <trkpt lat="53.2336180" lon="-1.9586510"/>
            <trkpt lat="53.2339170" lon="-1.9587550"/>
            <trkpt lat="53.2341710" lon="-1.9587450"/>
            <trkpt lat="53.2342240" lon="-1.9587800"/>
            <trkpt lat="53.2343480" lon="-1.9589300"/>
            <trkpt lat="53.2343910" lon="-1.9589510"/>
            <trkpt lat="53.2345840" lon="-1.9588760"/>
            <trkpt lat="53.2347500" lon="-1.9588550"/>
            <trkpt lat="53.2350540" lon="-1.9588900"/>
            <trkpt lat="53.2352650" lon="-1.9589560"/>
            <trkpt lat="53.2355140" lon="-1.9586980"/>
            <trkpt lat="53.2356370" lon="-1.9586280"/>
            <trkpt lat="53.2359900" lon="-1.9585230"/>
            <trkpt lat="53.2362600" lon="-1.9584740"/>
            <trkpt lat="53.2364600" lon="-1.9584540"/>
            <trkpt lat="53.2369100" lon="-1.9584610"/>
            <trkpt lat="53.2377880" lon="-1.9585070"/>
            <trkpt lat="53.2385050" lon="-1.9584230"/>
            <trkpt lat="53.2387160" lon="-1.9584260"/>
            <trkpt lat="53.2387440" lon="-1.9583890"/>
            <trkpt lat="53.2388230" lon="-1.9580660"/>
            <trkpt lat="53.2388660" lon="-1.9579750"/>
            <trkpt lat="53.2389090" lon="-1.9579410"/>
            <trkpt lat="53.2389900" lon="-1.9581670"/>
            <trkpt lat="53.2390485" lon="-1.9581866"/>
            <trkpt lat="53.2391780" lon="-1.9582300"/>
            <trkpt lat="53.2393630" lon="-1.9584030"/>
            <trkpt lat="53.2395450" lon="-1.9584810"/>
            <trkpt lat="53.2398440" lon="-1.9588600"/>
            <trkpt lat="53.2400340" lon="-1.9590670"/>
            <trkpt lat="53.2416630" lon="-1.9597530"/>
            <trkpt lat="53.2418210" lon="-1.9597560"/>
            <trkpt lat="53.2421380" lon="-1.9595700"/>
            <trkpt lat="53.2423130" lon="-1.9595600"/>
            <trkpt lat="53.2430880" lon="-1.9596170"/>
            <trkpt lat="53.2440380" lon="-1.9597090"/>
            <trkpt lat="53.2450480" lon="-1.9599070"/>
            <trkpt lat="53.2455010" lon="-1.9599540"/>
            <trkpt lat="53.2461380" lon="-1.9601440"/>
            <trkpt lat="53.2463140" lon="-1.9601690"/>
            <trkpt lat="53.2467060" lon="-1.9601600"/>
            <trkpt lat="53.2467860" lon="-1.9601890"/>
            <trkpt lat="53.2467740" lon="-1.9603400"/>
            <trkpt lat="53.2466860" lon="-1.9606360"/>
            <trkpt lat="53.2458700" lon="-1.9621110"/>
            <trkpt lat="53.2454910" lon="-1.9628820"/>
            <trkpt lat="53.2453470" lon="-1.9636210"/>
            <trkpt lat="53.2452530" lon="-1.9642350"/>
            <trkpt lat="53.2450990" lon="-1.9648260"/>
            <trkpt lat="53.2448350" lon="-1.9655410"/>
            <trkpt lat="53.2436430" lon="-1.9671770"/>
            <trkpt lat="53.2429540" lon="-1.9681620"/>
            <trkpt lat="53.2426720" lon="-1.9687710"/>
            <trkpt lat="53.2424970" lon="-1.9694920"/>
            <trkpt lat="53.2420880" lon="-1.9719340"/>
            <trkpt lat="53.2420050" lon="-1.9722730"/>
            <trkpt lat="53.2419490" lon="-1.9723740"/>
            <trkpt lat="53.2415360" lon="-1.9728370"/>
            <trkpt lat="53.2414760" lon="-1.9729630"/>
            <trkpt lat="53.2414240" lon="-1.9732790"/>
            <trkpt lat="53.2414260" lon="-1.9739550"/>
            <trkpt lat="53.2413000" lon="-1.9746460"/>
            <trkpt lat="53.2412260" lon="-1.9748350"/>
            <trkpt lat="53.2411160" lon="-1.9752110"/>
            <trkpt lat="53.2409430" lon="-1.9755540"/>
            <trkpt lat="53.2407570" lon="-1.9760910"/>
            <trkpt lat="53.2406730" lon="-1.9763800"/>
            <trkpt lat="53.2405260" lon="-1.9770030"/>
            <trkpt lat="53.2404700" lon="-1.9773140"/>
            <trkpt lat="53.2406730" lon="-1.9763800"/>
            <trkpt lat="53.2405260" lon="-1.9770030"/>
            <trkpt lat="53.2404830" lon="-1.9772450"/>
            <trkpt lat="53.2411262" lon="-1.9747570"/>
        </trkseg>
    </trk>
</gpx>
