<?xml version="1.0" encoding="UTF-8" standalone="yes"?>
<gpx version="1.1" creator="OS Maps - Web" xmlns="http://www.topografix.com/GPX/1/1"
xmlns:xsi="http://www.w3.org/2001/XMLSchema-instance"
xsi:schemaLocation="http://www.topografix.com/GPX/1/1 http://www.topografix.com/GPX/1/1/gpx.xsd"
xmlns:gs="http://www.topografix.com/GPX/gpx_style/0/2"
xmlns:gh="https://graphhopper.com/public/schema/gpx/1.1"
xmlns:os="https://ordnancesurvey.co.uk/public/schema/route/0.1">
    <metadata>
        <name>Chelmorton Low &amp; Sough Top (Ethels) - Circular (www.thelostpeak.co.uk)</name>
        <desc>For more Peak District walks visit www.thewanderingwildflower.co.uk</desc>
        <bounds minlat="53.2292790" minlon="-1.8315510" maxlat="53.2346900" maxlon="-1.8016490"/>
        <extensions>
            <os:version>2.0</os:version>
            <os:point lat="53.2294150" lon="-1.8290360" type="start"/>
            <os:point lat="53.2292790" lon="-1.8291570" type="end"/>
            <os:activity>ON_FOOT_WALKING</os:activity>
            <os:difficulty>MODERATE</os:difficulty>
            <os:paths/>
            <os:distance>4964.3070451</os:distance>
            <os:elevation_ascent>144.2400000</os:elevation_ascent>
        </extensions>
    </metadata>
    <wpt lat="53.2294150" lon="-1.8290360"/>
    <wpt lat="53.2296810" lon="-1.8288860"/>
    <wpt lat="53.2301190" lon="-1.8309630"/>
    <wpt lat="53.2304680" lon="-1.8315010"/>
    <wpt lat="53.2319990" lon="-1.8306180"/>
    <wpt lat="53.2322440" lon="-1.8297700"/>
    <wpt lat="53.2325710" lon="-1.8294470"/>
    <wpt lat="53.2325380" lon="-1.8296420"/>
    <wpt lat="53.2322050" lon="-1.8299240"/>
    <wpt lat="53.2320740" lon="-1.8306230"/>
    <wpt lat="53.2315640" lon="-1.8305240"/>
    <wpt lat="53.2311170" lon="-1.8307420"/>
    <wpt lat="53.2308040" lon="-1.8314270"/>
    <wpt lat="53.2303650" lon="-1.8314310"/>
    <wpt lat="53.2298520" lon="-1.8300960"/>
    <wpt lat="53.2297630" lon="-1.8275370"/>
    <wpt lat="53.2308210" lon="-1.8237750"/>
    <wpt lat="53.2312780" lon="-1.8215670"/>
    <wpt lat="53.2316470" lon="-1.8206350"/>
    <wpt lat="53.2316040" lon="-1.8195550"/>
    <wpt lat="53.2324840" lon="-1.8140260"/>
    <wpt lat="53.2346900" lon="-1.8016490"/>
    <wpt lat="53.2343750" lon="-1.8028730"/>
    <wpt lat="53.2338070" lon="-1.8067360"/>
    <wpt lat="53.2324350" lon="-1.8141820"/>
    <wpt lat="53.2315300" lon="-1.8201240"/>
    <wpt lat="53.2316340" lon="-1.8206280"/>
    <wpt lat="53.2312340" lon="-1.8217010"/>
    <wpt lat="53.2302110" lon="-1.8258030"/>
    <wpt lat="53.2298200" lon="-1.8286940"/>
    <wpt lat="53.2292790" lon="-1.8291570"/>
    <trk>
        <name>Chelmorton Low &amp; Sough Top (Ethels) - Circular (www.thelostpeak.co.uk)</name>
        <trkseg>
            <trkpt lat="53.2294150" lon="-1.8290360"><ele>372.7</ele></trkpt>
            <trkpt lat="53.2295970" lon="-1.8289560"><ele>376.8</ele></trkpt>
            <trkpt lat="53.2296810" lon="-1.8288860"><ele>378.7</ele></trkpt>
            <trkpt lat="53.2297840" lon="-1.8291750"><ele>381.3</ele></trkpt>
            <trkpt lat="53.2298710" lon="-1.8297850"><ele>384.1</ele></trkpt>
            <trkpt lat="53.2301190" lon="-1.8309630"><ele>384.4</ele></trkpt>
            <trkpt lat="53.2301740" lon="-1.8311010"><ele>384.1</ele></trkpt>
            <trkpt lat="53.2303790" lon="-1.8314410"><ele>382.7</ele></trkpt>
            <trkpt lat="53.2304680" lon="-1.8315010"><ele>382.5</ele></trkpt>
            <trkpt lat="53.2306790" lon="-1.8313970"><ele>387.4</ele></trkpt>
            <trkpt lat="53.2309630" lon="-1.8313550"><ele>392.4</ele></trkpt>
            <trkpt lat="53.2310510" lon="-1.8313050"><ele>394.8</ele></trkpt>
            <trkpt lat="53.2312020" lon="-1.8311260"><ele>402.1</ele></trkpt>
            <trkpt lat="53.2312680" lon="-1.8310160"><ele>406.6</ele></trkpt>
            <trkpt lat="53.2315770" lon="-1.8307820"><ele>418.3</ele></trkpt>
            <trkpt lat="53.2317470" lon="-1.8306620"><ele>424.6</ele></trkpt>
            <trkpt lat="53.2319990" lon="-1.8306180"><ele>431.6</ele></trkpt>
            <trkpt lat="53.2320630" lon="-1.8305060"><ele>434.6</ele></trkpt>
            <trkpt lat="53.2320760" lon="-1.8303320"><ele>435.2</ele></trkpt>
            <trkpt lat="53.2321850" lon="-1.8298910"><ele>437.8</ele></trkpt>
            <trkpt lat="53.2322440" lon="-1.8297700"><ele>438.8</ele></trkpt>
            <trkpt lat="53.2324780" lon="-1.8294810"><ele>441.1</ele></trkpt>
            <trkpt lat="53.2325710" lon="-1.8294470"><ele>441.8</ele></trkpt>
            <trkpt lat="53.2325380" lon="-1.8296420"><ele>442.3</ele></trkpt>
            <trkpt lat="53.2323550" lon="-1.8297360"><ele>440.3</ele></trkpt>
            <trkpt lat="53.2322650" lon="-1.8298040"><ele>438.9</ele></trkpt>
            <trkpt lat="53.2322050" lon="-1.8299240"><ele>438.3</ele></trkpt>
            <trkpt lat="53.2320930" lon="-1.8301640"><ele>436.2</ele></trkpt>
            <trkpt lat="53.2320640" lon="-1.8303060"><ele>435.2</ele></trkpt>
            <trkpt lat="53.2320740" lon="-1.8306230"><ele>433.4</ele></trkpt>
            <trkpt lat="53.2319320" lon="-1.8306040"><ele>429.8</ele></trkpt>
            <trkpt lat="53.2317490" lon="-1.8305210"><ele>426.5</ele></trkpt>
            <trkpt lat="53.2316580" lon="-1.8305060"><ele>425.1</ele></trkpt>
            <trkpt lat="53.2315640" lon="-1.8305240"><ele>422.3</ele></trkpt>
            <trkpt lat="53.2313940" lon="-1.8306460"><ele>416.1</ele></trkpt>
            <trkpt lat="53.2311170" lon="-1.8307420"><ele>408.1</ele></trkpt>
            <trkpt lat="53.2310660" lon="-1.8308670"><ele>404.3</ele></trkpt>
            <trkpt lat="53.2309690" lon="-1.8312600"><ele>394.2</ele></trkpt>
            <trkpt lat="53.2308800" lon="-1.8313320"><ele>390.6</ele></trkpt>
            <trkpt lat="53.2308040" lon="-1.8314270"><ele>388.2</ele></trkpt>
            <trkpt lat="53.2307130" lon="-1.8314740"><ele>386.3</ele></trkpt>
            <trkpt lat="53.2306330" lon="-1.8315510"><ele>384.0</ele></trkpt>
            <trkpt lat="53.2304540" lon="-1.8314870"><ele>383.2</ele></trkpt>
            <trkpt lat="53.2303650" lon="-1.8314310"><ele>382.3</ele></trkpt>
            <trkpt lat="53.2302880" lon="-1.8313380"><ele>382.3</ele></trkpt>
            <trkpt lat="53.2302230" lon="-1.8312160"><ele>383.3</ele></trkpt>
            <trkpt lat="53.2301570" lon="-1.8310890"><ele>383.5</ele></trkpt>
            <trkpt lat="53.2300530" lon="-1.8308340"><ele>383.7</ele></trkpt>
            <trkpt lat="53.2299810" lon="-1.8305460"><ele>384.3</ele></trkpt>
            <trkpt lat="53.2298840" lon="-1.8302490"><ele>383.6</ele></trkpt>
            <trkpt lat="53.2298520" lon="-1.8300960"><ele>382.8</ele></trkpt>
            <trkpt lat="53.2297790" lon="-1.8294760"><ele>381.5</ele></trkpt>
            <trkpt lat="53.2298010" lon="-1.8291630"><ele>381.3</ele></trkpt>
            <trkpt lat="53.2297660" lon="-1.8283390"><ele>383.8</ele></trkpt>
            <trkpt lat="53.2297740" lon="-1.8280280"><ele>385.9</ele></trkpt>
            <trkpt lat="53.2297580" lon="-1.8278640"><ele>387.1</ele></trkpt>
            <trkpt lat="53.2297630" lon="-1.8275370"><ele>389.4</ele></trkpt>
            <trkpt lat="53.2298560" lon="-1.8272640"><ele>392.4</ele></trkpt>
            <trkpt lat="53.2298800" lon="-1.8271040"><ele>394.0</ele></trkpt>
            <trkpt lat="53.2300270" lon="-1.8266430"><ele>399.9</ele></trkpt>
            <trkpt lat="53.2300950" lon="-1.8263600"><ele>403.5</ele></trkpt>
            <trkpt lat="53.2301540" lon="-1.8262390"><ele>405.4</ele></trkpt>
            <trkpt lat="53.2301790" lon="-1.8260770"><ele>407.3</ele></trkpt>
            <trkpt lat="53.2302190" lon="-1.8259290"><ele>408.5</ele></trkpt>
            <trkpt lat="53.2302370" lon="-1.8257750"><ele>409.3</ele></trkpt>
            <trkpt lat="53.2302950" lon="-1.8256520"><ele>410.3</ele></trkpt>
            <trkpt lat="53.2303740" lon="-1.8253630"><ele>412.2</ele></trkpt>
            <trkpt lat="53.2304700" lon="-1.8250820"><ele>414.8</ele></trkpt>
            <trkpt lat="53.2305010" lon="-1.8249290"><ele>415.9</ele></trkpt>
            <trkpt lat="53.2305950" lon="-1.8246550"><ele>417.5</ele></trkpt>
            <trkpt lat="53.2306130" lon="-1.8244890"><ele>418.4</ele></trkpt>
            <trkpt lat="53.2306730" lon="-1.8241950"><ele>419.6</ele></trkpt>
            <trkpt lat="53.2307600" lon="-1.8239110"><ele>420.0</ele></trkpt>
            <trkpt lat="53.2308210" lon="-1.8237750"><ele>420.0</ele></trkpt>
            <trkpt lat="53.2308740" lon="-1.8234630"><ele>419.9</ele></trkpt>
            <trkpt lat="53.2309100" lon="-1.8231500"><ele>419.8</ele></trkpt>
            <trkpt lat="53.2309590" lon="-1.8230050"><ele>419.7</ele></trkpt>
            <trkpt lat="53.2309790" lon="-1.8228580"><ele>419.1</ele></trkpt>
            <trkpt lat="53.2309800" lon="-1.8226930"><ele>418.5</ele></trkpt>
            <trkpt lat="53.2310410" lon="-1.8225820"><ele>418.9</ele></trkpt>
            <trkpt lat="53.2311270" lon="-1.8223090"><ele>419.1</ele></trkpt>
            <trkpt lat="53.2311320" lon="-1.8221500"><ele>419.1</ele></trkpt>
            <trkpt lat="53.2311980" lon="-1.8220360"><ele>419.4</ele></trkpt>
            <trkpt lat="53.2312310" lon="-1.8218910"><ele>419.5</ele></trkpt>
            <trkpt lat="53.2312440" lon="-1.8217210"><ele>419.3</ele></trkpt>
            <trkpt lat="53.2312780" lon="-1.8215670"><ele>419.2</ele></trkpt>
            <trkpt lat="53.2313390" lon="-1.8214490"><ele>419.0</ele></trkpt>
            <trkpt lat="53.2313870" lon="-1.8213050"><ele>419.1</ele></trkpt>
            <trkpt lat="53.2314200" lon="-1.8211550"><ele>419.1</ele></trkpt>
            <trkpt lat="53.2315700" lon="-1.8209290"><ele>419.1</ele></trkpt>
            <trkpt lat="53.2316470" lon="-1.8206350"><ele>419.4</ele></trkpt>
            <trkpt lat="53.2316690" lon="-1.8204890"><ele>419.7</ele></trkpt>
            <trkpt lat="53.2315490" lon="-1.8203370"><ele>419.7</ele></trkpt>
            <trkpt lat="53.2315610" lon="-1.8200600"><ele>419.4</ele></trkpt>
            <trkpt lat="53.2316110" lon="-1.8197100"><ele>419.1</ele></trkpt>
            <trkpt lat="53.2316040" lon="-1.8195550"><ele>419.1</ele></trkpt>
            <trkpt lat="53.2317140" lon="-1.8189960"><ele>420.2</ele></trkpt>
            <trkpt lat="53.2317620" lon="-1.8186950"><ele>421.1</ele></trkpt>
            <trkpt lat="53.2317740" lon="-1.8185450"><ele>421.4</ele></trkpt>
            <trkpt lat="53.2318300" lon="-1.8182020"><ele>422.5</ele></trkpt>
            <trkpt lat="53.2318640" lon="-1.8180610"><ele>422.8</ele></trkpt>
            <trkpt lat="53.2319060" lon="-1.8176750"><ele>423.7</ele></trkpt>
            <trkpt lat="53.2321150" lon="-1.8165160"><ele>424.8</ele></trkpt>
            <trkpt lat="53.2321550" lon="-1.8163580"><ele>424.9</ele></trkpt>
            <trkpt lat="53.2321630" lon="-1.8162030"><ele>424.8</ele></trkpt>
            <trkpt lat="53.2322740" lon="-1.8154310"><ele>425.1</ele></trkpt>
            <trkpt lat="53.2324190" lon="-1.8146000"><ele>424.6</ele></trkpt>
            <trkpt lat="53.2324840" lon="-1.8140260"><ele>424.5</ele></trkpt>
            <trkpt lat="53.2325740" lon="-1.8135620"><ele>425.0</ele></trkpt>
            <trkpt lat="53.2325860" lon="-1.8133950"><ele>425.2</ele></trkpt>
            <trkpt lat="53.2326380" lon="-1.8130810"><ele>425.3</ele></trkpt>
            <trkpt lat="53.2326880" lon="-1.8129330"><ele>425.1</ele></trkpt>
            <trkpt lat="53.2327850" lon="-1.8124730"><ele>425.2</ele></trkpt>
            <trkpt lat="53.2328990" lon="-1.8120110"><ele>426.6</ele></trkpt>
            <trkpt lat="53.2330350" lon="-1.8112550"><ele>426.7</ele></trkpt>
            <trkpt lat="53.2330470" lon="-1.8111050"><ele>426.2</ele></trkpt>
            <trkpt lat="53.2331100" lon="-1.8108480"><ele>426.0</ele></trkpt>
            <trkpt lat="53.2332230" lon="-1.8100580"><ele>427.1</ele></trkpt>
            <trkpt lat="53.2333350" lon="-1.8094540"><ele>428.4</ele></trkpt>
            <trkpt lat="53.2333630" lon="-1.8091320"><ele>428.9</ele></trkpt>
            <trkpt lat="53.2335350" lon="-1.8082800"><ele>428.9</ele></trkpt>
            <trkpt lat="53.2335510" lon="-1.8081250"><ele>428.9</ele></trkpt>
            <trkpt lat="53.2335900" lon="-1.8079820"><ele>429.2</ele></trkpt>
            <trkpt lat="53.2337520" lon="-1.8069340"><ele>429.2</ele></trkpt>
            <trkpt lat="53.2337870" lon="-1.8067790"><ele>428.7</ele></trkpt>
            <trkpt lat="53.2338590" lon="-1.8063150"><ele>427.8</ele></trkpt>
            <trkpt lat="53.2339530" lon="-1.8058520"><ele>428.9</ele></trkpt>
            <trkpt lat="53.2339610" lon="-1.8056950"><ele>429.1</ele></trkpt>
            <trkpt lat="53.2340430" lon="-1.8052440"><ele>429.7</ele></trkpt>
            <trkpt lat="53.2340780" lon="-1.8049270"><ele>431.0</ele></trkpt>
            <trkpt lat="53.2342160" lon="-1.8041280"><ele>435.2</ele></trkpt>
            <trkpt lat="53.2343110" lon="-1.8036930"><ele>436.6</ele></trkpt>
            <trkpt lat="53.2343220" lon="-1.8033630"><ele>436.8</ele></trkpt>
            <trkpt lat="53.2343510" lon="-1.8032150"><ele>437.0</ele></trkpt>
            <trkpt lat="53.2343810" lon="-1.8029070"><ele>437.1</ele></trkpt>
            <trkpt lat="53.2344130" lon="-1.8027510"><ele>437.0</ele></trkpt>
            <trkpt lat="53.2345750" lon="-1.8022550"><ele>437.3</ele></trkpt>
            <trkpt lat="53.2346210" lon="-1.8019580"><ele>437.7</ele></trkpt>
            <trkpt lat="53.2346900" lon="-1.8016490"><ele>438.4</ele></trkpt>
            <trkpt lat="53.2346140" lon="-1.8020230"><ele>437.7</ele></trkpt>
            <trkpt lat="53.2345370" lon="-1.8024870"><ele>437.0</ele></trkpt>
            <trkpt lat="53.2344660" lon="-1.8025830"><ele>437.0</ele></trkpt>
            <trkpt lat="53.2344030" lon="-1.8027200"><ele>437.0</ele></trkpt>
            <trkpt lat="53.2343750" lon="-1.8028730"><ele>437.0</ele></trkpt>
            <trkpt lat="53.2343510" lon="-1.8031880"><ele>437.0</ele></trkpt>
            <trkpt lat="53.2342940" lon="-1.8034890"><ele>436.6</ele></trkpt>
            <trkpt lat="53.2342500" lon="-1.8039460"><ele>435.9</ele></trkpt>
            <trkpt lat="53.2341360" lon="-1.8045640"><ele>433.1</ele></trkpt>
            <trkpt lat="53.2341280" lon="-1.8047170"><ele>432.2</ele></trkpt>
            <trkpt lat="53.2340660" lon="-1.8050530"><ele>430.4</ele></trkpt>
            <trkpt lat="53.2340030" lon="-1.8055220"><ele>429.3</ele></trkpt>
            <trkpt lat="53.2339420" lon="-1.8058170"><ele>428.9</ele></trkpt>
            <trkpt lat="53.2338070" lon="-1.8067360"><ele>428.5</ele></trkpt>
            <trkpt lat="53.2336870" lon="-1.8073540"><ele>429.8</ele></trkpt>
            <trkpt lat="53.2336480" lon="-1.8074910"><ele>429.7</ele></trkpt>
            <trkpt lat="53.2336320" lon="-1.8076430"><ele>429.8</ele></trkpt>
            <trkpt lat="53.2335340" lon="-1.8081140"><ele>428.9</ele></trkpt>
            <trkpt lat="53.2335110" lon="-1.8082830"><ele>428.8</ele></trkpt>
            <trkpt lat="53.2333820" lon="-1.8088960"><ele>429.0</ele></trkpt>
            <trkpt lat="53.2333330" lon="-1.8092090"><ele>428.9</ele></trkpt>
            <trkpt lat="53.2332970" lon="-1.8096130"><ele>427.9</ele></trkpt>
            <trkpt lat="53.2332160" lon="-1.8100650"><ele>427.0</ele></trkpt>
            <trkpt lat="53.2331440" lon="-1.8103700"><ele>426.4</ele></trkpt>
            <trkpt lat="53.2330910" lon="-1.8108360"><ele>426.0</ele></trkpt>
            <trkpt lat="53.2330210" lon="-1.8109360"><ele>426.0</ele></trkpt>
            <trkpt lat="53.2330230" lon="-1.8112960"><ele>426.7</ele></trkpt>
            <trkpt lat="53.2329970" lon="-1.8114440"><ele>426.7</ele></trkpt>
            <trkpt lat="53.2329280" lon="-1.8117370"><ele>426.6</ele></trkpt>
            <trkpt lat="53.2328760" lon="-1.8120500"><ele>426.5</ele></trkpt>
            <trkpt lat="53.2327910" lon="-1.8123500"><ele>425.4</ele></trkpt>
            <trkpt lat="53.2327010" lon="-1.8128000"><ele>425.1</ele></trkpt>
            <trkpt lat="53.2326580" lon="-1.8129460"><ele>425.2</ele></trkpt>
            <trkpt lat="53.2325750" lon="-1.8134160"><ele>425.2</ele></trkpt>
            <trkpt lat="53.2325630" lon="-1.8135750"><ele>425.0</ele></trkpt>
            <trkpt lat="53.2325210" lon="-1.8137140"><ele>424.9</ele></trkpt>
            <trkpt lat="53.2325030" lon="-1.8138670"><ele>424.8</ele></trkpt>
            <trkpt lat="53.2324350" lon="-1.8141820"><ele>424.0</ele></trkpt>
            <trkpt lat="53.2324260" lon="-1.8143530"><ele>424.1</ele></trkpt>
            <trkpt lat="53.2323530" lon="-1.8149250"><ele>425.0</ele></trkpt>
            <trkpt lat="53.2322510" lon="-1.8155690"><ele>425.0</ele></trkpt>
            <trkpt lat="53.2322100" lon="-1.8157230"><ele>424.9</ele></trkpt>
            <trkpt lat="53.2321280" lon="-1.8163420"><ele>424.8</ele></trkpt>
            <trkpt lat="53.2320800" lon="-1.8165770"><ele>424.7</ele></trkpt>
            <trkpt lat="53.2319660" lon="-1.8173590"><ele>424.4</ele></trkpt>
            <trkpt lat="53.2319210" lon="-1.8174900"><ele>424.1</ele></trkpt>
            <trkpt lat="53.2318170" lon="-1.8182170"><ele>422.5</ele></trkpt>
            <trkpt lat="53.2317680" lon="-1.8184160"><ele>421.8</ele></trkpt>
            <trkpt lat="53.2316360" lon="-1.8194600"><ele>419.1</ele></trkpt>
            <trkpt lat="53.2316290" lon="-1.8196240"><ele>419.1</ele></trkpt>
            <trkpt lat="53.2315520" lon="-1.8199620"><ele>419.3</ele></trkpt>
            <trkpt lat="53.2315300" lon="-1.8201240"><ele>419.5</ele></trkpt>
            <trkpt lat="53.2315890" lon="-1.8203760"><ele>419.8</ele></trkpt>
            <trkpt lat="53.2316630" lon="-1.8204610"><ele>419.8</ele></trkpt>
            <trkpt lat="53.2316340" lon="-1.8206280"><ele>419.4</ele></trkpt>
            <trkpt lat="53.2315750" lon="-1.8207710"><ele>419.1</ele></trkpt>
            <trkpt lat="53.2315460" lon="-1.8209240"><ele>419.0</ele></trkpt>
            <trkpt lat="53.2314780" lon="-1.8210300"><ele>419.1</ele></trkpt>
            <trkpt lat="53.2314210" lon="-1.8211560"><ele>419.1</ele></trkpt>
            <trkpt lat="53.2313680" lon="-1.8212900"><ele>419.0</ele></trkpt>
            <trkpt lat="53.2313440" lon="-1.8214380"><ele>419.0</ele></trkpt>
            <trkpt lat="53.2312340" lon="-1.8217010"><ele>419.2</ele></trkpt>
            <trkpt lat="53.2311780" lon="-1.8220040"><ele>419.3</ele></trkpt>
            <trkpt lat="53.2311230" lon="-1.8221400"><ele>419.1</ele></trkpt>
            <trkpt lat="53.2310890" lon="-1.8222870"><ele>419.0</ele></trkpt>
            <trkpt lat="53.2310720" lon="-1.8224530"><ele>418.9</ele></trkpt>
            <trkpt lat="53.2310300" lon="-1.8225880"><ele>418.7</ele></trkpt>
            <trkpt lat="53.2309710" lon="-1.8227110"><ele>418.5</ele></trkpt>
            <trkpt lat="53.2309610" lon="-1.8228750"><ele>419.3</ele></trkpt>
            <trkpt lat="53.2309380" lon="-1.8230230"><ele>419.6</ele></trkpt>
            <trkpt lat="53.2309090" lon="-1.8231690"><ele>419.8</ele></trkpt>
            <trkpt lat="53.2308610" lon="-1.8233010"><ele>419.9</ele></trkpt>
            <trkpt lat="53.2308350" lon="-1.8234540"><ele>419.9</ele></trkpt>
            <trkpt lat="53.2308100" lon="-1.8237790"><ele>420.0</ele></trkpt>
            <trkpt lat="53.2307060" lon="-1.8240510"><ele>420.0</ele></trkpt>
            <trkpt lat="53.2306890" lon="-1.8242090"><ele>419.7</ele></trkpt>
            <trkpt lat="53.2306420" lon="-1.8243650"><ele>419.0</ele></trkpt>
            <trkpt lat="53.2305770" lon="-1.8246770"><ele>417.3</ele></trkpt>
            <trkpt lat="53.2304300" lon="-1.8250800"><ele>414.5</ele></trkpt>
            <trkpt lat="53.2304150" lon="-1.8252300"><ele>413.5</ele></trkpt>
            <trkpt lat="53.2302720" lon="-1.8256690"><ele>409.9</ele></trkpt>
            <trkpt lat="53.2302110" lon="-1.8258030"><ele>408.9</ele></trkpt>
            <trkpt lat="53.2301520" lon="-1.8262750"><ele>405.0</ele></trkpt>
            <trkpt lat="53.2300840" lon="-1.8265110"><ele>401.8</ele></trkpt>
            <trkpt lat="53.2299070" lon="-1.8274400"><ele>392.2</ele></trkpt>
            <trkpt lat="53.2298860" lon="-1.8279240"><ele>389.5</ele></trkpt>
            <trkpt lat="53.2298390" lon="-1.8283860"><ele>385.5</ele></trkpt>
            <trkpt lat="53.2298440" lon="-1.8285370"><ele>384.3</ele></trkpt>
            <trkpt lat="53.2298200" lon="-1.8286940"><ele>382.9</ele></trkpt>
            <trkpt lat="53.2297430" lon="-1.8288140"><ele>380.2</ele></trkpt>
            <trkpt lat="53.2294960" lon="-1.8290520"><ele>374.5</ele></trkpt>
            <trkpt lat="53.2294100" lon="-1.8291240"><ele>372.6</ele></trkpt>
            <trkpt lat="53.2292790" lon="-1.8291570"><ele>370.7</ele></trkpt>
        </trkseg>
    </trk>
<!-- ele-hash:01ef89c0bf10a0a1 -->
</gpx>
