<?xml version="1.0" encoding="UTF-8" standalone="yes"?>
<gpx version="1.1" creator="OS Maps - Web" xmlns="http://www.topografix.com/GPX/1/1"
xmlns:xsi="http://www.w3.org/2001/XMLSchema-instance"
xsi:schemaLocation="http://www.topografix.com/GPX/1/1 http://www.topografix.com/GPX/1/1/gpx.xsd"
xmlns:gs="http://www.topografix.com/GPX/gpx_style/0/2"
xmlns:gh="https://graphhopper.com/public/schema/gpx/1.1"
xmlns:os="https://ordnancesurvey.co.uk/public/schema/route/0.1">
    <metadata>
        <name>Chinley Churn (Ethel) - Circular (www.thelostpeak.co.uk)</name>
        <desc></desc>
        <bounds minlat="53.3444000" minlon="-1.9700700" maxlat="53.3595500" maxlon="-1.9437300"/>
        <extensions>
            <os:version>2.0</os:version>
            <os:point lat="53.3594800" lon="-1.9700700" type="start"/>
            <os:point lat="53.3594800" lon="-1.9700700" type="end"/>
            <os:activity>ON_FOOT_WALKING</os:activity>
            <os:difficulty>MODERATE</os:difficulty>
            <os:paths/>
            <os:distance>5929.7178679</os:distance>
            <os:elevation_ascent>248.8200000</os:elevation_ascent>
        </extensions>
    </metadata>
    <wpt lat="53.3594800" lon="-1.9700700"/>
    <wpt lat="53.3595500" lon="-1.9675300"/>
    <wpt lat="53.3587900" lon="-1.9583900"/>
    <wpt lat="53.3567500" lon="-1.9530900"/>
    <wpt lat="53.3553900" lon="-1.9512300"/>
    <wpt lat="53.3553000" lon="-1.9506900"/>
    <wpt lat="53.3555600" lon="-1.9479800"/>
    <wpt lat="53.3554400" lon="-1.9472900"/>
    <wpt lat="53.3555600" lon="-1.9460200"/>
    <wpt lat="53.3540500" lon="-1.9466600"/>
    <wpt lat="53.3533600" lon="-1.9466000"/>
    <wpt lat="53.3531000" lon="-1.9462500"/>
    <wpt lat="53.3524200" lon="-1.9463600"/>
    <wpt lat="53.3512100" lon="-1.9454000"/>
    <wpt lat="53.3504000" lon="-1.9439600"/>
    <wpt lat="53.3495000" lon="-1.9437300"/>
    <wpt lat="53.3493000" lon="-1.9438000"/>
    <wpt lat="53.3495400" lon="-1.9440900"/>
    <wpt lat="53.3491500" lon="-1.9445200"/>
    <wpt lat="53.3490300" lon="-1.9455600"/>
    <wpt lat="53.3488500" lon="-1.9453900"/>
    <wpt lat="53.3483400" lon="-1.9457800"/>
    <wpt lat="53.3475200" lon="-1.9468700"/>
    <wpt lat="53.3471800" lon="-1.9470500"/>
    <wpt lat="53.3470200" lon="-1.9476400"/>
    <wpt lat="53.3468900" lon="-1.9473000"/>
    <wpt lat="53.3471300" lon="-1.9460600"/>
    <wpt lat="53.3470300" lon="-1.9459000"/>
    <wpt lat="53.3467500" lon="-1.9461800"/>
    <wpt lat="53.3462300" lon="-1.9478900"/>
    <wpt lat="53.3444600" lon="-1.9506300"/>
    <wpt lat="53.3444100" lon="-1.9535600"/>
    <wpt lat="53.3450900" lon="-1.9561800"/>
    <wpt lat="53.3463400" lon="-1.9570600"/>
    <wpt lat="53.3468200" lon="-1.9587900"/>
    <wpt lat="53.3474200" lon="-1.9597500"/>
    <wpt lat="53.3476600" lon="-1.9613800"/>
    <wpt lat="53.3505900" lon="-1.9636400"/>
    <wpt lat="53.3509200" lon="-1.9639800"/>
    <wpt lat="53.3513000" lon="-1.9648700"/>
    <wpt lat="53.3531500" lon="-1.9664300"/>
    <wpt lat="53.3535100" lon="-1.9664800"/>
    <wpt lat="53.3547000" lon="-1.9678200"/>
    <wpt lat="53.3571500" lon="-1.9693000"/>
    <wpt lat="53.3578600" lon="-1.9691600"/>
    <wpt lat="53.3593700" lon="-1.9697900"/>
    <wpt lat="53.3594800" lon="-1.9700700"/>
    <trk>
        <name>Chinley Churn (Ethel) - Circular (www.thelostpeak.co.uk)</name>
        <trkseg>
            <trkpt lat="53.3594800" lon="-1.9700700"/>
            <trkpt lat="53.3594300" lon="-1.9698900"/>
            <trkpt lat="53.3594300" lon="-1.9698000"/>
            <trkpt lat="53.3594700" lon="-1.9696500"/>
            <trkpt lat="53.3594800" lon="-1.9695000"/>
            <trkpt lat="53.3594600" lon="-1.9693400"/>
            <trkpt lat="53.3594400" lon="-1.9692700"/>
            <trkpt lat="53.3594400" lon="-1.9691100"/>
            <trkpt lat="53.3594600" lon="-1.9689500"/>
            <trkpt lat="53.3594600" lon="-1.9684000"/>
            <trkpt lat="53.3595500" lon="-1.9677700"/>
            <trkpt lat="53.3595500" lon="-1.9675300"/>
            <trkpt lat="53.3595200" lon="-1.9670800"/>
            <trkpt lat="53.3594400" lon="-1.9664000"/>
            <trkpt lat="53.3594400" lon="-1.9663000"/>
            <trkpt lat="53.3594000" lon="-1.9659100"/>
            <trkpt lat="53.3592000" lon="-1.9627400"/>
            <trkpt lat="53.3591300" lon="-1.9620300"/>
            <trkpt lat="53.3591300" lon="-1.9617500"/>
            <trkpt lat="53.3590800" lon="-1.9612600"/>
            <trkpt lat="53.3590100" lon="-1.9602200"/>
            <trkpt lat="53.3589900" lon="-1.9597100"/>
            <trkpt lat="53.3588900" lon="-1.9590200"/>
            <trkpt lat="53.3588400" lon="-1.9587900"/>
            <trkpt lat="53.3587900" lon="-1.9583900"/>
            <trkpt lat="53.3587500" lon="-1.9582500"/>
            <trkpt lat="53.3587200" lon="-1.9581900"/>
            <trkpt lat="53.3586200" lon="-1.9580900"/>
            <trkpt lat="53.3585600" lon="-1.9577600"/>
            <trkpt lat="53.3581800" lon="-1.9566600"/>
            <trkpt lat="53.3581200" lon="-1.9565400"/>
            <trkpt lat="53.3580400" lon="-1.9564600"/>
            <trkpt lat="53.3580200" lon="-1.9564200"/>
            <trkpt lat="53.3579900" lon="-1.9562900"/>
            <trkpt lat="53.3578700" lon="-1.9560300"/>
            <trkpt lat="53.3578400" lon="-1.9558900"/>
            <trkpt lat="53.3576900" lon="-1.9555200"/>
            <trkpt lat="53.3576300" lon="-1.9553100"/>
            <trkpt lat="53.3575900" lon="-1.9552600"/>
            <trkpt lat="53.3575300" lon="-1.9551400"/>
            <trkpt lat="53.3574100" lon="-1.9547700"/>
            <trkpt lat="53.3572800" lon="-1.9544900"/>
            <trkpt lat="53.3572100" lon="-1.9542600"/>
            <trkpt lat="53.3570900" lon="-1.9540000"/>
            <trkpt lat="53.3570300" lon="-1.9537800"/>
            <trkpt lat="53.3569800" lon="-1.9537000"/>
            <trkpt lat="53.3568400" lon="-1.9533600"/>
            <trkpt lat="53.3567500" lon="-1.9530900"/>
            <trkpt lat="53.3566900" lon="-1.9529800"/>
            <trkpt lat="53.3565000" lon="-1.9528100"/>
            <trkpt lat="53.3563500" lon="-1.9526200"/>
            <trkpt lat="53.3562100" lon="-1.9524800"/>
            <trkpt lat="53.3560600" lon="-1.9523000"/>
            <trkpt lat="53.3559300" lon="-1.9520700"/>
            <trkpt lat="53.3556000" lon="-1.9516700"/>
            <trkpt lat="53.3554800" lon="-1.9514100"/>
            <trkpt lat="53.3554600" lon="-1.9513400"/>
            <trkpt lat="53.3553900" lon="-1.9512300"/>
            <trkpt lat="53.3553700" lon="-1.9510800"/>
            <trkpt lat="53.3553100" lon="-1.9508500"/>
            <trkpt lat="53.3553000" lon="-1.9506900"/>
            <trkpt lat="53.3553200" lon="-1.9505100"/>
            <trkpt lat="53.3553400" lon="-1.9500600"/>
            <trkpt lat="53.3554200" lon="-1.9495300"/>
            <trkpt lat="53.3554200" lon="-1.9493700"/>
            <trkpt lat="53.3554700" lon="-1.9489800"/>
            <trkpt lat="53.3554800" lon="-1.9486800"/>
            <trkpt lat="53.3555100" lon="-1.9482900"/>
            <trkpt lat="53.3555600" lon="-1.9479800"/>
            <trkpt lat="53.3555600" lon="-1.9478300"/>
            <trkpt lat="53.3555100" lon="-1.9474800"/>
            <trkpt lat="53.3554800" lon="-1.9474100"/>
            <trkpt lat="53.3554400" lon="-1.9473700"/>
            <trkpt lat="53.3554400" lon="-1.9472900"/>
            <trkpt lat="53.3554900" lon="-1.9471600"/>
            <trkpt lat="53.3555300" lon="-1.9465000"/>
            <trkpt lat="53.3555500" lon="-1.9463900"/>
            <trkpt lat="53.3555700" lon="-1.9460600"/>
            <trkpt lat="53.3555600" lon="-1.9460200"/>
            <trkpt lat="53.3554000" lon="-1.9460600"/>
            <trkpt lat="53.3552200" lon="-1.9461500"/>
            <trkpt lat="53.3548900" lon="-1.9464300"/>
            <trkpt lat="53.3546100" lon="-1.9465200"/>
            <trkpt lat="53.3543500" lon="-1.9465500"/>
            <trkpt lat="53.3540500" lon="-1.9466600"/>
            <trkpt lat="53.3535900" lon="-1.9465700"/>
            <trkpt lat="53.3533600" lon="-1.9466000"/>
            <trkpt lat="53.3533200" lon="-1.9465800"/>
            <trkpt lat="53.3532900" lon="-1.9465400"/>
            <trkpt lat="53.3532100" lon="-1.9463400"/>
            <trkpt lat="53.3531000" lon="-1.9462500"/>
            <trkpt lat="53.3527200" lon="-1.9462800"/>
            <trkpt lat="53.3524200" lon="-1.9463600"/>
            <trkpt lat="53.3520000" lon="-1.9460900"/>
            <trkpt lat="53.3518300" lon="-1.9460200"/>
            <trkpt lat="53.3516600" lon="-1.9458800"/>
            <trkpt lat="53.3514100" lon="-1.9456200"/>
            <trkpt lat="53.3513300" lon="-1.9455100"/>
            <trkpt lat="53.3512100" lon="-1.9454000"/>
            <trkpt lat="53.3510400" lon="-1.9451100"/>
            <trkpt lat="53.3509500" lon="-1.9449200"/>
            <trkpt lat="53.3509100" lon="-1.9448800"/>
            <trkpt lat="53.3508900" lon="-1.9448100"/>
            <trkpt lat="53.3508300" lon="-1.9447100"/>
            <trkpt lat="53.3506300" lon="-1.9442700"/>
            <trkpt lat="53.3504900" lon="-1.9440600"/>
            <trkpt lat="53.3504000" lon="-1.9439600"/>
            <trkpt lat="53.3502000" lon="-1.9438800"/>
            <trkpt lat="53.3500300" lon="-1.9438700"/>
            <trkpt lat="53.3497900" lon="-1.9437700"/>
            <trkpt lat="53.3495000" lon="-1.9437300"/>
            <trkpt lat="53.3493600" lon="-1.9437600"/>
            <trkpt lat="53.3493100" lon="-1.9437800"/>
            <trkpt lat="53.3493000" lon="-1.9438000"/>
            <trkpt lat="53.3493500" lon="-1.9439300"/>
            <trkpt lat="53.3495100" lon="-1.9440300"/>
            <trkpt lat="53.3495400" lon="-1.9440900"/>
            <trkpt lat="53.3495100" lon="-1.9441500"/>
            <trkpt lat="53.3494300" lon="-1.9442400"/>
            <trkpt lat="53.3491500" lon="-1.9445200"/>
            <trkpt lat="53.3490700" lon="-1.9448200"/>
            <trkpt lat="53.3490500" lon="-1.9449800"/>
            <trkpt lat="53.3490400" lon="-1.9452700"/>
            <trkpt lat="53.3490600" lon="-1.9455000"/>
            <trkpt lat="53.3490300" lon="-1.9455600"/>
            <trkpt lat="53.3489900" lon="-1.9455800"/>
            <trkpt lat="53.3489400" lon="-1.9455700"/>
            <trkpt lat="53.3488700" lon="-1.9454600"/>
            <trkpt lat="53.3488500" lon="-1.9453900"/>
            <trkpt lat="53.3487900" lon="-1.9454100"/>
            <trkpt lat="53.3486400" lon="-1.9456200"/>
            <trkpt lat="53.3485600" lon="-1.9457600"/>
            <trkpt lat="53.3484000" lon="-1.9457500"/>
            <trkpt lat="53.3483400" lon="-1.9457800"/>
            <trkpt lat="53.3482300" lon="-1.9459300"/>
            <trkpt lat="53.3480800" lon="-1.9460600"/>
            <trkpt lat="53.3480100" lon="-1.9461900"/>
            <trkpt lat="53.3478900" lon="-1.9463300"/>
            <trkpt lat="53.3478400" lon="-1.9464300"/>
            <trkpt lat="53.3477700" lon="-1.9465100"/>
            <trkpt lat="53.3477100" lon="-1.9466200"/>
            <trkpt lat="53.3475200" lon="-1.9468700"/>
            <trkpt lat="53.3473500" lon="-1.9469400"/>
            <trkpt lat="53.3472800" lon="-1.9469500"/>
            <trkpt lat="53.3471800" lon="-1.9470500"/>
            <trkpt lat="53.3471500" lon="-1.9471700"/>
            <trkpt lat="53.3471200" lon="-1.9472300"/>
            <trkpt lat="53.3470800" lon="-1.9472600"/>
            <trkpt lat="53.3470600" lon="-1.9473200"/>
            <trkpt lat="53.3470700" lon="-1.9476100"/>
            <trkpt lat="53.3470200" lon="-1.9476400"/>
            <trkpt lat="53.3469800" lon="-1.9476400"/>
            <trkpt lat="53.3469400" lon="-1.9476000"/>
            <trkpt lat="53.3469000" lon="-1.9474600"/>
            <trkpt lat="53.3468900" lon="-1.9473000"/>
            <trkpt lat="53.3469400" lon="-1.9469600"/>
            <trkpt lat="53.3470300" lon="-1.9466800"/>
            <trkpt lat="53.3471200" lon="-1.9462200"/>
            <trkpt lat="53.3471300" lon="-1.9460600"/>
            <trkpt lat="53.3470300" lon="-1.9459000"/>
            <trkpt lat="53.3468400" lon="-1.9461200"/>
            <trkpt lat="53.3467500" lon="-1.9461800"/>
            <trkpt lat="53.3466400" lon="-1.9465200"/>
            <trkpt lat="53.3464900" lon="-1.9467900"/>
            <trkpt lat="53.3464200" lon="-1.9469500"/>
            <trkpt lat="53.3463600" lon="-1.9471400"/>
            <trkpt lat="53.3463300" lon="-1.9472900"/>
            <trkpt lat="53.3463200" lon="-1.9476100"/>
            <trkpt lat="53.3462600" lon="-1.9478300"/>
            <trkpt lat="53.3462300" lon="-1.9478900"/>
            <trkpt lat="53.3456700" lon="-1.9486300"/>
            <trkpt lat="53.3455200" lon="-1.9488800"/>
            <trkpt lat="53.3454300" lon="-1.9489600"/>
            <trkpt lat="53.3450500" lon="-1.9495200"/>
            <trkpt lat="53.3449000" lon="-1.9498200"/>
            <trkpt lat="53.3447200" lon="-1.9501400"/>
            <trkpt lat="53.3445700" lon="-1.9504800"/>
            <trkpt lat="53.3444600" lon="-1.9506300"/>
            <trkpt lat="53.3444000" lon="-1.9509100"/>
            <trkpt lat="53.3444000" lon="-1.9511600"/>
            <trkpt lat="53.3444300" lon="-1.9513900"/>
            <trkpt lat="53.3444500" lon="-1.9519300"/>
            <trkpt lat="53.3444500" lon="-1.9528100"/>
            <trkpt lat="53.3444600" lon="-1.9528900"/>
            <trkpt lat="53.3444600" lon="-1.9531400"/>
            <trkpt lat="53.3444100" lon="-1.9534700"/>
            <trkpt lat="53.3444100" lon="-1.9535600"/>
            <trkpt lat="53.3444300" lon="-1.9537300"/>
            <trkpt lat="53.3446300" lon="-1.9543000"/>
            <trkpt lat="53.3447900" lon="-1.9548700"/>
            <trkpt lat="53.3448700" lon="-1.9552600"/>
            <trkpt lat="53.3449800" lon="-1.9559200"/>
            <trkpt lat="53.3450000" lon="-1.9559900"/>
            <trkpt lat="53.3450900" lon="-1.9561800"/>
            <trkpt lat="53.3452000" lon="-1.9563100"/>
            <trkpt lat="53.3453800" lon="-1.9564600"/>
            <trkpt lat="53.3462100" lon="-1.9568300"/>
            <trkpt lat="53.3462800" lon="-1.9569200"/>
            <trkpt lat="53.3463400" lon="-1.9570600"/>
            <trkpt lat="53.3465800" lon="-1.9578000"/>
            <trkpt lat="53.3467800" lon="-1.9586600"/>
            <trkpt lat="53.3468200" lon="-1.9587900"/>
            <trkpt lat="53.3470100" lon="-1.9591200"/>
            <trkpt lat="53.3472400" lon="-1.9593800"/>
            <trkpt lat="53.3474200" lon="-1.9597500"/>
            <trkpt lat="53.3474600" lon="-1.9600600"/>
            <trkpt lat="53.3474500" lon="-1.9601800"/>
            <trkpt lat="53.3474600" lon="-1.9605000"/>
            <trkpt lat="53.3474800" lon="-1.9606600"/>
            <trkpt lat="53.3475700" lon="-1.9610200"/>
            <trkpt lat="53.3475900" lon="-1.9611600"/>
            <trkpt lat="53.3476600" lon="-1.9613800"/>
            <trkpt lat="53.3477300" lon="-1.9615000"/>
            <trkpt lat="53.3478400" lon="-1.9616300"/>
            <trkpt lat="53.3483100" lon="-1.9620100"/>
            <trkpt lat="53.3490200" lon="-1.9624600"/>
            <trkpt lat="53.3493100" lon="-1.9627600"/>
            <trkpt lat="53.3495000" lon="-1.9629300"/>
            <trkpt lat="53.3502900" lon="-1.9634300"/>
            <trkpt lat="53.3505900" lon="-1.9636400"/>
            <trkpt lat="53.3508200" lon="-1.9638600"/>
            <trkpt lat="53.3509200" lon="-1.9639800"/>
            <trkpt lat="53.3510100" lon="-1.9641600"/>
            <trkpt lat="53.3510900" lon="-1.9644700"/>
            <trkpt lat="53.3511400" lon="-1.9646000"/>
            <trkpt lat="53.3512300" lon="-1.9647800"/>
            <trkpt lat="53.3513000" lon="-1.9648700"/>
            <trkpt lat="53.3517900" lon="-1.9652500"/>
            <trkpt lat="53.3525000" lon="-1.9658500"/>
            <trkpt lat="53.3531500" lon="-1.9664300"/>
            <trkpt lat="53.3532400" lon="-1.9664600"/>
            <trkpt lat="53.3533600" lon="-1.9664300"/>
            <trkpt lat="53.3535100" lon="-1.9664800"/>
            <trkpt lat="53.3535900" lon="-1.9665600"/>
            <trkpt lat="53.3537700" lon="-1.9668400"/>
            <trkpt lat="53.3540300" lon="-1.9671400"/>
            <trkpt lat="53.3545000" lon="-1.9675700"/>
            <trkpt lat="53.3547000" lon="-1.9678200"/>
            <trkpt lat="53.3550300" lon="-1.9680400"/>
            <trkpt lat="53.3555500" lon="-1.9683100"/>
            <trkpt lat="53.3558100" lon="-1.9685100"/>
            <trkpt lat="53.3562900" lon="-1.9688300"/>
            <trkpt lat="53.3567800" lon="-1.9690800"/>
            <trkpt lat="53.3571500" lon="-1.9693000"/>
            <trkpt lat="53.3573000" lon="-1.9693100"/>
            <trkpt lat="53.3576200" lon="-1.9692200"/>
            <trkpt lat="53.3577600" lon="-1.9691500"/>
            <trkpt lat="53.3578600" lon="-1.9691600"/>
            <trkpt lat="53.3582800" lon="-1.9693800"/>
            <trkpt lat="53.3586400" lon="-1.9694600"/>
            <trkpt lat="53.3586900" lon="-1.9694900"/>
            <trkpt lat="53.3587600" lon="-1.9695800"/>
            <trkpt lat="53.3588900" lon="-1.9696700"/>
            <trkpt lat="53.3590000" lon="-1.9697100"/>
            <trkpt lat="53.3593100" lon="-1.9697600"/>
            <trkpt lat="53.3593700" lon="-1.9697900"/>
            <trkpt lat="53.3594300" lon="-1.9698900"/>
            <trkpt lat="53.3594800" lon="-1.9700700"/>
        </trkseg>
    </trk>
</gpx>
