<?xml version="1.0" encoding="UTF-8" standalone="yes"?>
<gpx version="1.1" creator="OS Maps - Web" xmlns="http://www.topografix.com/GPX/1/1"
xmlns:xsi="http://www.w3.org/2001/XMLSchema-instance"
xsi:schemaLocation="http://www.topografix.com/GPX/1/1 http://www.topografix.com/GPX/1/1/gpx.xsd"
xmlns:gs="http://www.topografix.com/GPX/gpx_style/0/2"
xmlns:gh="https://graphhopper.com/public/schema/gpx/1.1"
xmlns:os="https://ordnancesurvey.co.uk/public/schema/route/0.1">
    <metadata>
        <name>Corbar Hill, Combs Head &amp; Black Edge (Ethels) - Circular (www.thelostpeak.co.uk)</name>
        <desc></desc>
        <bounds minlat="53.2604100" minlon="-1.9466900" maxlat="53.2964400" maxlon="-1.9066800"/>
        <extensions>
            <os:version>2.0</os:version>
            <os:point lat="53.2605400" lon="-1.9132400" type="start"/>
            <os:point lat="53.2605400" lon="-1.9132400" type="end"/>
            <os:activity>ON_FOOT_WALKING</os:activity>
            <os:difficulty>MODERATE</os:difficulty>
            <os:paths/>
            <os:distance>13078.0087938</os:distance>
            <os:elevation_ascent>412.8600000</os:elevation_ascent>
        </extensions>
    </metadata>
    <wpt lat="53.2605400" lon="-1.9132400"/>
    <wpt lat="53.2604200" lon="-1.9137100"/>
    <wpt lat="53.2606600" lon="-1.9141200"/>
    <wpt lat="53.2608900" lon="-1.9142400"/>
    <wpt lat="53.2612300" lon="-1.9138900"/>
    <wpt lat="53.2614000" lon="-1.9139900"/>
    <wpt lat="53.2632600" lon="-1.9169300"/>
    <wpt lat="53.2638400" lon="-1.9171900"/>
    <wpt lat="53.2638600" lon="-1.9176100"/>
    <wpt lat="53.2635200" lon="-1.9182200"/>
    <wpt lat="53.2652700" lon="-1.9207800"/>
    <wpt lat="53.2647100" lon="-1.9230700"/>
    <wpt lat="53.2658100" lon="-1.9239900"/>
    <wpt lat="53.2657000" lon="-1.9244200"/>
    <wpt lat="53.2667900" lon="-1.9255900"/>
    <wpt lat="53.2672700" lon="-1.9273700"/>
    <wpt lat="53.2689900" lon="-1.9281300"/>
    <wpt lat="53.2695000" lon="-1.9276900"/>
    <wpt lat="53.2711700" lon="-1.9279700"/>
    <wpt lat="53.2717600" lon="-1.9277800"/>
    <wpt lat="53.2722000" lon="-1.9280600"/>
    <wpt lat="53.2717000" lon="-1.9291900"/>
    <wpt lat="53.2719700" lon="-1.9310600"/>
    <wpt lat="53.2721900" lon="-1.9315000"/>
    <wpt lat="53.2742300" lon="-1.9325200"/>
    <wpt lat="53.2746600" lon="-1.9330600"/>
    <wpt lat="53.2759600" lon="-1.9358900"/>
    <wpt lat="53.2761900" lon="-1.9361900"/>
    <wpt lat="53.2767200" lon="-1.9363100"/>
    <wpt lat="53.2767700" lon="-1.9369900"/>
    <wpt lat="53.2785000" lon="-1.9411600"/>
    <wpt lat="53.2804600" lon="-1.9428700"/>
    <wpt lat="53.2807600" lon="-1.9436500"/>
    <wpt lat="53.2809600" lon="-1.9456600"/>
    <wpt lat="53.2817700" lon="-1.9463000"/>
    <wpt lat="53.2828300" lon="-1.9466800"/>
    <wpt lat="53.2830700" lon="-1.9466300"/>
    <wpt lat="53.2834200" lon="-1.9456900"/>
    <wpt lat="53.2845200" lon="-1.9439800"/>
    <wpt lat="53.2845000" lon="-1.9406100"/>
    <wpt lat="53.2849800" lon="-1.9378500"/>
    <wpt lat="53.2845200" lon="-1.9355800"/>
    <wpt lat="53.2847100" lon="-1.9354800"/>
    <wpt lat="53.2860900" lon="-1.9304000"/>
    <wpt lat="53.2872600" lon="-1.9271900"/>
    <wpt lat="53.2878100" lon="-1.9263100"/>
    <wpt lat="53.2883800" lon="-1.9246900"/>
    <wpt lat="53.2881500" lon="-1.9240900"/>
    <wpt lat="53.2885000" lon="-1.9237200"/>
    <wpt lat="53.2886600" lon="-1.9223800"/>
    <wpt lat="53.2898700" lon="-1.9222600"/>
    <wpt lat="53.2912100" lon="-1.9211900"/>
    <wpt lat="53.2914200" lon="-1.9224000"/>
    <wpt lat="53.2920100" lon="-1.9232800"/>
    <wpt lat="53.2931800" lon="-1.9266000"/>
    <wpt lat="53.2940100" lon="-1.9275200"/>
    <wpt lat="53.2941800" lon="-1.9274900"/>
    <wpt lat="53.2946100" lon="-1.9269600"/>
    <wpt lat="53.2950900" lon="-1.9258900"/>
    <wpt lat="53.2954700" lon="-1.9214200"/>
    <wpt lat="53.2964300" lon="-1.9190700"/>
    <wpt lat="53.2962900" lon="-1.9184300"/>
    <wpt lat="53.2964200" lon="-1.9181200"/>
    <wpt lat="53.2961800" lon="-1.9173100"/>
    <wpt lat="53.2962000" lon="-1.9144300"/>
    <wpt lat="53.2957800" lon="-1.9127300"/>
    <wpt lat="53.2960100" lon="-1.9100200"/>
    <wpt lat="53.2964400" lon="-1.9087600"/>
    <wpt lat="53.2962100" lon="-1.9070400"/>
    <wpt lat="53.2936500" lon="-1.9066800"/>
    <wpt lat="53.2921000" lon="-1.9068300"/>
    <wpt lat="53.2892500" lon="-1.9079300"/>
    <wpt lat="53.2868700" lon="-1.9097100"/>
    <wpt lat="53.2843900" lon="-1.9107300"/>
    <wpt lat="53.2832100" lon="-1.9122100"/>
    <wpt lat="53.2809100" lon="-1.9134300"/>
    <wpt lat="53.2794200" lon="-1.9145800"/>
    <wpt lat="53.2778700" lon="-1.9168300"/>
    <wpt lat="53.2771200" lon="-1.9174300"/>
    <wpt lat="53.2762100" lon="-1.9195400"/>
    <wpt lat="53.2761800" lon="-1.9187200"/>
    <wpt lat="53.2747500" lon="-1.9184400"/>
    <wpt lat="53.2745300" lon="-1.9187200"/>
    <wpt lat="53.2732900" lon="-1.9186500"/>
    <wpt lat="53.2721700" lon="-1.9189700"/>
    <wpt lat="53.2720500" lon="-1.9199300"/>
    <wpt lat="53.2718000" lon="-1.9201700"/>
    <wpt lat="53.2709100" lon="-1.9198800"/>
    <wpt lat="53.2686300" lon="-1.9181500"/>
    <wpt lat="53.2670200" lon="-1.9156200"/>
    <wpt lat="53.2663100" lon="-1.9148800"/>
    <wpt lat="53.2646200" lon="-1.9168100"/>
    <wpt lat="53.2641700" lon="-1.9164900"/>
    <wpt lat="53.2637700" lon="-1.9170900"/>
    <wpt lat="53.2632600" lon="-1.9169300"/>
    <wpt lat="53.2614000" lon="-1.9139900"/>
    <wpt lat="53.2612300" lon="-1.9138900"/>
    <wpt lat="53.2608900" lon="-1.9142400"/>
    <wpt lat="53.2606600" lon="-1.9141200"/>
    <wpt lat="53.2604200" lon="-1.9137100"/>
    <wpt lat="53.2605400" lon="-1.9132400"/>
    <trk>
        <name>Corbar Hill, Combs Head &amp; Black Edge (Ethels) - Circular (www.thelostpeak.co.uk)</name>
        <trkseg>
            <trkpt lat="53.2605400" lon="-1.9132400"/>
            <trkpt lat="53.2605000" lon="-1.9134400"/>
            <trkpt lat="53.2604300" lon="-1.9135600"/>
            <trkpt lat="53.2604100" lon="-1.9136300"/>
            <trkpt lat="53.2604200" lon="-1.9137100"/>
            <trkpt lat="53.2605800" lon="-1.9139300"/>
            <trkpt lat="53.2606600" lon="-1.9141200"/>
            <trkpt lat="53.2608900" lon="-1.9142400"/>
            <trkpt lat="53.2609300" lon="-1.9142300"/>
            <trkpt lat="53.2609800" lon="-1.9141800"/>
            <trkpt lat="53.2612300" lon="-1.9138900"/>
            <trkpt lat="53.2614000" lon="-1.9139900"/>
            <trkpt lat="53.2615400" lon="-1.9142100"/>
            <trkpt lat="53.2620700" lon="-1.9149400"/>
            <trkpt lat="53.2624300" lon="-1.9156300"/>
            <trkpt lat="53.2628500" lon="-1.9163300"/>
            <trkpt lat="53.2631300" lon="-1.9166900"/>
            <trkpt lat="53.2632600" lon="-1.9169300"/>
            <trkpt lat="53.2634500" lon="-1.9169700"/>
            <trkpt lat="53.2635500" lon="-1.9170100"/>
            <trkpt lat="53.2637100" lon="-1.9171000"/>
            <trkpt lat="53.2637600" lon="-1.9171100"/>
            <trkpt lat="53.2638400" lon="-1.9171900"/>
            <trkpt lat="53.2638600" lon="-1.9172600"/>
            <trkpt lat="53.2638400" lon="-1.9174800"/>
            <trkpt lat="53.2638700" lon="-1.9175400"/>
            <trkpt lat="53.2638600" lon="-1.9176100"/>
            <trkpt lat="53.2635400" lon="-1.9179900"/>
            <trkpt lat="53.2635100" lon="-1.9180700"/>
            <trkpt lat="53.2635200" lon="-1.9182200"/>
            <trkpt lat="53.2636500" lon="-1.9183100"/>
            <trkpt lat="53.2637300" lon="-1.9184100"/>
            <trkpt lat="53.2638200" lon="-1.9185800"/>
            <trkpt lat="53.2639100" lon="-1.9186300"/>
            <trkpt lat="53.2640400" lon="-1.9188100"/>
            <trkpt lat="53.2641500" lon="-1.9190600"/>
            <trkpt lat="53.2642300" lon="-1.9191500"/>
            <trkpt lat="53.2643200" lon="-1.9194500"/>
            <trkpt lat="53.2645100" lon="-1.9196500"/>
            <trkpt lat="53.2646700" lon="-1.9199300"/>
            <trkpt lat="53.2648000" lon="-1.9201200"/>
            <trkpt lat="53.2648600" lon="-1.9202400"/>
            <trkpt lat="53.2649000" lon="-1.9202800"/>
            <trkpt lat="53.2649300" lon="-1.9203400"/>
            <trkpt lat="53.2650100" lon="-1.9203700"/>
            <trkpt lat="53.2651300" lon="-1.9205200"/>
            <trkpt lat="53.2651700" lon="-1.9206600"/>
            <trkpt lat="53.2652100" lon="-1.9206900"/>
            <trkpt lat="53.2652700" lon="-1.9207800"/>
            <trkpt lat="53.2652800" lon="-1.9208500"/>
            <trkpt lat="53.2652600" lon="-1.9210100"/>
            <trkpt lat="53.2651800" lon="-1.9212100"/>
            <trkpt lat="53.2650900" lon="-1.9215000"/>
            <trkpt lat="53.2650500" lon="-1.9216400"/>
            <trkpt lat="53.2650300" lon="-1.9218000"/>
            <trkpt lat="53.2649300" lon="-1.9220800"/>
            <trkpt lat="53.2648800" lon="-1.9223900"/>
            <trkpt lat="53.2648100" lon="-1.9225700"/>
            <trkpt lat="53.2647800" lon="-1.9227200"/>
            <trkpt lat="53.2647100" lon="-1.9229300"/>
            <trkpt lat="53.2647000" lon="-1.9230000"/>
            <trkpt lat="53.2647100" lon="-1.9230700"/>
            <trkpt lat="53.2647500" lon="-1.9231100"/>
            <trkpt lat="53.2648600" lon="-1.9231700"/>
            <trkpt lat="53.2649400" lon="-1.9232600"/>
            <trkpt lat="53.2650200" lon="-1.9233200"/>
            <trkpt lat="53.2651100" lon="-1.9233600"/>
            <trkpt lat="53.2654100" lon="-1.9236700"/>
            <trkpt lat="53.2654400" lon="-1.9237300"/>
            <trkpt lat="53.2654800" lon="-1.9237500"/>
            <trkpt lat="53.2655500" lon="-1.9238500"/>
            <trkpt lat="53.2656300" lon="-1.9239100"/>
            <trkpt lat="53.2658100" lon="-1.9239900"/>
            <trkpt lat="53.2658100" lon="-1.9241700"/>
            <trkpt lat="53.2658300" lon="-1.9242400"/>
            <trkpt lat="53.2657600" lon="-1.9243800"/>
            <trkpt lat="53.2657000" lon="-1.9244200"/>
            <trkpt lat="53.2657600" lon="-1.9243800"/>
            <trkpt lat="53.2658300" lon="-1.9242400"/>
            <trkpt lat="53.2659700" lon="-1.9244300"/>
            <trkpt lat="53.2663500" lon="-1.9250500"/>
            <trkpt lat="53.2666300" lon="-1.9254100"/>
            <trkpt lat="53.2667900" lon="-1.9255900"/>
            <trkpt lat="53.2668300" lon="-1.9256700"/>
            <trkpt lat="53.2670700" lon="-1.9267900"/>
            <trkpt lat="53.2672000" lon="-1.9272200"/>
            <trkpt lat="53.2672700" lon="-1.9273700"/>
            <trkpt lat="53.2674400" lon="-1.9275100"/>
            <trkpt lat="53.2675300" lon="-1.9275500"/>
            <trkpt lat="53.2677700" lon="-1.9276100"/>
            <trkpt lat="53.2680400" lon="-1.9277700"/>
            <trkpt lat="53.2682100" lon="-1.9277900"/>
            <trkpt lat="53.2682700" lon="-1.9278200"/>
            <trkpt lat="53.2683200" lon="-1.9278500"/>
            <trkpt lat="53.2684200" lon="-1.9280000"/>
            <trkpt lat="53.2685000" lon="-1.9280500"/>
            <trkpt lat="53.2687100" lon="-1.9280900"/>
            <trkpt lat="53.2689200" lon="-1.9280700"/>
            <trkpt lat="53.2689500" lon="-1.9281100"/>
            <trkpt lat="53.2689900" lon="-1.9281300"/>
            <trkpt lat="53.2690600" lon="-1.9281200"/>
            <trkpt lat="53.2691100" lon="-1.9280900"/>
            <trkpt lat="53.2693700" lon="-1.9277700"/>
            <trkpt lat="53.2694500" lon="-1.9277000"/>
            <trkpt lat="53.2695000" lon="-1.9276900"/>
            <trkpt lat="53.2699600" lon="-1.9277200"/>
            <trkpt lat="53.2701900" lon="-1.9278300"/>
            <trkpt lat="53.2704100" lon="-1.9278400"/>
            <trkpt lat="53.2705600" lon="-1.9278900"/>
            <trkpt lat="53.2710000" lon="-1.9279600"/>
            <trkpt lat="53.2711700" lon="-1.9279700"/>
            <trkpt lat="53.2713600" lon="-1.9279300"/>
            <trkpt lat="53.2714300" lon="-1.9279600"/>
            <trkpt lat="53.2714800" lon="-1.9279600"/>
            <trkpt lat="53.2717000" lon="-1.9278600"/>
            <trkpt lat="53.2717600" lon="-1.9277800"/>
            <trkpt lat="53.2718100" lon="-1.9277900"/>
            <trkpt lat="53.2718700" lon="-1.9278900"/>
            <trkpt lat="53.2720700" lon="-1.9279800"/>
            <trkpt lat="53.2722000" lon="-1.9280600"/>
            <trkpt lat="53.2722000" lon="-1.9281400"/>
            <trkpt lat="53.2720200" lon="-1.9284800"/>
            <trkpt lat="53.2718500" lon="-1.9287300"/>
            <trkpt lat="53.2717100" lon="-1.9290300"/>
            <trkpt lat="53.2717000" lon="-1.9291900"/>
            <trkpt lat="53.2717500" lon="-1.9293900"/>
            <trkpt lat="53.2717600" lon="-1.9296000"/>
            <trkpt lat="53.2718500" lon="-1.9300900"/>
            <trkpt lat="53.2719400" lon="-1.9307300"/>
            <trkpt lat="53.2719700" lon="-1.9310600"/>
            <trkpt lat="53.2720200" lon="-1.9312000"/>
            <trkpt lat="53.2720900" lon="-1.9313000"/>
            <trkpt lat="53.2721900" lon="-1.9315000"/>
            <trkpt lat="53.2722700" lon="-1.9315800"/>
            <trkpt lat="53.2723600" lon="-1.9316100"/>
            <trkpt lat="53.2726800" lon="-1.9318100"/>
            <trkpt lat="53.2727800" lon="-1.9318100"/>
            <trkpt lat="53.2729400" lon="-1.9319500"/>
            <trkpt lat="53.2732800" lon="-1.9320700"/>
            <trkpt lat="53.2734500" lon="-1.9320900"/>
            <trkpt lat="53.2736200" lon="-1.9322200"/>
            <trkpt lat="53.2742300" lon="-1.9325200"/>
            <trkpt lat="53.2743200" lon="-1.9325900"/>
            <trkpt lat="53.2743800" lon="-1.9327000"/>
            <trkpt lat="53.2744600" lon="-1.9327900"/>
            <trkpt lat="53.2745200" lon="-1.9329000"/>
            <trkpt lat="53.2745700" lon="-1.9329400"/>
            <trkpt lat="53.2746600" lon="-1.9330600"/>
            <trkpt lat="53.2747500" lon="-1.9332400"/>
            <trkpt lat="53.2748000" lon="-1.9334000"/>
            <trkpt lat="53.2749000" lon="-1.9336300"/>
            <trkpt lat="53.2749700" lon="-1.9337400"/>
            <trkpt lat="53.2749800" lon="-1.9339000"/>
            <trkpt lat="53.2750500" lon="-1.9340900"/>
            <trkpt lat="53.2751900" lon="-1.9343300"/>
            <trkpt lat="53.2752400" lon="-1.9344600"/>
            <trkpt lat="53.2753100" lon="-1.9345600"/>
            <trkpt lat="53.2753400" lon="-1.9345800"/>
            <trkpt lat="53.2754800" lon="-1.9348700"/>
            <trkpt lat="53.2756000" lon="-1.9350100"/>
            <trkpt lat="53.2756600" lon="-1.9351400"/>
            <trkpt lat="53.2756800" lon="-1.9352500"/>
            <trkpt lat="53.2758000" lon="-1.9355000"/>
            <trkpt lat="53.2759600" lon="-1.9358900"/>
            <trkpt lat="53.2761900" lon="-1.9361900"/>
            <trkpt lat="53.2763200" lon="-1.9362200"/>
            <trkpt lat="53.2765200" lon="-1.9362200"/>
            <trkpt lat="53.2765600" lon="-1.9362400"/>
            <trkpt lat="53.2766500" lon="-1.9362300"/>
            <trkpt lat="53.2766900" lon="-1.9362500"/>
            <trkpt lat="53.2767200" lon="-1.9363100"/>
            <trkpt lat="53.2766800" lon="-1.9365200"/>
            <trkpt lat="53.2767000" lon="-1.9367400"/>
            <trkpt lat="53.2767700" lon="-1.9369900"/>
            <trkpt lat="53.2770000" lon="-1.9374800"/>
            <trkpt lat="53.2775300" lon="-1.9387000"/>
            <trkpt lat="53.2777400" lon="-1.9390900"/>
            <trkpt lat="53.2778800" lon="-1.9394500"/>
            <trkpt lat="53.2779100" lon="-1.9396200"/>
            <trkpt lat="53.2779200" lon="-1.9397800"/>
            <trkpt lat="53.2779900" lon="-1.9400300"/>
            <trkpt lat="53.2781300" lon="-1.9404000"/>
            <trkpt lat="53.2782600" lon="-1.9406200"/>
            <trkpt lat="53.2783100" lon="-1.9407600"/>
            <trkpt lat="53.2784600" lon="-1.9410500"/>
            <trkpt lat="53.2785000" lon="-1.9411600"/>
            <trkpt lat="53.2788500" lon="-1.9414800"/>
            <trkpt lat="53.2789400" lon="-1.9415100"/>
            <trkpt lat="53.2790200" lon="-1.9415900"/>
            <trkpt lat="53.2791100" lon="-1.9416200"/>
            <trkpt lat="53.2795700" lon="-1.9419600"/>
            <trkpt lat="53.2796600" lon="-1.9421100"/>
            <trkpt lat="53.2797400" lon="-1.9421600"/>
            <trkpt lat="53.2797700" lon="-1.9422200"/>
            <trkpt lat="53.2798100" lon="-1.9422600"/>
            <trkpt lat="53.2799300" lon="-1.9423600"/>
            <trkpt lat="53.2801000" lon="-1.9424400"/>
            <trkpt lat="53.2801400" lon="-1.9424800"/>
            <trkpt lat="53.2802300" lon="-1.9426300"/>
            <trkpt lat="53.2803700" lon="-1.9427300"/>
            <trkpt lat="53.2804600" lon="-1.9428700"/>
            <trkpt lat="53.2805300" lon="-1.9430600"/>
            <trkpt lat="53.2807000" lon="-1.9434400"/>
            <trkpt lat="53.2807600" lon="-1.9436500"/>
            <trkpt lat="53.2807700" lon="-1.9437300"/>
            <trkpt lat="53.2807600" lon="-1.9438900"/>
            <trkpt lat="53.2808100" lon="-1.9445900"/>
            <trkpt lat="53.2808100" lon="-1.9448400"/>
            <trkpt lat="53.2808500" lon="-1.9449900"/>
            <trkpt lat="53.2809300" lon="-1.9456000"/>
            <trkpt lat="53.2809600" lon="-1.9456600"/>
            <trkpt lat="53.2810500" lon="-1.9457200"/>
            <trkpt lat="53.2811300" lon="-1.9458500"/>
            <trkpt lat="53.2812200" lon="-1.9459400"/>
            <trkpt lat="53.2814000" lon="-1.9460500"/>
            <trkpt lat="53.2815200" lon="-1.9461000"/>
            <trkpt lat="53.2816000" lon="-1.9461800"/>
            <trkpt lat="53.2816500" lon="-1.9462000"/>
            <trkpt lat="53.2817700" lon="-1.9463000"/>
            <trkpt lat="53.2820500" lon="-1.9464400"/>
            <trkpt lat="53.2821500" lon="-1.9464300"/>
            <trkpt lat="53.2823300" lon="-1.9465700"/>
            <trkpt lat="53.2823800" lon="-1.9465500"/>
            <trkpt lat="53.2824300" lon="-1.9465600"/>
            <trkpt lat="53.2825100" lon="-1.9466200"/>
            <trkpt lat="53.2828300" lon="-1.9466800"/>
            <trkpt lat="53.2829800" lon="-1.9466900"/>
            <trkpt lat="53.2830300" lon="-1.9466700"/>
            <trkpt lat="53.2830700" lon="-1.9466300"/>
            <trkpt lat="53.2830900" lon="-1.9465500"/>
            <trkpt lat="53.2831100" lon="-1.9463200"/>
            <trkpt lat="53.2832600" lon="-1.9460600"/>
            <trkpt lat="53.2832800" lon="-1.9459600"/>
            <trkpt lat="53.2834200" lon="-1.9456900"/>
            <trkpt lat="53.2835500" lon="-1.9455600"/>
            <trkpt lat="53.2836100" lon="-1.9454400"/>
            <trkpt lat="53.2837000" lon="-1.9453700"/>
            <trkpt lat="53.2838000" lon="-1.9451900"/>
            <trkpt lat="53.2838500" lon="-1.9450700"/>
            <trkpt lat="53.2840900" lon="-1.9447600"/>
            <trkpt lat="53.2841500" lon="-1.9446200"/>
            <trkpt lat="53.2841900" lon="-1.9445800"/>
            <trkpt lat="53.2842200" lon="-1.9445200"/>
            <trkpt lat="53.2842400" lon="-1.9444500"/>
            <trkpt lat="53.2843400" lon="-1.9443200"/>
            <trkpt lat="53.2844000" lon="-1.9442000"/>
            <trkpt lat="53.2844800" lon="-1.9441300"/>
            <trkpt lat="53.2845200" lon="-1.9439800"/>
            <trkpt lat="53.2845300" lon="-1.9437100"/>
            <trkpt lat="53.2844800" lon="-1.9434500"/>
            <trkpt lat="53.2844600" lon="-1.9432100"/>
            <trkpt lat="53.2845500" lon="-1.9424900"/>
            <trkpt lat="53.2845200" lon="-1.9421000"/>
            <trkpt lat="53.2845600" lon="-1.9418600"/>
            <trkpt lat="53.2845500" lon="-1.9416200"/>
            <trkpt lat="53.2845600" lon="-1.9415600"/>
            <trkpt lat="53.2845600" lon="-1.9413700"/>
            <trkpt lat="53.2845100" lon="-1.9412200"/>
            <trkpt lat="53.2845700" lon="-1.9408100"/>
            <trkpt lat="53.2845100" lon="-1.9407000"/>
            <trkpt lat="53.2845000" lon="-1.9406100"/>
            <trkpt lat="53.2845200" lon="-1.9405400"/>
            <trkpt lat="53.2845900" lon="-1.9404300"/>
            <trkpt lat="53.2846300" lon="-1.9402900"/>
            <trkpt lat="53.2846800" lon="-1.9398000"/>
            <trkpt lat="53.2847600" lon="-1.9394300"/>
            <trkpt lat="53.2847800" lon="-1.9391800"/>
            <trkpt lat="53.2848100" lon="-1.9390800"/>
            <trkpt lat="53.2848100" lon="-1.9389300"/>
            <trkpt lat="53.2848700" lon="-1.9388000"/>
            <trkpt lat="53.2849200" lon="-1.9383300"/>
            <trkpt lat="53.2849700" lon="-1.9381000"/>
            <trkpt lat="53.2849800" lon="-1.9378500"/>
            <trkpt lat="53.2849300" lon="-1.9375900"/>
            <trkpt lat="53.2848800" lon="-1.9374200"/>
            <trkpt lat="53.2848300" lon="-1.9372900"/>
            <trkpt lat="53.2847700" lon="-1.9371800"/>
            <trkpt lat="53.2847500" lon="-1.9371100"/>
            <trkpt lat="53.2847000" lon="-1.9366200"/>
            <trkpt lat="53.2846600" lon="-1.9364700"/>
            <trkpt lat="53.2846300" lon="-1.9362400"/>
            <trkpt lat="53.2846500" lon="-1.9359500"/>
            <trkpt lat="53.2846400" lon="-1.9358000"/>
            <trkpt lat="53.2845800" lon="-1.9356700"/>
            <trkpt lat="53.2845200" lon="-1.9356100"/>
            <trkpt lat="53.2845200" lon="-1.9355800"/>
            <trkpt lat="53.2845400" lon="-1.9355500"/>
            <trkpt lat="53.2846400" lon="-1.9355400"/>
            <trkpt lat="53.2847100" lon="-1.9354800"/>
            <trkpt lat="53.2847500" lon="-1.9352500"/>
            <trkpt lat="53.2847800" lon="-1.9351900"/>
            <trkpt lat="53.2848200" lon="-1.9350400"/>
            <trkpt lat="53.2848200" lon="-1.9349600"/>
            <trkpt lat="53.2849700" lon="-1.9345600"/>
            <trkpt lat="53.2850900" lon="-1.9339600"/>
            <trkpt lat="53.2852400" lon="-1.9334800"/>
            <trkpt lat="53.2852500" lon="-1.9333300"/>
            <trkpt lat="53.2853400" lon="-1.9329800"/>
            <trkpt lat="53.2856900" lon="-1.9321300"/>
            <trkpt lat="53.2858100" lon="-1.9314500"/>
            <trkpt lat="53.2859300" lon="-1.9309200"/>
            <trkpt lat="53.2859200" lon="-1.9309200"/>
            <trkpt lat="53.2860900" lon="-1.9304000"/>
            <trkpt lat="53.2864500" lon="-1.9294400"/>
            <trkpt lat="53.2866400" lon="-1.9291200"/>
            <trkpt lat="53.2867500" lon="-1.9288700"/>
            <trkpt lat="53.2868800" lon="-1.9284200"/>
            <trkpt lat="53.2869400" lon="-1.9282600"/>
            <trkpt lat="53.2869800" lon="-1.9282100"/>
            <trkpt lat="53.2870300" lon="-1.9280000"/>
            <trkpt lat="53.2871100" lon="-1.9277900"/>
            <trkpt lat="53.2872600" lon="-1.9271900"/>
            <trkpt lat="53.2874100" lon="-1.9270000"/>
            <trkpt lat="53.2874600" lon="-1.9269600"/>
            <trkpt lat="53.2876400" lon="-1.9266800"/>
            <trkpt lat="53.2876900" lon="-1.9265500"/>
            <trkpt lat="53.2878100" lon="-1.9263100"/>
            <trkpt lat="53.2879800" lon="-1.9258300"/>
            <trkpt lat="53.2881500" lon="-1.9254100"/>
            <trkpt lat="53.2881500" lon="-1.9253300"/>
            <trkpt lat="53.2882100" lon="-1.9251400"/>
            <trkpt lat="53.2882400" lon="-1.9250000"/>
            <trkpt lat="53.2883000" lon="-1.9248900"/>
            <trkpt lat="53.2883200" lon="-1.9248000"/>
            <trkpt lat="53.2883800" lon="-1.9246900"/>
            <trkpt lat="53.2883900" lon="-1.9246200"/>
            <trkpt lat="53.2883800" lon="-1.9245400"/>
            <trkpt lat="53.2882800" lon="-1.9242600"/>
            <trkpt lat="53.2881500" lon="-1.9240900"/>
            <trkpt lat="53.2882800" lon="-1.9239600"/>
            <trkpt lat="53.2883900" lon="-1.9239000"/>
            <trkpt lat="53.2884500" lon="-1.9238300"/>
            <trkpt lat="53.2885000" lon="-1.9237200"/>
            <trkpt lat="53.2885700" lon="-1.9234700"/>
            <trkpt lat="53.2886700" lon="-1.9229800"/>
            <trkpt lat="53.2886900" lon="-1.9226900"/>
            <trkpt lat="53.2886600" lon="-1.9223800"/>
            <trkpt lat="53.2887000" lon="-1.9223200"/>
            <trkpt lat="53.2887500" lon="-1.9223800"/>
            <trkpt lat="53.2888500" lon="-1.9224200"/>
            <trkpt lat="53.2891700" lon="-1.9223000"/>
            <trkpt lat="53.2897300" lon="-1.9223100"/>
            <trkpt lat="53.2898700" lon="-1.9222600"/>
            <trkpt lat="53.2899900" lon="-1.9221600"/>
            <trkpt lat="53.2901700" lon="-1.9220700"/>
            <trkpt lat="53.2902700" lon="-1.9219900"/>
            <trkpt lat="53.2905200" lon="-1.9217400"/>
            <trkpt lat="53.2908100" lon="-1.9215600"/>
            <trkpt lat="53.2910600" lon="-1.9213700"/>
            <trkpt lat="53.2911000" lon="-1.9213300"/>
            <trkpt lat="53.2911600" lon="-1.9212000"/>
            <trkpt lat="53.2912100" lon="-1.9211900"/>
            <trkpt lat="53.2912600" lon="-1.9212900"/>
            <trkpt lat="53.2912800" lon="-1.9214400"/>
            <trkpt lat="53.2913100" lon="-1.9214900"/>
            <trkpt lat="53.2914000" lon="-1.9217700"/>
            <trkpt lat="53.2914100" lon="-1.9218500"/>
            <trkpt lat="53.2914000" lon="-1.9221800"/>
            <trkpt lat="53.2914200" lon="-1.9224000"/>
            <trkpt lat="53.2915600" lon="-1.9226100"/>
            <trkpt lat="53.2916500" lon="-1.9226800"/>
            <trkpt lat="53.2919500" lon="-1.9231500"/>
            <trkpt lat="53.2920100" lon="-1.9232800"/>
            <trkpt lat="53.2921400" lon="-1.9238100"/>
            <trkpt lat="53.2922500" lon="-1.9240600"/>
            <trkpt lat="53.2923900" lon="-1.9244700"/>
            <trkpt lat="53.2924400" lon="-1.9246800"/>
            <trkpt lat="53.2925800" lon="-1.9250300"/>
            <trkpt lat="53.2926400" lon="-1.9251300"/>
            <trkpt lat="53.2927300" lon="-1.9255800"/>
            <trkpt lat="53.2928100" lon="-1.9257800"/>
            <trkpt lat="53.2929200" lon="-1.9260000"/>
            <trkpt lat="53.2929300" lon="-1.9260000"/>
            <trkpt lat="53.2929800" lon="-1.9261600"/>
            <trkpt lat="53.2930800" lon="-1.9263400"/>
            <trkpt lat="53.2931800" lon="-1.9266000"/>
            <trkpt lat="53.2934300" lon="-1.9269600"/>
            <trkpt lat="53.2935800" lon="-1.9270300"/>
            <trkpt lat="53.2936400" lon="-1.9271500"/>
            <trkpt lat="53.2940100" lon="-1.9275200"/>
            <trkpt lat="53.2940600" lon="-1.9275300"/>
            <trkpt lat="53.2941000" lon="-1.9274900"/>
            <trkpt lat="53.2941800" lon="-1.9274900"/>
            <trkpt lat="53.2943100" lon="-1.9273800"/>
            <trkpt lat="53.2944000" lon="-1.9272200"/>
            <trkpt lat="53.2946100" lon="-1.9269600"/>
            <trkpt lat="53.2946900" lon="-1.9268100"/>
            <trkpt lat="53.2947700" lon="-1.9265600"/>
            <trkpt lat="53.2950200" lon="-1.9260800"/>
            <trkpt lat="53.2950900" lon="-1.9258900"/>
            <trkpt lat="53.2951100" lon="-1.9258100"/>
            <trkpt lat="53.2951200" lon="-1.9256000"/>
            <trkpt lat="53.2951500" lon="-1.9254300"/>
            <trkpt lat="53.2952100" lon="-1.9252800"/>
            <trkpt lat="53.2952200" lon="-1.9252000"/>
            <trkpt lat="53.2951900" lon="-1.9244900"/>
            <trkpt lat="53.2952100" lon="-1.9241600"/>
            <trkpt lat="53.2951900" lon="-1.9240100"/>
            <trkpt lat="53.2952100" lon="-1.9238500"/>
            <trkpt lat="53.2952200" lon="-1.9235900"/>
            <trkpt lat="53.2952800" lon="-1.9231100"/>
            <trkpt lat="53.2952800" lon="-1.9228500"/>
            <trkpt lat="53.2953400" lon="-1.9226000"/>
            <trkpt lat="53.2953700" lon="-1.9223900"/>
            <trkpt lat="53.2954300" lon="-1.9222400"/>
            <trkpt lat="53.2954600" lon="-1.9220900"/>
            <trkpt lat="53.2954900" lon="-1.9220300"/>
            <trkpt lat="53.2954800" lon="-1.9218700"/>
            <trkpt lat="53.2954900" lon="-1.9216300"/>
            <trkpt lat="53.2954600" lon="-1.9214800"/>
            <trkpt lat="53.2954700" lon="-1.9214200"/>
            <trkpt lat="53.2956200" lon="-1.9208900"/>
            <trkpt lat="53.2958400" lon="-1.9204300"/>
            <trkpt lat="53.2958800" lon="-1.9202900"/>
            <trkpt lat="53.2959200" lon="-1.9202400"/>
            <trkpt lat="53.2960300" lon="-1.9199900"/>
            <trkpt lat="53.2961200" lon="-1.9198700"/>
            <trkpt lat="53.2962000" lon="-1.9197200"/>
            <trkpt lat="53.2963100" lon="-1.9195600"/>
            <trkpt lat="53.2964000" lon="-1.9193800"/>
            <trkpt lat="53.2964300" lon="-1.9190700"/>
            <trkpt lat="53.2964000" lon="-1.9189300"/>
            <trkpt lat="53.2963600" lon="-1.9188800"/>
            <trkpt lat="53.2963400" lon="-1.9188100"/>
            <trkpt lat="53.2963200" lon="-1.9185800"/>
            <trkpt lat="53.2962900" lon="-1.9184300"/>
            <trkpt lat="53.2963400" lon="-1.9183800"/>
            <trkpt lat="53.2963600" lon="-1.9183300"/>
            <trkpt lat="53.2963500" lon="-1.9181800"/>
            <trkpt lat="53.2964300" lon="-1.9182000"/>
            <trkpt lat="53.2964200" lon="-1.9181200"/>
            <trkpt lat="53.2963300" lon="-1.9178800"/>
            <trkpt lat="53.2962900" lon="-1.9178300"/>
            <trkpt lat="53.2962600" lon="-1.9177600"/>
            <trkpt lat="53.2962500" lon="-1.9176100"/>
            <trkpt lat="53.2962100" lon="-1.9174400"/>
            <trkpt lat="53.2962100" lon="-1.9173700"/>
            <trkpt lat="53.2961800" lon="-1.9173100"/>
            <trkpt lat="53.2961800" lon="-1.9172300"/>
            <trkpt lat="53.2962300" lon="-1.9170900"/>
            <trkpt lat="53.2962500" lon="-1.9169400"/>
            <trkpt lat="53.2962400" lon="-1.9158000"/>
            <trkpt lat="53.2962000" lon="-1.9151400"/>
            <trkpt lat="53.2962200" lon="-1.9149000"/>
            <trkpt lat="53.2961800" lon="-1.9146500"/>
            <trkpt lat="53.2962000" lon="-1.9144300"/>
            <trkpt lat="53.2961900" lon="-1.9143600"/>
            <trkpt lat="53.2960500" lon="-1.9139200"/>
            <trkpt lat="53.2960000" lon="-1.9138000"/>
            <trkpt lat="53.2959600" lon="-1.9136500"/>
            <trkpt lat="53.2958600" lon="-1.9134200"/>
            <trkpt lat="53.2958000" lon="-1.9131200"/>
            <trkpt lat="53.2958000" lon="-1.9128700"/>
            <trkpt lat="53.2957800" lon="-1.9127300"/>
            <trkpt lat="53.2957800" lon="-1.9125800"/>
            <trkpt lat="53.2958000" lon="-1.9124000"/>
            <trkpt lat="53.2958600" lon="-1.9120900"/>
            <trkpt lat="53.2958900" lon="-1.9118600"/>
            <trkpt lat="53.2958900" lon="-1.9117800"/>
            <trkpt lat="53.2959200" lon="-1.9116300"/>
            <trkpt lat="53.2959500" lon="-1.9111300"/>
            <trkpt lat="53.2960100" lon="-1.9109100"/>
            <trkpt lat="53.2959800" lon="-1.9106800"/>
            <trkpt lat="53.2959800" lon="-1.9105800"/>
            <trkpt lat="53.2960100" lon="-1.9102600"/>
            <trkpt lat="53.2960100" lon="-1.9100200"/>
            <trkpt lat="53.2960500" lon="-1.9098800"/>
            <trkpt lat="53.2962500" lon="-1.9095900"/>
            <trkpt lat="53.2963900" lon="-1.9091200"/>
            <trkpt lat="53.2964100" lon="-1.9088700"/>
            <trkpt lat="53.2964400" lon="-1.9087600"/>
            <trkpt lat="53.2964200" lon="-1.9082400"/>
            <trkpt lat="53.2963600" lon="-1.9078900"/>
            <trkpt lat="53.2962200" lon="-1.9073300"/>
            <trkpt lat="53.2962100" lon="-1.9070400"/>
            <trkpt lat="53.2958500" lon="-1.9070000"/>
            <trkpt lat="53.2957100" lon="-1.9070100"/>
            <trkpt lat="53.2955700" lon="-1.9069600"/>
            <trkpt lat="53.2954700" lon="-1.9069600"/>
            <trkpt lat="53.2953500" lon="-1.9069400"/>
            <trkpt lat="53.2952500" lon="-1.9069000"/>
            <trkpt lat="53.2951000" lon="-1.9068900"/>
            <trkpt lat="53.2950100" lon="-1.9068500"/>
            <trkpt lat="53.2940300" lon="-1.9067300"/>
            <trkpt lat="53.2939800" lon="-1.9067500"/>
            <trkpt lat="53.2938800" lon="-1.9067500"/>
            <trkpt lat="53.2936500" lon="-1.9066800"/>
            <trkpt lat="53.2934400" lon="-1.9066900"/>
            <trkpt lat="53.2931500" lon="-1.9067600"/>
            <trkpt lat="53.2926400" lon="-1.9067400"/>
            <trkpt lat="53.2924900" lon="-1.9067500"/>
            <trkpt lat="53.2922900" lon="-1.9068100"/>
            <trkpt lat="53.2921000" lon="-1.9068300"/>
            <trkpt lat="53.2919400" lon="-1.9069500"/>
            <trkpt lat="53.2916200" lon="-1.9071100"/>
            <trkpt lat="53.2914700" lon="-1.9071300"/>
            <trkpt lat="53.2911300" lon="-1.9073000"/>
            <trkpt lat="53.2909300" lon="-1.9073600"/>
            <trkpt lat="53.2906700" lon="-1.9074800"/>
            <trkpt lat="53.2905200" lon="-1.9075100"/>
            <trkpt lat="53.2904800" lon="-1.9075400"/>
            <trkpt lat="53.2903800" lon="-1.9075700"/>
            <trkpt lat="53.2899600" lon="-1.9076200"/>
            <trkpt lat="53.2892500" lon="-1.9079300"/>
            <trkpt lat="53.2890900" lon="-1.9080800"/>
            <trkpt lat="53.2888000" lon="-1.9082900"/>
            <trkpt lat="53.2884900" lon="-1.9085900"/>
            <trkpt lat="53.2882400" lon="-1.9087700"/>
            <trkpt lat="53.2880600" lon="-1.9088300"/>
            <trkpt lat="53.2879800" lon="-1.9089000"/>
            <trkpt lat="53.2876500" lon="-1.9090700"/>
            <trkpt lat="53.2875000" lon="-1.9092000"/>
            <trkpt lat="53.2873900" lon="-1.9093300"/>
            <trkpt lat="53.2873400" lon="-1.9093700"/>
            <trkpt lat="53.2873000" lon="-1.9093700"/>
            <trkpt lat="53.2871700" lon="-1.9094700"/>
            <trkpt lat="53.2871200" lon="-1.9094900"/>
            <trkpt lat="53.2868700" lon="-1.9097100"/>
            <trkpt lat="53.2866900" lon="-1.9098100"/>
            <trkpt lat="53.2866400" lon="-1.9098200"/>
            <trkpt lat="53.2864600" lon="-1.9099400"/>
            <trkpt lat="53.2862600" lon="-1.9099600"/>
            <trkpt lat="53.2861100" lon="-1.9100400"/>
            <trkpt lat="53.2860300" lon="-1.9101100"/>
            <trkpt lat="53.2859300" lon="-1.9101000"/>
            <trkpt lat="53.2858400" lon="-1.9101200"/>
            <trkpt lat="53.2856700" lon="-1.9102500"/>
            <trkpt lat="53.2854400" lon="-1.9103000"/>
            <trkpt lat="53.2853500" lon="-1.9103500"/>
            <trkpt lat="53.2851500" lon="-1.9103500"/>
            <trkpt lat="53.2849500" lon="-1.9104900"/>
            <trkpt lat="53.2848000" lon="-1.9105100"/>
            <trkpt lat="53.2845200" lon="-1.9106500"/>
            <trkpt lat="53.2844800" lon="-1.9107000"/>
            <trkpt lat="53.2843900" lon="-1.9107300"/>
            <trkpt lat="53.2841300" lon="-1.9110300"/>
            <trkpt lat="53.2840400" lon="-1.9111600"/>
            <trkpt lat="53.2838000" lon="-1.9114200"/>
            <trkpt lat="53.2835000" lon="-1.9118700"/>
            <trkpt lat="53.2832100" lon="-1.9122100"/>
            <trkpt lat="53.2824500" lon="-1.9127000"/>
            <trkpt lat="53.2817200" lon="-1.9131100"/>
            <trkpt lat="53.2815900" lon="-1.9131700"/>
            <trkpt lat="53.2812400" lon="-1.9132500"/>
            <trkpt lat="53.2809100" lon="-1.9134300"/>
            <trkpt lat="53.2806700" lon="-1.9136300"/>
            <trkpt lat="53.2804800" lon="-1.9137500"/>
            <trkpt lat="53.2803900" lon="-1.9138300"/>
            <trkpt lat="53.2801900" lon="-1.9140700"/>
            <trkpt lat="53.2800500" lon="-1.9141400"/>
            <trkpt lat="53.2798300" lon="-1.9143200"/>
            <trkpt lat="53.2796600" lon="-1.9144000"/>
            <trkpt lat="53.2794200" lon="-1.9145800"/>
            <trkpt lat="53.2792600" lon="-1.9147900"/>
            <trkpt lat="53.2791400" lon="-1.9149200"/>
            <trkpt lat="53.2789500" lon="-1.9153100"/>
            <trkpt lat="53.2788200" lon="-1.9154300"/>
            <trkpt lat="53.2785200" lon="-1.9158300"/>
            <trkpt lat="53.2784300" lon="-1.9160100"/>
            <trkpt lat="53.2782600" lon="-1.9161800"/>
            <trkpt lat="53.2781700" lon="-1.9163600"/>
            <trkpt lat="53.2780700" lon="-1.9164400"/>
            <trkpt lat="53.2780400" lon="-1.9165800"/>
            <trkpt lat="53.2779600" lon="-1.9166600"/>
            <trkpt lat="53.2778700" lon="-1.9168300"/>
            <trkpt lat="53.2777800" lon="-1.9169100"/>
            <trkpt lat="53.2777100" lon="-1.9170100"/>
            <trkpt lat="53.2776700" lon="-1.9170300"/>
            <trkpt lat="53.2776000" lon="-1.9171400"/>
            <trkpt lat="53.2775300" lon="-1.9171900"/>
            <trkpt lat="53.2774800" lon="-1.9172800"/>
            <trkpt lat="53.2774400" lon="-1.9173200"/>
            <trkpt lat="53.2773800" lon="-1.9173300"/>
            <trkpt lat="53.2773000" lon="-1.9173900"/>
            <trkpt lat="53.2772400" lon="-1.9174900"/>
            <trkpt lat="53.2771600" lon="-1.9174300"/>
            <trkpt lat="53.2771200" lon="-1.9174300"/>
            <trkpt lat="53.2770100" lon="-1.9177900"/>
            <trkpt lat="53.2769200" lon="-1.9179000"/>
            <trkpt lat="53.2768300" lon="-1.9180800"/>
            <trkpt lat="53.2767900" lon="-1.9181200"/>
            <trkpt lat="53.2767700" lon="-1.9181900"/>
            <trkpt lat="53.2767000" lon="-1.9183100"/>
            <trkpt lat="53.2766600" lon="-1.9184500"/>
            <trkpt lat="53.2765700" lon="-1.9186200"/>
            <trkpt lat="53.2765300" lon="-1.9187600"/>
            <trkpt lat="53.2763500" lon="-1.9190500"/>
            <trkpt lat="53.2762800" lon="-1.9192600"/>
            <trkpt lat="53.2762400" lon="-1.9194700"/>
            <trkpt lat="53.2762100" lon="-1.9195400"/>
            <trkpt lat="53.2761700" lon="-1.9195400"/>
            <trkpt lat="53.2761400" lon="-1.9194800"/>
            <trkpt lat="53.2761400" lon="-1.9192400"/>
            <trkpt lat="53.2761800" lon="-1.9188800"/>
            <trkpt lat="53.2761800" lon="-1.9187200"/>
            <trkpt lat="53.2761400" lon="-1.9187000"/>
            <trkpt lat="53.2761000" lon="-1.9187400"/>
            <trkpt lat="53.2760300" lon="-1.9187500"/>
            <trkpt lat="53.2759500" lon="-1.9186800"/>
            <trkpt lat="53.2757700" lon="-1.9186100"/>
            <trkpt lat="53.2756000" lon="-1.9186100"/>
            <trkpt lat="53.2755000" lon="-1.9186600"/>
            <trkpt lat="53.2753100" lon="-1.9186600"/>
            <trkpt lat="53.2751900" lon="-1.9185500"/>
            <trkpt lat="53.2750400" lon="-1.9185100"/>
            <trkpt lat="53.2750000" lon="-1.9185100"/>
            <trkpt lat="53.2748700" lon="-1.9185800"/>
            <trkpt lat="53.2748300" lon="-1.9185400"/>
            <trkpt lat="53.2748000" lon="-1.9184400"/>
            <trkpt lat="53.2747500" lon="-1.9184400"/>
            <trkpt lat="53.2745900" lon="-1.9186100"/>
            <trkpt lat="53.2745600" lon="-1.9186900"/>
            <trkpt lat="53.2745300" lon="-1.9187200"/>
            <trkpt lat="53.2744500" lon="-1.9186400"/>
            <trkpt lat="53.2744000" lon="-1.9186200"/>
            <trkpt lat="53.2743700" lon="-1.9186600"/>
            <trkpt lat="53.2743200" lon="-1.9186700"/>
            <trkpt lat="53.2742800" lon="-1.9186300"/>
            <trkpt lat="53.2742200" lon="-1.9186600"/>
            <trkpt lat="53.2738200" lon="-1.9186800"/>
            <trkpt lat="53.2737300" lon="-1.9187200"/>
            <trkpt lat="53.2734700" lon="-1.9186600"/>
            <trkpt lat="53.2732900" lon="-1.9186500"/>
            <trkpt lat="53.2731500" lon="-1.9187100"/>
            <trkpt lat="53.2730100" lon="-1.9187300"/>
            <trkpt lat="53.2728100" lon="-1.9187900"/>
            <trkpt lat="53.2725300" lon="-1.9189200"/>
            <trkpt lat="53.2722700" lon="-1.9189700"/>
            <trkpt lat="53.2721700" lon="-1.9189700"/>
            <trkpt lat="53.2721300" lon="-1.9190000"/>
            <trkpt lat="53.2721100" lon="-1.9190600"/>
            <trkpt lat="53.2720700" lon="-1.9193500"/>
            <trkpt lat="53.2720500" lon="-1.9196000"/>
            <trkpt lat="53.2720600" lon="-1.9198500"/>
            <trkpt lat="53.2720500" lon="-1.9199300"/>
            <trkpt lat="53.2719800" lon="-1.9200500"/>
            <trkpt lat="53.2718000" lon="-1.9201700"/>
            <trkpt lat="53.2716700" lon="-1.9201700"/>
            <trkpt lat="53.2711300" lon="-1.9199100"/>
            <trkpt lat="53.2709100" lon="-1.9198800"/>
            <trkpt lat="53.2707300" lon="-1.9197500"/>
            <trkpt lat="53.2705600" lon="-1.9195200"/>
            <trkpt lat="53.2704700" lon="-1.9194400"/>
            <trkpt lat="53.2702100" lon="-1.9193900"/>
            <trkpt lat="53.2700200" lon="-1.9192900"/>
            <trkpt lat="53.2697000" lon="-1.9190600"/>
            <trkpt lat="53.2689000" lon="-1.9184200"/>
            <trkpt lat="53.2686300" lon="-1.9181500"/>
            <trkpt lat="53.2684400" lon="-1.9179300"/>
            <trkpt lat="53.2683900" lon="-1.9178100"/>
            <trkpt lat="53.2680900" lon="-1.9172800"/>
            <trkpt lat="53.2675200" lon="-1.9163300"/>
            <trkpt lat="53.2670200" lon="-1.9156200"/>
            <trkpt lat="53.2664300" lon="-1.9149500"/>
            <trkpt lat="53.2663900" lon="-1.9149100"/>
            <trkpt lat="53.2663100" lon="-1.9148800"/>
            <trkpt lat="53.2662100" lon="-1.9149200"/>
            <trkpt lat="53.2661000" lon="-1.9150700"/>
            <trkpt lat="53.2647700" lon="-1.9166600"/>
            <trkpt lat="53.2646200" lon="-1.9168100"/>
            <trkpt lat="53.2645300" lon="-1.9168300"/>
            <trkpt lat="53.2644300" lon="-1.9168100"/>
            <trkpt lat="53.2643300" lon="-1.9166100"/>
            <trkpt lat="53.2641700" lon="-1.9164900"/>
            <trkpt lat="53.2640500" lon="-1.9166100"/>
            <trkpt lat="53.2639000" lon="-1.9169500"/>
            <trkpt lat="53.2637700" lon="-1.9170900"/>
            <trkpt lat="53.2637100" lon="-1.9171000"/>
            <trkpt lat="53.2634500" lon="-1.9169700"/>
            <trkpt lat="53.2632600" lon="-1.9169300"/>
            <trkpt lat="53.2631300" lon="-1.9166900"/>
            <trkpt lat="53.2628500" lon="-1.9163300"/>
            <trkpt lat="53.2624300" lon="-1.9156300"/>
            <trkpt lat="53.2620700" lon="-1.9149400"/>
            <trkpt lat="53.2615400" lon="-1.9142100"/>
            <trkpt lat="53.2614000" lon="-1.9139900"/>
            <trkpt lat="53.2612300" lon="-1.9138900"/>
            <trkpt lat="53.2609800" lon="-1.9141800"/>
            <trkpt lat="53.2609300" lon="-1.9142300"/>
            <trkpt lat="53.2608900" lon="-1.9142400"/>
            <trkpt lat="53.2606600" lon="-1.9141200"/>
            <trkpt lat="53.2605800" lon="-1.9139300"/>
            <trkpt lat="53.2604200" lon="-1.9137100"/>
            <trkpt lat="53.2604100" lon="-1.9136300"/>
            <trkpt lat="53.2604300" lon="-1.9135600"/>
            <trkpt lat="53.2605000" lon="-1.9134400"/>
            <trkpt lat="53.2605400" lon="-1.9132400"/>
        </trkseg>
    </trk>
</gpx>
