<?xml version="1.0" encoding="UTF-8" standalone="yes"?>
<gpx version="1.1" creator="OS Maps - Web" xmlns="http://www.topografix.com/GPX/1/1"
xmlns:xsi="http://www.w3.org/2001/XMLSchema-instance"
xsi:schemaLocation="http://www.topografix.com/GPX/1/1 http://www.topografix.com/GPX/1/1/gpx.xsd"
xmlns:gs="http://www.topografix.com/GPX/gpx_style/0/2"
xmlns:gh="https://graphhopper.com/public/schema/gpx/1.1"
xmlns:os="https://ordnancesurvey.co.uk/public/schema/route/0.1">
    <metadata>
        <name>Lantern Pike &amp; Cown Edge (Ethels) - Circular (www.thelostpeak.co.uk)</name>
        <desc></desc>
        <bounds minlat="53.3902100" minlon="-1.9840400" maxlat="53.4270100" maxlon="-1.9610100"/>
        <extensions>
            <os:version>2.0</os:version>
            <os:point lat="53.4157100" lon="-1.9663000" type="start"/>
            <os:point lat="53.4157100" lon="-1.9663000" type="end"/>
            <os:activity>ON_FOOT_WALKING</os:activity>
            <os:difficulty>MODERATE</os:difficulty>
            <os:paths/>
            <os:distance>10754.6165738</os:distance>
            <os:elevation_ascent>324.7800000</os:elevation_ascent>
        </extensions>
    </metadata>
    <wpt lat="53.4157100" lon="-1.9663000"/>
    <wpt lat="53.4157600" lon="-1.9653300"/>
    <wpt lat="53.4161400" lon="-1.9648900"/>
    <wpt lat="53.4172200" lon="-1.9658900"/>
    <wpt lat="53.4184500" lon="-1.9666100"/>
    <wpt lat="53.4211900" lon="-1.9668000"/>
    <wpt lat="53.4216800" lon="-1.9671800"/>
    <wpt lat="53.4235700" lon="-1.9668200"/>
    <wpt lat="53.4250600" lon="-1.9669000"/>
    <wpt lat="53.4266700" lon="-1.9680400"/>
    <wpt lat="53.4270100" lon="-1.9684900"/>
    <wpt lat="53.4266400" lon="-1.9688300"/>
    <wpt lat="53.4242900" lon="-1.9692100"/>
    <wpt lat="53.4231500" lon="-1.9701100"/>
    <wpt lat="53.4230200" lon="-1.9704200"/>
    <wpt lat="53.4236400" lon="-1.9710200"/>
    <wpt lat="53.4233500" lon="-1.9713400"/>
    <wpt lat="53.4220900" lon="-1.9717300"/>
    <wpt lat="53.4204600" lon="-1.9738300"/>
    <wpt lat="53.4205400" lon="-1.9754300"/>
    <wpt lat="53.4202100" lon="-1.9758000"/>
    <wpt lat="53.4197300" lon="-1.9756000"/>
    <wpt lat="53.4190600" lon="-1.9758100"/>
    <wpt lat="53.4167200" lon="-1.9788700"/>
    <wpt lat="53.4161000" lon="-1.9803800"/>
    <wpt lat="53.4121500" lon="-1.9832800"/>
    <wpt lat="53.4104800" lon="-1.9830700"/>
    <wpt lat="53.4080300" lon="-1.9834100"/>
    <wpt lat="53.4067700" lon="-1.9827400"/>
    <wpt lat="53.4047200" lon="-1.9824700"/>
    <wpt lat="53.4038300" lon="-1.9819600"/>
    <wpt lat="53.4024300" lon="-1.9820600"/>
    <wpt lat="53.4017400" lon="-1.9823700"/>
    <wpt lat="53.4006200" lon="-1.9822100"/>
    <wpt lat="53.4003500" lon="-1.9827000"/>
    <wpt lat="53.3997700" lon="-1.9819000"/>
    <wpt lat="53.3993000" lon="-1.9817400"/>
    <wpt lat="53.3982600" lon="-1.9840400"/>
    <wpt lat="53.3979600" lon="-1.9839200"/>
    <wpt lat="53.3979500" lon="-1.9833800"/>
    <wpt lat="53.3974800" lon="-1.9824300"/>
    <wpt lat="53.3973100" lon="-1.9816300"/>
    <wpt lat="53.3974800" lon="-1.9813800"/>
    <wpt lat="53.3980000" lon="-1.9787700"/>
    <wpt lat="53.3979800" lon="-1.9779300"/>
    <wpt lat="53.3976300" lon="-1.9773700"/>
    <wpt lat="53.3978800" lon="-1.9761900"/>
    <wpt lat="53.3980600" lon="-1.9738600"/>
    <wpt lat="53.3976600" lon="-1.9703500"/>
    <wpt lat="53.3978600" lon="-1.9682500"/>
    <wpt lat="53.3975700" lon="-1.9675100"/>
    <wpt lat="53.3973400" lon="-1.9661800"/>
    <wpt lat="53.3973100" lon="-1.9633600"/>
    <wpt lat="53.3939000" lon="-1.9610700"/>
    <wpt lat="53.3926900" lon="-1.9617000"/>
    <wpt lat="53.3919000" lon="-1.9610100"/>
    <wpt lat="53.3919600" lon="-1.9618600"/>
    <wpt lat="53.3907300" lon="-1.9623000"/>
    <wpt lat="53.3902100" lon="-1.9622300"/>
    <wpt lat="53.3907300" lon="-1.9623000"/>
    <wpt lat="53.3939000" lon="-1.9610700"/>
    <wpt lat="53.3973400" lon="-1.9633200"/>
    <wpt lat="53.3979100" lon="-1.9643200"/>
    <wpt lat="53.3983200" lon="-1.9646500"/>
    <wpt lat="53.4008000" lon="-1.9651300"/>
    <wpt lat="53.4018900" lon="-1.9646300"/>
    <wpt lat="53.4029000" lon="-1.9656200"/>
    <wpt lat="53.4067400" lon="-1.9683900"/>
    <wpt lat="53.4073500" lon="-1.9690300"/>
    <wpt lat="53.4080200" lon="-1.9693200"/>
    <wpt lat="53.4096400" lon="-1.9695100"/>
    <wpt lat="53.4109400" lon="-1.9682800"/>
    <wpt lat="53.4147800" lon="-1.9663800"/>
    <wpt lat="53.4157000" lon="-1.9665400"/>
    <wpt lat="53.4157100" lon="-1.9663000"/>
    <trk>
        <name>Lantern Pike &amp; Cown Edge (Ethels) - Circular (www.thelostpeak.co.uk)</name>
        <trkseg>
            <trkpt lat="53.4157100" lon="-1.9663000"><ele>330.0</ele></trkpt>
            <trkpt lat="53.4157000" lon="-1.9663300"><ele>330.0</ele></trkpt>
            <trkpt lat="53.4157600" lon="-1.9653300"><ele>328.7</ele></trkpt>
            <trkpt lat="53.4160500" lon="-1.9649500"><ele>329.1</ele></trkpt>
            <trkpt lat="53.4161400" lon="-1.9648900"><ele>329.3</ele></trkpt>
            <trkpt lat="53.4169600" lon="-1.9656900"><ele>338.5</ele></trkpt>
            <trkpt lat="53.4172200" lon="-1.9658900"><ele>343.0</ele></trkpt>
            <trkpt lat="53.4179700" lon="-1.9664100"><ele>350.8</ele></trkpt>
            <trkpt lat="53.4182700" lon="-1.9665500"><ele>352.9</ele></trkpt>
            <trkpt lat="53.4184500" lon="-1.9666100"><ele>354.4</ele></trkpt>
            <trkpt lat="53.4189200" lon="-1.9667300"><ele>357.2</ele></trkpt>
            <trkpt lat="53.4193900" lon="-1.9668100"><ele>357.4</ele></trkpt>
            <trkpt lat="53.4201600" lon="-1.9668100"><ele>356.5</ele></trkpt>
            <trkpt lat="53.4209300" lon="-1.9667800"><ele>353.2</ele></trkpt>
            <trkpt lat="53.4211900" lon="-1.9668000"><ele>353.2</ele></trkpt>
            <trkpt lat="53.4213600" lon="-1.9669100"><ele>353.3</ele></trkpt>
            <trkpt lat="53.4214700" lon="-1.9670500"><ele>354.0</ele></trkpt>
            <trkpt lat="53.4215800" lon="-1.9671400"><ele>355.2</ele></trkpt>
            <trkpt lat="53.4216800" lon="-1.9671800"><ele>355.8</ele></trkpt>
            <trkpt lat="53.4219100" lon="-1.9671500"><ele>356.6</ele></trkpt>
            <trkpt lat="53.4230400" lon="-1.9668900"><ele>366.5</ele></trkpt>
            <trkpt lat="53.4235700" lon="-1.9668200"><ele>369.0</ele></trkpt>
            <trkpt lat="53.4238900" lon="-1.9668000"><ele>369.6</ele></trkpt>
            <trkpt lat="53.4250600" lon="-1.9669000"><ele>373.7</ele></trkpt>
            <trkpt lat="53.4252600" lon="-1.9669700"><ele>372.6</ele></trkpt>
            <trkpt lat="53.4256300" lon="-1.9672600"><ele>372.0</ele></trkpt>
            <trkpt lat="53.4262500" lon="-1.9677900"><ele>368.4</ele></trkpt>
            <trkpt lat="53.4266700" lon="-1.9680400"><ele>368.2</ele></trkpt>
            <trkpt lat="53.4268200" lon="-1.9681900"><ele>368.2</ele></trkpt>
            <trkpt lat="53.4269200" lon="-1.9683300"><ele>367.4</ele></trkpt>
            <trkpt lat="53.4270100" lon="-1.9684900"><ele>366.1</ele></trkpt>
            <trkpt lat="53.4269800" lon="-1.9685500"><ele>366.9</ele></trkpt>
            <trkpt lat="53.4266400" lon="-1.9688300"><ele>380.3</ele></trkpt>
            <trkpt lat="53.4256100" lon="-1.9689900"><ele>401.6</ele></trkpt>
            <trkpt lat="53.4254500" lon="-1.9690900"><ele>403.4</ele></trkpt>
            <trkpt lat="53.4251100" lon="-1.9691600"><ele>405.1</ele></trkpt>
            <trkpt lat="53.4242900" lon="-1.9692100"><ele>405.9</ele></trkpt>
            <trkpt lat="53.4235500" lon="-1.9697800"><ele>402.4</ele></trkpt>
            <trkpt lat="53.4234400" lon="-1.9699100"><ele>402.5</ele></trkpt>
            <trkpt lat="53.4232600" lon="-1.9700800"><ele>402.4</ele></trkpt>
            <trkpt lat="53.4231500" lon="-1.9701100"><ele>401.6</ele></trkpt>
            <trkpt lat="53.4230500" lon="-1.9703200"><ele>401.7</ele></trkpt>
            <trkpt lat="53.4230200" lon="-1.9704200"><ele>402.0</ele></trkpt>
            <trkpt lat="53.4231100" lon="-1.9704100"><ele>402.4</ele></trkpt>
            <trkpt lat="53.4232300" lon="-1.9704500"><ele>403.3</ele></trkpt>
            <trkpt lat="53.4233200" lon="-1.9705500"><ele>403.2</ele></trkpt>
            <trkpt lat="53.4236400" lon="-1.9710200"><ele>401.6</ele></trkpt>
            <trkpt lat="53.4233500" lon="-1.9713400"><ele>402.0</ele></trkpt>
            <trkpt lat="53.4220900" lon="-1.9717300"><ele>402.4</ele></trkpt>
            <trkpt lat="53.4219300" lon="-1.9720300"><ele>401.6</ele></trkpt>
            <trkpt lat="53.4212300" lon="-1.9728500"><ele>397.9</ele></trkpt>
            <trkpt lat="53.4204600" lon="-1.9738300"><ele>393.7</ele></trkpt>
            <trkpt lat="53.4205900" lon="-1.9746600"><ele>394.1</ele></trkpt>
            <trkpt lat="53.4205800" lon="-1.9749700"><ele>393.8</ele></trkpt>
            <trkpt lat="53.4205900" lon="-1.9753500"><ele>394.2</ele></trkpt>
            <trkpt lat="53.4205400" lon="-1.9754300"><ele>393.8</ele></trkpt>
            <trkpt lat="53.4202300" lon="-1.9757500"><ele>394.0</ele></trkpt>
            <trkpt lat="53.4202100" lon="-1.9758000"><ele>394.3</ele></trkpt>
            <trkpt lat="53.4200800" lon="-1.9756700"><ele>394.1</ele></trkpt>
            <trkpt lat="53.4197300" lon="-1.9756000"><ele>393.2</ele></trkpt>
            <trkpt lat="53.4192600" lon="-1.9756400"><ele>392.1</ele></trkpt>
            <trkpt lat="53.4190600" lon="-1.9758100"><ele>393.1</ele></trkpt>
            <trkpt lat="53.4186100" lon="-1.9764300"><ele>393.0</ele></trkpt>
            <trkpt lat="53.4177200" lon="-1.9775000"><ele>388.2</ele></trkpt>
            <trkpt lat="53.4174100" lon="-1.9779900"><ele>386.1</ele></trkpt>
            <trkpt lat="53.4171400" lon="-1.9782800"><ele>384.0</ele></trkpt>
            <trkpt lat="53.4167200" lon="-1.9788700"><ele>382.6</ele></trkpt>
            <trkpt lat="53.4166200" lon="-1.9790900"><ele>382.5</ele></trkpt>
            <trkpt lat="53.4164300" lon="-1.9793700"><ele>381.6</ele></trkpt>
            <trkpt lat="53.4161900" lon="-1.9801100"><ele>380.8</ele></trkpt>
            <trkpt lat="53.4161700" lon="-1.9803000"><ele>379.6</ele></trkpt>
            <trkpt lat="53.4161200" lon="-1.9803400"><ele>379.2</ele></trkpt>
            <trkpt lat="53.4161000" lon="-1.9803800"><ele>379.0</ele></trkpt>
            <trkpt lat="53.4160500" lon="-1.9804200"><ele>378.8</ele></trkpt>
            <trkpt lat="53.4158800" lon="-1.9805000"><ele>379.1</ele></trkpt>
            <trkpt lat="53.4154500" lon="-1.9808000"><ele>378.5</ele></trkpt>
            <trkpt lat="53.4151000" lon="-1.9809800"><ele>376.8</ele></trkpt>
            <trkpt lat="53.4150700" lon="-1.9810600"><ele>376.4</ele></trkpt>
            <trkpt lat="53.4150400" lon="-1.9810900"><ele>376.4</ele></trkpt>
            <trkpt lat="53.4137200" lon="-1.9821400"><ele>370.7</ele></trkpt>
            <trkpt lat="53.4129300" lon="-1.9826800"><ele>364.6</ele></trkpt>
            <trkpt lat="53.4125900" lon="-1.9829600"><ele>363.0</ele></trkpt>
            <trkpt lat="53.4121500" lon="-1.9832800"><ele>363.7</ele></trkpt>
            <trkpt lat="53.4119000" lon="-1.9833300"><ele>362.0</ele></trkpt>
            <trkpt lat="53.4115500" lon="-1.9833100"><ele>359.4</ele></trkpt>
            <trkpt lat="53.4111800" lon="-1.9832400"><ele>360.1</ele></trkpt>
            <trkpt lat="53.4108400" lon="-1.9831400"><ele>360.1</ele></trkpt>
            <trkpt lat="53.4104800" lon="-1.9830700"><ele>359.8</ele></trkpt>
            <trkpt lat="53.4099700" lon="-1.9831200"><ele>357.1</ele></trkpt>
            <trkpt lat="53.4095900" lon="-1.9831900"><ele>354.7</ele></trkpt>
            <trkpt lat="53.4090900" lon="-1.9833600"><ele>354.2</ele></trkpt>
            <trkpt lat="53.4086900" lon="-1.9834600"><ele>350.1</ele></trkpt>
            <trkpt lat="53.4082300" lon="-1.9833400"><ele>347.1</ele></trkpt>
            <trkpt lat="53.4080300" lon="-1.9834100"><ele>345.2</ele></trkpt>
            <trkpt lat="53.4079200" lon="-1.9833700"><ele>344.5</ele></trkpt>
            <trkpt lat="53.4078000" lon="-1.9833700"><ele>343.6</ele></trkpt>
            <trkpt lat="53.4076100" lon="-1.9831600"><ele>341.5</ele></trkpt>
            <trkpt lat="53.4075000" lon="-1.9831200"><ele>339.7</ele></trkpt>
            <trkpt lat="53.4073200" lon="-1.9830900"><ele>337.3</ele></trkpt>
            <trkpt lat="53.4071500" lon="-1.9830200"><ele>335.5</ele></trkpt>
            <trkpt lat="53.4067700" lon="-1.9827400"><ele>333.1</ele></trkpt>
            <trkpt lat="53.4065900" lon="-1.9827200"><ele>331.2</ele></trkpt>
            <trkpt lat="53.4060300" lon="-1.9827300"><ele>325.1</ele></trkpt>
            <trkpt lat="53.4057400" lon="-1.9826100"><ele>322.4</ele></trkpt>
            <trkpt lat="53.4054800" lon="-1.9825500"><ele>319.7</ele></trkpt>
            <trkpt lat="53.4052400" lon="-1.9825200"><ele>317.3</ele></trkpt>
            <trkpt lat="53.4051100" lon="-1.9825500"><ele>316.2</ele></trkpt>
            <trkpt lat="53.4047200" lon="-1.9824700"><ele>311.3</ele></trkpt>
            <trkpt lat="53.4045600" lon="-1.9824000"><ele>308.3</ele></trkpt>
            <trkpt lat="53.4042600" lon="-1.9821500"><ele>301.6</ele></trkpt>
            <trkpt lat="53.4041500" lon="-1.9820900"><ele>299.4</ele></trkpt>
            <trkpt lat="53.4040400" lon="-1.9820700"><ele>297.1</ele></trkpt>
            <trkpt lat="53.4038300" lon="-1.9819600"><ele>292.1</ele></trkpt>
            <trkpt lat="53.4038000" lon="-1.9819600"><ele>291.0</ele></trkpt>
            <trkpt lat="53.4036900" lon="-1.9820700"><ele>289.4</ele></trkpt>
            <trkpt lat="53.4035500" lon="-1.9820900"><ele>286.2</ele></trkpt>
            <trkpt lat="53.4034100" lon="-1.9820600"><ele>281.7</ele></trkpt>
            <trkpt lat="53.4032100" lon="-1.9821200"><ele>274.7</ele></trkpt>
            <trkpt lat="53.4030300" lon="-1.9821100"><ele>268.6</ele></trkpt>
            <trkpt lat="53.4029400" lon="-1.9820600"><ele>266.7</ele></trkpt>
            <trkpt lat="53.4027900" lon="-1.9820200"><ele>263.6</ele></trkpt>
            <trkpt lat="53.4024300" lon="-1.9820600"><ele>256.9</ele></trkpt>
            <trkpt lat="53.4023300" lon="-1.9820800"><ele>254.3</ele></trkpt>
            <trkpt lat="53.4022400" lon="-1.9821700"><ele>251.2</ele></trkpt>
            <trkpt lat="53.4020500" lon="-1.9822600"><ele>246.4</ele></trkpt>
            <trkpt lat="53.4018700" lon="-1.9823100"><ele>242.6</ele></trkpt>
            <trkpt lat="53.4017400" lon="-1.9823700"><ele>240.8</ele></trkpt>
            <trkpt lat="53.4014100" lon="-1.9823500"><ele>234.6</ele></trkpt>
            <trkpt lat="53.4006200" lon="-1.9822100"><ele>226.0</ele></trkpt>
            <trkpt lat="53.4003500" lon="-1.9827000"><ele>225.1</ele></trkpt>
            <trkpt lat="53.3997700" lon="-1.9819000"><ele>216.6</ele></trkpt>
            <trkpt lat="53.3993000" lon="-1.9817400"><ele>212.9</ele></trkpt>
            <trkpt lat="53.3992200" lon="-1.9818100"><ele>212.5</ele></trkpt>
            <trkpt lat="53.3990600" lon="-1.9823100"><ele>211.9</ele></trkpt>
            <trkpt lat="53.3990300" lon="-1.9823800"><ele>211.6</ele></trkpt>
            <trkpt lat="53.3990100" lon="-1.9823700"><ele>211.3</ele></trkpt>
            <trkpt lat="53.3988300" lon="-1.9828400"><ele>209.0</ele></trkpt>
            <trkpt lat="53.3987100" lon="-1.9831100"><ele>208.1</ele></trkpt>
            <trkpt lat="53.3986300" lon="-1.9832700"><ele>207.7</ele></trkpt>
            <trkpt lat="53.3985800" lon="-1.9833400"><ele>207.5</ele></trkpt>
            <trkpt lat="53.3984800" lon="-1.9834000"><ele>207.0</ele></trkpt>
            <trkpt lat="53.3982600" lon="-1.9840400"><ele>205.0</ele></trkpt>
            <trkpt lat="53.3981400" lon="-1.9839500"><ele>204.3</ele></trkpt>
            <trkpt lat="53.3980700" lon="-1.9838400"><ele>204.6</ele></trkpt>
            <trkpt lat="53.3980200" lon="-1.9839300"><ele>204.1</ele></trkpt>
            <trkpt lat="53.3979600" lon="-1.9839200"><ele>204.1</ele></trkpt>
            <trkpt lat="53.3979500" lon="-1.9838000"><ele>204.7</ele></trkpt>
            <trkpt lat="53.3979600" lon="-1.9835100"><ele>205.8</ele></trkpt>
            <trkpt lat="53.3979500" lon="-1.9833800"><ele>206.3</ele></trkpt>
            <trkpt lat="53.3978600" lon="-1.9830800"><ele>207.4</ele></trkpt>
            <trkpt lat="53.3977000" lon="-1.9827700"><ele>208.6</ele></trkpt>
            <trkpt lat="53.3974800" lon="-1.9824300"><ele>210.1</ele></trkpt>
            <trkpt lat="53.3973900" lon="-1.9821500"><ele>211.6</ele></trkpt>
            <trkpt lat="53.3973800" lon="-1.9817700"><ele>212.0</ele></trkpt>
            <trkpt lat="53.3973100" lon="-1.9816300"><ele>212.0</ele></trkpt>
            <trkpt lat="53.3973500" lon="-1.9815800"><ele>212.0</ele></trkpt>
            <trkpt lat="53.3973800" lon="-1.9815100"><ele>212.2</ele></trkpt>
            <trkpt lat="53.3974800" lon="-1.9813800"><ele>212.7</ele></trkpt>
            <trkpt lat="53.3975700" lon="-1.9809000"><ele>215.2</ele></trkpt>
            <trkpt lat="53.3976200" lon="-1.9807100"><ele>216.6</ele></trkpt>
            <trkpt lat="53.3976600" lon="-1.9804600"><ele>218.4</ele></trkpt>
            <trkpt lat="53.3977200" lon="-1.9802000"><ele>220.5</ele></trkpt>
            <trkpt lat="53.3978000" lon="-1.9796900"><ele>226.4</ele></trkpt>
            <trkpt lat="53.3980000" lon="-1.9787700"><ele>232.9</ele></trkpt>
            <trkpt lat="53.3979800" lon="-1.9779300"><ele>238.2</ele></trkpt>
            <trkpt lat="53.3976500" lon="-1.9774400"><ele>244.1</ele></trkpt>
            <trkpt lat="53.3976300" lon="-1.9773700"><ele>244.3</ele></trkpt>
            <trkpt lat="53.3978800" lon="-1.9761900"><ele>247.9</ele></trkpt>
            <trkpt lat="53.3979000" lon="-1.9754700"><ele>253.0</ele></trkpt>
            <trkpt lat="53.3978900" lon="-1.9749700"><ele>257.0</ele></trkpt>
            <trkpt lat="53.3979200" lon="-1.9749200"><ele>256.4</ele></trkpt>
            <trkpt lat="53.3980600" lon="-1.9738600"><ele>259.1</ele></trkpt>
            <trkpt lat="53.3980000" lon="-1.9727900"><ele>262.4</ele></trkpt>
            <trkpt lat="53.3976600" lon="-1.9703500"><ele>269.0</ele></trkpt>
            <trkpt lat="53.3978600" lon="-1.9682500"><ele>264.8</ele></trkpt>
            <trkpt lat="53.3975700" lon="-1.9675100"><ele>264.9</ele></trkpt>
            <trkpt lat="53.3973400" lon="-1.9661800"><ele>269.5</ele></trkpt>
            <trkpt lat="53.3973200" lon="-1.9634100"><ele>287.3</ele></trkpt>
            <trkpt lat="53.3973100" lon="-1.9633600"><ele>287.5</ele></trkpt>
            <trkpt lat="53.3970900" lon="-1.9632600"><ele>288.1</ele></trkpt>
            <trkpt lat="53.3963200" lon="-1.9627800"><ele>291.7</ele></trkpt>
            <trkpt lat="53.3957900" lon="-1.9622800"><ele>297.5</ele></trkpt>
            <trkpt lat="53.3943300" lon="-1.9613200"><ele>309.2</ele></trkpt>
            <trkpt lat="53.3939000" lon="-1.9610700"><ele>311.7</ele></trkpt>
            <trkpt lat="53.3936100" lon="-1.9611500"><ele>313.3</ele></trkpt>
            <trkpt lat="53.3934000" lon="-1.9613800"><ele>316.9</ele></trkpt>
            <trkpt lat="53.3932600" lon="-1.9614500"><ele>319.6</ele></trkpt>
            <trkpt lat="53.3930400" lon="-1.9615200"><ele>324.0</ele></trkpt>
            <trkpt lat="53.3928500" lon="-1.9616800"><ele>328.0</ele></trkpt>
            <trkpt lat="53.3927900" lon="-1.9617000"><ele>329.4</ele></trkpt>
            <trkpt lat="53.3926900" lon="-1.9617000"><ele>331.5</ele></trkpt>
            <trkpt lat="53.3924900" lon="-1.9615500"><ele>335.5</ele></trkpt>
            <trkpt lat="53.3919000" lon="-1.9610100"><ele>341.7</ele></trkpt>
            <trkpt lat="53.3918500" lon="-1.9611400"><ele>343.7</ele></trkpt>
            <trkpt lat="53.3918600" lon="-1.9613000"><ele>345.4</ele></trkpt>
            <trkpt lat="53.3919800" lon="-1.9615900"><ele>346.8</ele></trkpt>
            <trkpt lat="53.3920200" lon="-1.9617300"><ele>347.4</ele></trkpt>
            <trkpt lat="53.3919600" lon="-1.9618600"><ele>349.1</ele></trkpt>
            <trkpt lat="53.3918100" lon="-1.9619200"><ele>352.3</ele></trkpt>
            <trkpt lat="53.3916300" lon="-1.9620300"><ele>356.6</ele></trkpt>
            <trkpt lat="53.3915700" lon="-1.9620500"><ele>357.7</ele></trkpt>
            <trkpt lat="53.3914700" lon="-1.9620500"><ele>359.1</ele></trkpt>
            <trkpt lat="53.3913900" lon="-1.9620900"><ele>360.4</ele></trkpt>
            <trkpt lat="53.3912400" lon="-1.9620900"><ele>362.0</ele></trkpt>
            <trkpt lat="53.3911100" lon="-1.9621900"><ele>363.4</ele></trkpt>
            <trkpt lat="53.3907300" lon="-1.9623000"><ele>368.0</ele></trkpt>
            <trkpt lat="53.3906200" lon="-1.9623100"><ele>369.8</ele></trkpt>
            <trkpt lat="53.3903500" lon="-1.9622400"><ele>371.8</ele></trkpt>
            <trkpt lat="53.3902100" lon="-1.9622300"><ele>371.0</ele></trkpt>
            <trkpt lat="53.3903500" lon="-1.9622400"><ele>371.8</ele></trkpt>
            <trkpt lat="53.3906200" lon="-1.9623100"><ele>369.8</ele></trkpt>
            <trkpt lat="53.3907300" lon="-1.9623000"><ele>368.0</ele></trkpt>
            <trkpt lat="53.3911100" lon="-1.9621900"><ele>363.4</ele></trkpt>
            <trkpt lat="53.3912400" lon="-1.9620900"><ele>362.0</ele></trkpt>
            <trkpt lat="53.3913900" lon="-1.9620900"><ele>360.4</ele></trkpt>
            <trkpt lat="53.3914700" lon="-1.9620500"><ele>359.1</ele></trkpt>
            <trkpt lat="53.3915700" lon="-1.9620500"><ele>357.7</ele></trkpt>
            <trkpt lat="53.3916300" lon="-1.9620300"><ele>356.6</ele></trkpt>
            <trkpt lat="53.3919200" lon="-1.9618700"><ele>350.0</ele></trkpt>
            <trkpt lat="53.3921400" lon="-1.9618100"><ele>346.0</ele></trkpt>
            <trkpt lat="53.3923100" lon="-1.9617000"><ele>341.3</ele></trkpt>
            <trkpt lat="53.3925000" lon="-1.9617000"><ele>335.7</ele></trkpt>
            <trkpt lat="53.3926500" lon="-1.9617300"><ele>332.3</ele></trkpt>
            <trkpt lat="53.3926900" lon="-1.9617000"><ele>331.5</ele></trkpt>
            <trkpt lat="53.3927900" lon="-1.9617000"><ele>329.4</ele></trkpt>
            <trkpt lat="53.3928500" lon="-1.9616800"><ele>328.0</ele></trkpt>
            <trkpt lat="53.3930400" lon="-1.9615200"><ele>324.0</ele></trkpt>
            <trkpt lat="53.3932600" lon="-1.9614500"><ele>319.6</ele></trkpt>
            <trkpt lat="53.3934000" lon="-1.9613800"><ele>316.9</ele></trkpt>
            <trkpt lat="53.3936100" lon="-1.9611500"><ele>313.3</ele></trkpt>
            <trkpt lat="53.3939000" lon="-1.9610700"><ele>311.7</ele></trkpt>
            <trkpt lat="53.3943300" lon="-1.9613200"><ele>309.2</ele></trkpt>
            <trkpt lat="53.3957900" lon="-1.9622800"><ele>297.5</ele></trkpt>
            <trkpt lat="53.3963200" lon="-1.9627800"><ele>291.7</ele></trkpt>
            <trkpt lat="53.3970900" lon="-1.9632600"><ele>288.1</ele></trkpt>
            <trkpt lat="53.3973100" lon="-1.9633600"><ele>287.5</ele></trkpt>
            <trkpt lat="53.3973400" lon="-1.9633200"><ele>287.6</ele></trkpt>
            <trkpt lat="53.3976300" lon="-1.9638900"><ele>284.2</ele></trkpt>
            <trkpt lat="53.3978000" lon="-1.9641700"><ele>282.2</ele></trkpt>
            <trkpt lat="53.3979100" lon="-1.9643200"><ele>281.4</ele></trkpt>
            <trkpt lat="53.3983200" lon="-1.9646500"><ele>281.1</ele></trkpt>
            <trkpt lat="53.3986400" lon="-1.9647500"><ele>282.9</ele></trkpt>
            <trkpt lat="53.3987600" lon="-1.9647600"><ele>283.4</ele></trkpt>
            <trkpt lat="53.3995700" lon="-1.9649400"><ele>287.0</ele></trkpt>
            <trkpt lat="53.4002400" lon="-1.9650200"><ele>289.0</ele></trkpt>
            <trkpt lat="53.4008000" lon="-1.9651300"><ele>290.1</ele></trkpt>
            <trkpt lat="53.4009600" lon="-1.9651200"><ele>290.7</ele></trkpt>
            <trkpt lat="53.4011000" lon="-1.9650700"><ele>291.4</ele></trkpt>
            <trkpt lat="53.4015500" lon="-1.9647600"><ele>292.9</ele></trkpt>
            <trkpt lat="53.4016900" lon="-1.9646900"><ele>293.5</ele></trkpt>
            <trkpt lat="53.4018900" lon="-1.9646300"><ele>294.8</ele></trkpt>
            <trkpt lat="53.4021900" lon="-1.9648600"><ele>295.3</ele></trkpt>
            <trkpt lat="53.4027400" lon="-1.9653600"><ele>297.3</ele></trkpt>
            <trkpt lat="53.4027900" lon="-1.9654100"><ele>297.5</ele></trkpt>
            <trkpt lat="53.4028300" lon="-1.9655500"><ele>297.4</ele></trkpt>
            <trkpt lat="53.4029000" lon="-1.9656200"><ele>297.4</ele></trkpt>
            <trkpt lat="53.4038100" lon="-1.9662300"><ele>298.4</ele></trkpt>
            <trkpt lat="53.4040500" lon="-1.9664100"><ele>298.9</ele></trkpt>
            <trkpt lat="53.4042200" lon="-1.9665100"><ele>299.1</ele></trkpt>
            <trkpt lat="53.4046600" lon="-1.9669000"><ele>298.0</ele></trkpt>
            <trkpt lat="53.4047100" lon="-1.9669800"><ele>298.0</ele></trkpt>
            <trkpt lat="53.4047700" lon="-1.9670300"><ele>297.5</ele></trkpt>
            <trkpt lat="53.4054100" lon="-1.9674400"><ele>300.6</ele></trkpt>
            <trkpt lat="53.4058300" lon="-1.9677600"><ele>301.8</ele></trkpt>
            <trkpt lat="53.4060800" lon="-1.9679900"><ele>301.5</ele></trkpt>
            <trkpt lat="53.4062400" lon="-1.9681000"><ele>300.4</ele></trkpt>
            <trkpt lat="53.4065400" lon="-1.9682600"><ele>301.8</ele></trkpt>
            <trkpt lat="53.4067400" lon="-1.9683900"><ele>302.9</ele></trkpt>
            <trkpt lat="53.4069300" lon="-1.9685800"><ele>303.8</ele></trkpt>
            <trkpt lat="53.4072300" lon="-1.9688400"><ele>306.9</ele></trkpt>
            <trkpt lat="53.4073200" lon="-1.9689600"><ele>306.4</ele></trkpt>
            <trkpt lat="53.4073500" lon="-1.9690300"><ele>306.2</ele></trkpt>
            <trkpt lat="53.4076200" lon="-1.9691600"><ele>307.7</ele></trkpt>
            <trkpt lat="53.4077300" lon="-1.9692400"><ele>308.1</ele></trkpt>
            <trkpt lat="53.4078600" lon="-1.9692900"><ele>308.7</ele></trkpt>
            <trkpt lat="53.4080200" lon="-1.9693200"><ele>309.2</ele></trkpt>
            <trkpt lat="53.4086500" lon="-1.9693200"><ele>314.0</ele></trkpt>
            <trkpt lat="53.4088200" lon="-1.9694000"><ele>315.3</ele></trkpt>
            <trkpt lat="53.4090800" lon="-1.9694800"><ele>317.0</ele></trkpt>
            <trkpt lat="53.4096400" lon="-1.9695100"><ele>321.6</ele></trkpt>
            <trkpt lat="53.4097700" lon="-1.9694100"><ele>323.5</ele></trkpt>
            <trkpt lat="53.4099200" lon="-1.9692500"><ele>326.0</ele></trkpt>
            <trkpt lat="53.4103100" lon="-1.9687600"><ele>328.9</ele></trkpt>
            <trkpt lat="53.4104900" lon="-1.9685700"><ele>330.1</ele></trkpt>
            <trkpt lat="53.4107300" lon="-1.9684400"><ele>331.7</ele></trkpt>
            <trkpt lat="53.4109400" lon="-1.9682800"><ele>332.6</ele></trkpt>
            <trkpt lat="53.4117000" lon="-1.9679200"><ele>331.8</ele></trkpt>
            <trkpt lat="53.4147800" lon="-1.9663800"><ele>327.6</ele></trkpt>
            <trkpt lat="53.4149300" lon="-1.9663300"><ele>327.2</ele></trkpt>
            <trkpt lat="53.4151300" lon="-1.9663700"><ele>328.1</ele></trkpt>
            <trkpt lat="53.4157000" lon="-1.9665400"><ele>330.0</ele></trkpt>
            <trkpt lat="53.4157000" lon="-1.9663300"><ele>330.0</ele></trkpt>
            <trkpt lat="53.4157100" lon="-1.9663000"><ele>330.0</ele></trkpt>
        </trkseg>
    </trk>
<!-- ele-hash:45297ae90f609852 -->
</gpx>
