<?xml version="1.0" encoding="UTF-8" standalone="yes"?>
<gpx version="1.1" creator="OS Maps - Web" xmlns="http://www.topografix.com/GPX/1/1"
xmlns:xsi="http://www.w3.org/2001/XMLSchema-instance"
xsi:schemaLocation="http://www.topografix.com/GPX/1/1 http://www.topografix.com/GPX/1/1/gpx.xsd"
xmlns:gs="http://www.topografix.com/GPX/gpx_style/0/2"
xmlns:gh="https://graphhopper.com/public/schema/gpx/1.1"
xmlns:os="https://ordnancesurvey.co.uk/public/schema/route/0.1">
    <metadata>
        <name>Croker Hill (Ethel) - Circular (www.thelostpeak.co.uk)</name>
        <desc>www.thelostpeak.co.uk</desc>
        <bounds minlat="53.1854420" minlon="-2.1274170" maxlat="53.2080610" maxlon="-2.0941310"/>
        <extensions>
            <os:version>2.0</os:version>
            <os:point lat="53.1906900" lon="-2.1247140" type="start"/>
            <os:point lat="53.1906680" lon="-2.1246920" type="end"/>
            <os:activity>ON_FOOT_WALKING</os:activity>
            <os:difficulty>MODERATE</os:difficulty>
            <os:paths/>
            <os:distance>8641.3869308</os:distance>
            <os:elevation_ascent>260.4600000</os:elevation_ascent>
        </extensions>
    </metadata>
    <wpt lat="53.1906900" lon="-2.1247140"/>
    <wpt lat="53.1910260" lon="-2.1238330"/>
    <wpt lat="53.1919960" lon="-2.1240280"/>
    <wpt lat="53.1923420" lon="-2.1243260"/>
    <wpt lat="53.1934250" lon="-2.1261720"/>
    <wpt lat="53.1953830" lon="-2.1273480"/>
    <wpt lat="53.1957330" lon="-2.1272390"/>
    <wpt lat="53.1961270" lon="-2.1256060"/>
    <wpt lat="53.1955600" lon="-2.1251340"/>
    <wpt lat="53.1952170" lon="-2.1242180"/>
    <wpt lat="53.1951300" lon="-2.1236070"/>
    <wpt lat="53.1953170" lon="-2.1228940"/>
    <wpt lat="53.1958680" lon="-2.1223000"/>
    <wpt lat="53.1961670" lon="-2.1223560"/>
    <wpt lat="53.1968940" lon="-2.1231150"/>
    <wpt lat="53.1972030" lon="-2.1242690"/>
    <wpt lat="53.1973760" lon="-2.1244300"/>
    <wpt lat="53.1975100" lon="-2.1240370"/>
    <wpt lat="53.1973400" lon="-2.1224440"/>
    <wpt lat="53.1964610" lon="-2.1207320"/>
    <wpt lat="53.1959420" lon="-2.1202190"/>
    <wpt lat="53.1951760" lon="-2.1199590"/>
    <wpt lat="53.1951830" lon="-2.1189370"/>
    <wpt lat="53.1954110" lon="-2.1179060"/>
    <wpt lat="53.1961590" lon="-2.1171630"/>
    <wpt lat="53.1977540" lon="-2.1167600"/>
    <wpt lat="53.1982590" lon="-2.1160610"/>
    <wpt lat="53.1989210" lon="-2.1143710"/>
    <wpt lat="53.1988910" lon="-2.1145240"/>
    <wpt lat="53.1990690" lon="-2.1145460"/>
    <wpt lat="53.1996770" lon="-2.1137860"/>
    <wpt lat="53.2003090" lon="-2.1134880"/>
    <wpt lat="53.2006120" lon="-2.1123300"/>
    <wpt lat="53.2015350" lon="-2.1120590"/>
    <wpt lat="53.2015680" lon="-2.1113030"/>
    <wpt lat="53.2017230" lon="-2.1109360"/>
    <wpt lat="53.2031360" lon="-2.1101170"/>
    <wpt lat="53.2031460" lon="-2.1094820"/>
    <wpt lat="53.2038520" lon="-2.1074190"/>
    <wpt lat="53.2048820" lon="-2.1063470"/>
    <wpt lat="53.2048590" lon="-2.1060120"/>
    <wpt lat="53.2053520" lon="-2.1051250"/>
    <wpt lat="53.2079850" lon="-2.1025040"/>
    <wpt lat="53.2080510" lon="-2.1020800"/>
    <wpt lat="53.2077850" lon="-2.1011940"/>
    <wpt lat="53.2065360" lon="-2.1000500"/>
    <wpt lat="53.2041400" lon="-2.1001400"/>
    <wpt lat="53.2032050" lon="-2.0987830"/>
    <wpt lat="53.2024580" lon="-2.0983950"/>
    <wpt lat="53.2023340" lon="-2.0974840"/>
    <wpt lat="53.2018650" lon="-2.0974050"/>
    <wpt lat="53.2017570" lon="-2.0971440"/>
    <wpt lat="53.2017410" lon="-2.0963610"/>
    <wpt lat="53.2019830" lon="-2.0956900"/>
    <wpt lat="53.2017920" lon="-2.0941310"/>
    <wpt lat="53.1965770" lon="-2.1007900"/>
    <wpt lat="53.1963790" lon="-2.1013390"/>
    <wpt lat="53.1962210" lon="-2.1029150"/>
    <wpt lat="53.1957320" lon="-2.1039040"/>
    <wpt lat="53.1946830" lon="-2.1050910"/>
    <wpt lat="53.1938440" lon="-2.1072740"/>
    <wpt lat="53.1934770" lon="-2.1091290"/>
    <wpt lat="53.1930760" lon="-2.1098470"/>
    <wpt lat="53.1927220" lon="-2.1099610"/>
    <wpt lat="53.1919730" lon="-2.1096900"/>
    <wpt lat="53.1903870" lon="-2.1109230"/>
    <wpt lat="53.1899400" lon="-2.1106150"/>
    <wpt lat="53.1893560" lon="-2.1093610"/>
    <wpt lat="53.1890100" lon="-2.1091210"/>
    <wpt lat="53.1872860" lon="-2.1093730"/>
    <wpt lat="53.1867710" lon="-2.1113040"/>
    <wpt lat="53.1860970" lon="-2.1119320"/>
    <wpt lat="53.1854600" lon="-2.1155430"/>
    <wpt lat="53.1859120" lon="-2.1157680"/>
    <wpt lat="53.1868800" lon="-2.1157620"/>
    <wpt lat="53.1873350" lon="-2.1160340"/>
    <wpt lat="53.1881370" lon="-2.1172230"/>
    <wpt lat="53.1894160" lon="-2.1197270"/>
    <wpt lat="53.1900360" lon="-2.1201920"/>
    <wpt lat="53.1902030" lon="-2.1205000"/>
    <wpt lat="53.1900380" lon="-2.1210630"/>
    <wpt lat="53.1903940" lon="-2.1227080"/>
    <wpt lat="53.1909410" lon="-2.1238240"/>
    <wpt lat="53.1906680" lon="-2.1246920"/>
    <trk>
        <name>Croker Hill (Ethel) - Circular (www.thelostpeak.co.uk)</name>
        <trkseg>
            <trkpt lat="53.1906900" lon="-2.1247140"/>
            <trkpt lat="53.1907620" lon="-2.1244870"/>
            <trkpt lat="53.1908230" lon="-2.1243580"/>
            <trkpt lat="53.1908720" lon="-2.1242140"/>
            <trkpt lat="53.1909440" lon="-2.1239030"/>
            <trkpt lat="53.1910260" lon="-2.1238330"/>
            <trkpt lat="53.1911210" lon="-2.1238360"/>
            <trkpt lat="53.1915060" lon="-2.1239410"/>
            <trkpt lat="53.1918020" lon="-2.1239700"/>
            <trkpt lat="53.1919960" lon="-2.1240280"/>
            <trkpt lat="53.1920810" lon="-2.1240940"/>
            <trkpt lat="53.1921570" lon="-2.1241810"/>
            <trkpt lat="53.1923420" lon="-2.1243260"/>
            <trkpt lat="53.1924750" lon="-2.1245440"/>
            <trkpt lat="53.1925220" lon="-2.1246920"/>
            <trkpt lat="53.1926490" lon="-2.1249270"/>
            <trkpt lat="53.1927600" lon="-2.1251960"/>
            <trkpt lat="53.1929850" lon="-2.1255340"/>
            <trkpt lat="53.1931070" lon="-2.1257870"/>
            <trkpt lat="53.1931940" lon="-2.1258810"/>
            <trkpt lat="53.1933450" lon="-2.1260920"/>
            <trkpt lat="53.1934250" lon="-2.1261720"/>
            <trkpt lat="53.1937110" lon="-2.1264130"/>
            <trkpt lat="53.1937980" lon="-2.1264610"/>
            <trkpt lat="53.1938970" lon="-2.1264770"/>
            <trkpt lat="53.1942580" lon="-2.1266630"/>
            <trkpt lat="53.1943600" lon="-2.1266900"/>
            <trkpt lat="53.1949130" lon="-2.1270730"/>
            <trkpt lat="53.1952890" lon="-2.1272790"/>
            <trkpt lat="53.1953830" lon="-2.1273480"/>
            <trkpt lat="53.1955720" lon="-2.1274170"/>
            <trkpt lat="53.1956560" lon="-2.1273440"/>
            <trkpt lat="53.1957330" lon="-2.1272390"/>
            <trkpt lat="53.1957960" lon="-2.1271100"/>
            <trkpt lat="53.1958940" lon="-2.1268210"/>
            <trkpt lat="53.1959140" lon="-2.1266590"/>
            <trkpt lat="53.1960170" lon="-2.1263800"/>
            <trkpt lat="53.1960680" lon="-2.1260670"/>
            <trkpt lat="53.1960930" lon="-2.1257460"/>
            <trkpt lat="53.1961270" lon="-2.1256060"/>
            <trkpt lat="53.1960420" lon="-2.1256570"/>
            <trkpt lat="53.1958950" lon="-2.1254410"/>
            <trkpt lat="53.1958140" lon="-2.1253480"/>
            <trkpt lat="53.1957370" lon="-2.1252680"/>
            <trkpt lat="53.1956460" lon="-2.1252200"/>
            <trkpt lat="53.1955600" lon="-2.1251340"/>
            <trkpt lat="53.1954980" lon="-2.1250230"/>
            <trkpt lat="53.1953270" lon="-2.1244780"/>
            <trkpt lat="53.1952170" lon="-2.1242180"/>
            <trkpt lat="53.1951300" lon="-2.1237670"/>
            <trkpt lat="53.1951300" lon="-2.1236070"/>
            <trkpt lat="53.1951990" lon="-2.1231570"/>
            <trkpt lat="53.1953170" lon="-2.1228940"/>
            <trkpt lat="53.1955380" lon="-2.1226770"/>
            <trkpt lat="53.1956130" lon="-2.1225850"/>
            <trkpt lat="53.1956800" lon="-2.1224720"/>
            <trkpt lat="53.1958680" lon="-2.1223000"/>
            <trkpt lat="53.1960780" lon="-2.1223220"/>
            <trkpt lat="53.1961670" lon="-2.1223560"/>
            <trkpt lat="53.1965250" lon="-2.1225970"/>
            <trkpt lat="53.1966000" lon="-2.1226800"/>
            <trkpt lat="53.1967470" lon="-2.1229260"/>
            <trkpt lat="53.1968940" lon="-2.1231150"/>
            <trkpt lat="53.1970040" lon="-2.1234790"/>
            <trkpt lat="53.1971620" lon="-2.1238160"/>
            <trkpt lat="53.1972090" lon="-2.1241180"/>
            <trkpt lat="53.1972030" lon="-2.1242690"/>
            <trkpt lat="53.1973760" lon="-2.1244300"/>
            <trkpt lat="53.1974570" lon="-2.1243300"/>
            <trkpt lat="53.1975070" lon="-2.1242010"/>
            <trkpt lat="53.1975100" lon="-2.1240370"/>
            <trkpt lat="53.1974820" lon="-2.1236910"/>
            <trkpt lat="53.1974500" lon="-2.1235470"/>
            <trkpt lat="53.1974490" lon="-2.1232330"/>
            <trkpt lat="53.1974620" lon="-2.1230690"/>
            <trkpt lat="53.1973820" lon="-2.1225780"/>
            <trkpt lat="53.1973400" lon="-2.1224440"/>
            <trkpt lat="53.1972910" lon="-2.1222980"/>
            <trkpt lat="53.1970730" lon="-2.1219680"/>
            <trkpt lat="53.1970150" lon="-2.1218480"/>
            <trkpt lat="53.1969370" lon="-2.1217470"/>
            <trkpt lat="53.1967510" lon="-2.1213570"/>
            <trkpt lat="53.1967070" lon="-2.1212140"/>
            <trkpt lat="53.1964610" lon="-2.1207320"/>
            <trkpt lat="53.1963200" lon="-2.1205270"/>
            <trkpt lat="53.1961170" lon="-2.1203750"/>
            <trkpt lat="53.1959420" lon="-2.1202190"/>
            <trkpt lat="53.1958440" lon="-2.1201970"/>
            <trkpt lat="53.1955280" lon="-2.1202150"/>
            <trkpt lat="53.1954330" lon="-2.1201950"/>
            <trkpt lat="53.1952440" lon="-2.1200640"/>
            <trkpt lat="53.1951760" lon="-2.1199590"/>
            <trkpt lat="53.1951390" lon="-2.1196270"/>
            <trkpt lat="53.1951500" lon="-2.1192500"/>
            <trkpt lat="53.1951830" lon="-2.1189370"/>
            <trkpt lat="53.1952620" lon="-2.1183320"/>
            <trkpt lat="53.1953490" lon="-2.1180400"/>
            <trkpt lat="53.1954110" lon="-2.1179060"/>
            <trkpt lat="53.1955750" lon="-2.1177440"/>
            <trkpt lat="53.1958890" lon="-2.1173220"/>
            <trkpt lat="53.1961590" lon="-2.1171630"/>
            <trkpt lat="53.1963510" lon="-2.1171430"/>
            <trkpt lat="53.1966420" lon="-2.1171470"/>
            <trkpt lat="53.1968260" lon="-2.1170720"/>
            <trkpt lat="53.1969990" lon="-2.1169590"/>
            <trkpt lat="53.1971870" lon="-2.1169280"/>
            <trkpt lat="53.1976590" lon="-2.1167720"/>
            <trkpt lat="53.1977540" lon="-2.1167600"/>
            <trkpt lat="53.1980650" lon="-2.1163990"/>
            <trkpt lat="53.1982590" lon="-2.1160610"/>
            <trkpt lat="53.1983160" lon="-2.1159300"/>
            <trkpt lat="53.1984270" lon="-2.1155070"/>
            <trkpt lat="53.1986280" lon="-2.1150210"/>
            <trkpt lat="53.1987520" lon="-2.1147780"/>
            <trkpt lat="53.1988200" lon="-2.1146730"/>
            <trkpt lat="53.1988870" lon="-2.1145150"/>
            <trkpt lat="53.1989210" lon="-2.1143710"/>
            <trkpt lat="53.1988910" lon="-2.1145240"/>
            <trkpt lat="53.1989810" lon="-2.1145860"/>
            <trkpt lat="53.1990690" lon="-2.1145460"/>
            <trkpt lat="53.1992310" lon="-2.1143750"/>
            <trkpt lat="53.1993040" lon="-2.1142750"/>
            <trkpt lat="53.1993610" lon="-2.1141570"/>
            <trkpt lat="53.1996770" lon="-2.1137860"/>
            <trkpt lat="53.1997630" lon="-2.1137230"/>
            <trkpt lat="53.1998560" lon="-2.1137060"/>
            <trkpt lat="53.1999490" lon="-2.1137190"/>
            <trkpt lat="53.2000300" lon="-2.1136440"/>
            <trkpt lat="53.2001270" lon="-2.1136090"/>
            <trkpt lat="53.2003090" lon="-2.1134880"/>
            <trkpt lat="53.2004220" lon="-2.1132260"/>
            <trkpt lat="53.2004600" lon="-2.1130890"/>
            <trkpt lat="53.2005380" lon="-2.1126340"/>
            <trkpt lat="53.2005460" lon="-2.1124380"/>
            <trkpt lat="53.2006120" lon="-2.1123300"/>
            <trkpt lat="53.2007010" lon="-2.1122690"/>
            <trkpt lat="53.2009650" lon="-2.1122210"/>
            <trkpt lat="53.2014450" lon="-2.1120970"/>
            <trkpt lat="53.2015350" lon="-2.1120590"/>
            <trkpt lat="53.2015880" lon="-2.1117570"/>
            <trkpt lat="53.2015760" lon="-2.1115950"/>
            <trkpt lat="53.2015460" lon="-2.1114530"/>
            <trkpt lat="53.2015680" lon="-2.1113030"/>
            <trkpt lat="53.2015990" lon="-2.1111530"/>
            <trkpt lat="53.2016480" lon="-2.1110210"/>
            <trkpt lat="53.2017230" lon="-2.1109360"/>
            <trkpt lat="53.2018080" lon="-2.1108770"/>
            <trkpt lat="53.2019640" lon="-2.1107200"/>
            <trkpt lat="53.2022690" lon="-2.1107550"/>
            <trkpt lat="53.2024520" lon="-2.1106300"/>
            <trkpt lat="53.2025360" lon="-2.1105450"/>
            <trkpt lat="53.2027870" lon="-2.1103580"/>
            <trkpt lat="53.2028680" lon="-2.1102660"/>
            <trkpt lat="53.2029640" lon="-2.1102120"/>
            <trkpt lat="53.2030580" lon="-2.1101970"/>
            <trkpt lat="53.2031360" lon="-2.1101170"/>
            <trkpt lat="53.2031430" lon="-2.1099550"/>
            <trkpt lat="53.2031250" lon="-2.1096310"/>
            <trkpt lat="53.2031460" lon="-2.1094820"/>
            <trkpt lat="53.2033940" lon="-2.1089890"/>
            <trkpt lat="53.2034490" lon="-2.1088500"/>
            <trkpt lat="53.2035990" lon="-2.1080920"/>
            <trkpt lat="53.2037270" lon="-2.1076710"/>
            <trkpt lat="53.2038520" lon="-2.1074190"/>
            <trkpt lat="53.2041010" lon="-2.1071460"/>
            <trkpt lat="53.2041760" lon="-2.1070460"/>
            <trkpt lat="53.2043520" lon="-2.1067340"/>
            <trkpt lat="53.2044340" lon="-2.1066480"/>
            <trkpt lat="53.2046970" lon="-2.1064360"/>
            <trkpt lat="53.2048820" lon="-2.1063470"/>
            <trkpt lat="53.2048490" lon="-2.1062020"/>
            <trkpt lat="53.2048590" lon="-2.1060120"/>
            <trkpt lat="53.2051370" lon="-2.1055720"/>
            <trkpt lat="53.2052590" lon="-2.1053430"/>
            <trkpt lat="53.2053520" lon="-2.1051250"/>
            <trkpt lat="53.2056230" lon="-2.1049640"/>
            <trkpt lat="53.2057970" lon="-2.1048210"/>
            <trkpt lat="53.2065210" lon="-2.1039970"/>
            <trkpt lat="53.2068150" lon="-2.1035580"/>
            <trkpt lat="53.2068930" lon="-2.1034740"/>
            <trkpt lat="53.2077580" lon="-2.1027860"/>
            <trkpt lat="53.2079170" lon="-2.1026100"/>
            <trkpt lat="53.2079850" lon="-2.1025040"/>
            <trkpt lat="53.2080380" lon="-2.1023780"/>
            <trkpt lat="53.2080610" lon="-2.1022310"/>
            <trkpt lat="53.2080510" lon="-2.1020800"/>
            <trkpt lat="53.2079460" lon="-2.1016460"/>
            <trkpt lat="53.2077850" lon="-2.1011940"/>
            <trkpt lat="53.2076540" lon="-2.1009670"/>
            <trkpt lat="53.2075620" lon="-2.1008880"/>
            <trkpt lat="53.2072840" lon="-2.1007490"/>
            <trkpt lat="53.2071070" lon="-2.1006170"/>
            <trkpt lat="53.2067160" lon="-2.1001510"/>
            <trkpt lat="53.2065360" lon="-2.1000500"/>
            <trkpt lat="53.2060470" lon="-2.1000250"/>
            <trkpt lat="53.2053900" lon="-2.1001130"/>
            <trkpt lat="53.2050050" lon="-2.1001130"/>
            <trkpt lat="53.2042330" lon="-2.1001730"/>
            <trkpt lat="53.2041400" lon="-2.1001400"/>
            <trkpt lat="53.2040530" lon="-2.1000650"/>
            <trkpt lat="53.2036710" lon="-2.0993490"/>
            <trkpt lat="53.2036010" lon="-2.0992440"/>
            <trkpt lat="53.2034470" lon="-2.0990500"/>
            <trkpt lat="53.2032050" lon="-2.0987830"/>
            <trkpt lat="53.2031150" lon="-2.0987240"/>
            <trkpt lat="53.2030160" lon="-2.0986880"/>
            <trkpt lat="53.2027180" lon="-2.0986090"/>
            <trkpt lat="53.2025400" lon="-2.0984850"/>
            <trkpt lat="53.2024580" lon="-2.0983950"/>
            <trkpt lat="53.2023910" lon="-2.0982750"/>
            <trkpt lat="53.2023700" lon="-2.0981110"/>
            <trkpt lat="53.2023750" lon="-2.0979570"/>
            <trkpt lat="53.2023980" lon="-2.0978060"/>
            <trkpt lat="53.2023930" lon="-2.0976070"/>
            <trkpt lat="53.2023340" lon="-2.0974840"/>
            <trkpt lat="53.2022460" lon="-2.0974220"/>
            <trkpt lat="53.2021490" lon="-2.0974120"/>
            <trkpt lat="53.2019570" lon="-2.0974310"/>
            <trkpt lat="53.2018650" lon="-2.0974050"/>
            <trkpt lat="53.2017970" lon="-2.0972780"/>
            <trkpt lat="53.2017570" lon="-2.0971440"/>
            <trkpt lat="53.2017280" lon="-2.0966730"/>
            <trkpt lat="53.2017270" lon="-2.0965110"/>
            <trkpt lat="53.2017410" lon="-2.0963610"/>
            <trkpt lat="53.2018270" lon="-2.0960790"/>
            <trkpt lat="53.2019000" lon="-2.0959630"/>
            <trkpt lat="53.2019540" lon="-2.0958360"/>
            <trkpt lat="53.2019830" lon="-2.0956900"/>
            <trkpt lat="53.2019370" lon="-2.0950530"/>
            <trkpt lat="53.2018660" lon="-2.0944100"/>
            <trkpt lat="53.2018600" lon="-2.0942450"/>
            <trkpt lat="53.2017920" lon="-2.0941310"/>
            <trkpt lat="53.2016370" lon="-2.0943290"/>
            <trkpt lat="53.2013830" lon="-2.0947700"/>
            <trkpt lat="53.2011630" lon="-2.0950790"/>
            <trkpt lat="53.2010830" lon="-2.0951620"/>
            <trkpt lat="53.2008650" lon="-2.0954750"/>
            <trkpt lat="53.2006160" lon="-2.0957330"/>
            <trkpt lat="53.2004660" lon="-2.0959280"/>
            <trkpt lat="53.2003830" lon="-2.0960070"/>
            <trkpt lat="53.2002240" lon="-2.0962140"/>
            <trkpt lat="53.2001420" lon="-2.0962950"/>
            <trkpt lat="53.1992950" lon="-2.0974030"/>
            <trkpt lat="53.1989910" lon="-2.0977750"/>
            <trkpt lat="53.1985860" lon="-2.0982290"/>
            <trkpt lat="53.1985110" lon="-2.0983410"/>
            <trkpt lat="53.1983510" lon="-2.0985190"/>
            <trkpt lat="53.1978840" lon="-2.0991130"/>
            <trkpt lat="53.1976330" lon="-2.0993820"/>
            <trkpt lat="53.1973420" lon="-2.0997720"/>
            <trkpt lat="53.1970200" lon="-2.1001300"/>
            <trkpt lat="53.1967890" lon="-2.1004210"/>
            <trkpt lat="53.1965770" lon="-2.1007900"/>
            <trkpt lat="53.1964530" lon="-2.1010340"/>
            <trkpt lat="53.1963790" lon="-2.1013390"/>
            <trkpt lat="53.1963430" lon="-2.1022750"/>
            <trkpt lat="53.1962950" lon="-2.1025990"/>
            <trkpt lat="53.1962210" lon="-2.1029150"/>
            <trkpt lat="53.1960940" lon="-2.1031440"/>
            <trkpt lat="53.1960080" lon="-2.1034110"/>
            <trkpt lat="53.1958860" lon="-2.1036730"/>
            <trkpt lat="53.1957320" lon="-2.1039040"/>
            <trkpt lat="53.1953210" lon="-2.1043230"/>
            <trkpt lat="53.1950850" lon="-2.1046170"/>
            <trkpt lat="53.1948290" lon="-2.1048860"/>
            <trkpt lat="53.1946830" lon="-2.1050910"/>
            <trkpt lat="53.1945340" lon="-2.1055000"/>
            <trkpt lat="53.1944480" lon="-2.1057910"/>
            <trkpt lat="53.1941860" lon="-2.1064490"/>
            <trkpt lat="53.1939510" lon="-2.1069820"/>
            <trkpt lat="53.1938440" lon="-2.1072740"/>
            <trkpt lat="53.1937810" lon="-2.1075680"/>
            <trkpt lat="53.1937610" lon="-2.1077360"/>
            <trkpt lat="53.1936120" lon="-2.1085000"/>
            <trkpt lat="53.1935650" lon="-2.1088120"/>
            <trkpt lat="53.1934770" lon="-2.1091290"/>
            <trkpt lat="53.1934230" lon="-2.1092720"/>
            <trkpt lat="53.1933610" lon="-2.1093870"/>
            <trkpt lat="53.1930760" lon="-2.1098470"/>
            <trkpt lat="53.1929970" lon="-2.1099230"/>
            <trkpt lat="53.1929080" lon="-2.1098860"/>
            <trkpt lat="53.1928180" lon="-2.1099460"/>
            <trkpt lat="53.1927220" lon="-2.1099610"/>
            <trkpt lat="53.1926270" lon="-2.1099370"/>
            <trkpt lat="53.1923410" lon="-2.1098010"/>
            <trkpt lat="53.1922470" lon="-2.1097870"/>
            <trkpt lat="53.1921590" lon="-2.1097190"/>
            <trkpt lat="53.1920700" lon="-2.1096890"/>
            <trkpt lat="53.1919730" lon="-2.1096900"/>
            <trkpt lat="53.1915970" lon="-2.1099380"/>
            <trkpt lat="53.1911770" lon="-2.1104020"/>
            <trkpt lat="53.1909130" lon="-2.1106240"/>
            <trkpt lat="53.1904790" lon="-2.1109280"/>
            <trkpt lat="53.1903870" lon="-2.1109230"/>
            <trkpt lat="53.1902960" lon="-2.1109130"/>
            <trkpt lat="53.1900160" lon="-2.1107010"/>
            <trkpt lat="53.1899400" lon="-2.1106150"/>
            <trkpt lat="53.1896280" lon="-2.1099970"/>
            <trkpt lat="53.1894590" lon="-2.1096210"/>
            <trkpt lat="53.1894170" lon="-2.1094820"/>
            <trkpt lat="53.1893560" lon="-2.1093610"/>
            <trkpt lat="53.1890100" lon="-2.1091210"/>
            <trkpt lat="53.1889100" lon="-2.1091090"/>
            <trkpt lat="53.1887220" lon="-2.1091250"/>
            <trkpt lat="53.1886300" lon="-2.1091670"/>
            <trkpt lat="53.1883310" lon="-2.1091510"/>
            <trkpt lat="53.1881320" lon="-2.1092060"/>
            <trkpt lat="53.1879480" lon="-2.1092240"/>
            <trkpt lat="53.1877590" lon="-2.1092140"/>
            <trkpt lat="53.1875740" lon="-2.1092710"/>
            <trkpt lat="53.1873770" lon="-2.1092910"/>
            <trkpt lat="53.1872860" lon="-2.1093730"/>
            <trkpt lat="53.1872240" lon="-2.1095080"/>
            <trkpt lat="53.1870420" lon="-2.1100750"/>
            <trkpt lat="53.1869050" lon="-2.1106540"/>
            <trkpt lat="53.1868560" lon="-2.1109880"/>
            <trkpt lat="53.1867710" lon="-2.1113040"/>
            <trkpt lat="53.1866920" lon="-2.1114220"/>
            <trkpt lat="53.1864930" lon="-2.1115770"/>
            <trkpt lat="53.1864080" lon="-2.1116310"/>
            <trkpt lat="53.1862020" lon="-2.1116780"/>
            <trkpt lat="53.1860970" lon="-2.1119320"/>
            <trkpt lat="53.1859490" lon="-2.1127190"/>
            <trkpt lat="53.1858230" lon="-2.1133010"/>
            <trkpt lat="53.1857660" lon="-2.1136330"/>
            <trkpt lat="53.1856400" lon="-2.1142390"/>
            <trkpt lat="53.1854600" lon="-2.1152310"/>
            <trkpt lat="53.1854420" lon="-2.1153900"/>
            <trkpt lat="53.1854600" lon="-2.1155430"/>
            <trkpt lat="53.1855330" lon="-2.1156350"/>
            <trkpt lat="53.1856240" lon="-2.1156980"/>
            <trkpt lat="53.1859120" lon="-2.1157680"/>
            <trkpt lat="53.1863040" lon="-2.1157880"/>
            <trkpt lat="53.1866960" lon="-2.1157480"/>
            <trkpt lat="53.1868800" lon="-2.1157620"/>
            <trkpt lat="53.1871660" lon="-2.1158650"/>
            <trkpt lat="53.1873350" lon="-2.1160340"/>
            <trkpt lat="53.1877980" lon="-2.1166410"/>
            <trkpt lat="53.1881370" lon="-2.1172230"/>
            <trkpt lat="53.1883130" lon="-2.1176220"/>
            <trkpt lat="53.1884710" lon="-2.1180400"/>
            <trkpt lat="53.1885370" lon="-2.1181740"/>
            <trkpt lat="53.1887570" lon="-2.1184940"/>
            <trkpt lat="53.1889400" lon="-2.1188860"/>
            <trkpt lat="53.1890060" lon="-2.1190090"/>
            <trkpt lat="53.1890860" lon="-2.1191170"/>
            <trkpt lat="53.1892110" lon="-2.1193740"/>
            <trkpt lat="53.1894160" lon="-2.1197270"/>
            <trkpt lat="53.1894870" lon="-2.1198220"/>
            <trkpt lat="53.1896670" lon="-2.1199660"/>
            <trkpt lat="53.1898690" lon="-2.1200010"/>
            <trkpt lat="53.1899630" lon="-2.1200720"/>
            <trkpt lat="53.1900360" lon="-2.1201920"/>
            <trkpt lat="53.1902030" lon="-2.1205000"/>
            <trkpt lat="53.1901650" lon="-2.1206510"/>
            <trkpt lat="53.1901140" lon="-2.1207870"/>
            <trkpt lat="53.1900470" lon="-2.1208920"/>
            <trkpt lat="53.1900380" lon="-2.1210630"/>
            <trkpt lat="53.1903940" lon="-2.1227080"/>
            <trkpt lat="53.1904390" lon="-2.1228480"/>
            <trkpt lat="53.1906080" lon="-2.1232500"/>
            <trkpt lat="53.1909410" lon="-2.1238240"/>
            <trkpt lat="53.1909560" lon="-2.1239730"/>
            <trkpt lat="53.1908390" lon="-2.1242250"/>
            <trkpt lat="53.1908020" lon="-2.1243630"/>
            <trkpt lat="53.1907390" lon="-2.1244760"/>
            <trkpt lat="53.1906680" lon="-2.1246920"/>
        </trkseg>
    </trk>
</gpx>
