<?xml version="1.0" encoding="UTF-8" standalone="yes"?>
<gpx version="1.1" creator="OS Maps - Web" xmlns="http://www.topografix.com/GPX/1/1"
xmlns:xsi="http://www.w3.org/2001/XMLSchema-instance"
xsi:schemaLocation="http://www.topografix.com/GPX/1/1 http://www.topografix.com/GPX/1/1/gpx.xsd"
xmlns:gs="http://www.topografix.com/GPX/gpx_style/0/2"
xmlns:gh="https://graphhopper.com/public/schema/gpx/1.1"
xmlns:os="https://ordnancesurvey.co.uk/public/schema/route/0.1">
    <metadata>
        <name>Crook Hill (Ethel) - Circular (www.thelostpeak.co.uk)</name>
        <desc></desc>
        <bounds minlat="53.3704970" minlon="-1.7553890" maxlat="53.4049590" maxlon="-1.6964640"/>
        <extensions>
            <os:version>2.0</os:version>
            <os:point lat="53.3709440" lon="-1.6971930" type="start"/>
            <os:point lat="53.3709440" lon="-1.6971930" type="end"/>
            <os:activity>ON_FOOT_WALKING</os:activity>
            <os:difficulty>MODERATE</os:difficulty>
            <os:paths/>
            <os:distance>13984.9454364</os:distance>
            <os:elevation_ascent>387.2400000</os:elevation_ascent>
        </extensions>
    </metadata>
    <wpt lat="53.3709440" lon="-1.6971930"/>
    <wpt lat="53.3709440" lon="-1.6971930"/>
    <trk>
        <name>Crook Hill (Ethel) - Circular (www.thelostpeak.co.uk)</name>
        <trkseg>
            <trkpt lat="53.3709440" lon="-1.6971930"/>
            <trkpt lat="53.3704970" lon="-1.6975780"/>
            <trkpt lat="53.3706670" lon="-1.6974900"/>
            <trkpt lat="53.3706960" lon="-1.6975610"/>
            <trkpt lat="53.3706030" lon="-1.6976410"/>
            <trkpt lat="53.3706330" lon="-1.6977270"/>
            <trkpt lat="53.3711420" lon="-1.6972430"/>
            <trkpt lat="53.3716410" lon="-1.6966190"/>
            <trkpt lat="53.3717980" lon="-1.6964900"/>
            <trkpt lat="53.3720170" lon="-1.6964640"/>
            <trkpt lat="53.3721940" lon="-1.6965150"/>
            <trkpt lat="53.3736870" lon="-1.6976240"/>
            <trkpt lat="53.3737280" lon="-1.6976740"/>
            <trkpt lat="53.3737250" lon="-1.6978260"/>
            <trkpt lat="53.3733140" lon="-1.6988660"/>
            <trkpt lat="53.3732210" lon="-1.6992620"/>
            <trkpt lat="53.3731820" lon="-1.6996390"/>
            <trkpt lat="53.3731770" lon="-1.7001080"/>
            <trkpt lat="53.3732030" lon="-1.7003620"/>
            <trkpt lat="53.3732900" lon="-1.7008050"/>
            <trkpt lat="53.3734640" lon="-1.7013390"/>
            <trkpt lat="53.3737650" lon="-1.7020700"/>
            <trkpt lat="53.3738870" lon="-1.7024730"/>
            <trkpt lat="53.3739490" lon="-1.7027720"/>
            <trkpt lat="53.3740000" lon="-1.7032010"/>
            <trkpt lat="53.3740600" lon="-1.7040720"/>
            <trkpt lat="53.3743500" lon="-1.7060220"/>
            <trkpt lat="53.3745480" lon="-1.7081820"/>
            <trkpt lat="53.3745920" lon="-1.7081720"/>
            <trkpt lat="53.3746850" lon="-1.7082010"/>
            <trkpt lat="53.3749510" lon="-1.7090100"/>
            <trkpt lat="53.3752600" lon="-1.7095110"/>
            <trkpt lat="53.3753520" lon="-1.7096150"/>
            <trkpt lat="53.3757350" lon="-1.7098190"/>
            <trkpt lat="53.3761030" lon="-1.7097920"/>
            <trkpt lat="53.3767750" lon="-1.7096070"/>
            <trkpt lat="53.3769530" lon="-1.7095900"/>
            <trkpt lat="53.3775250" lon="-1.7097280"/>
            <trkpt lat="53.3782220" lon="-1.7098160"/>
            <trkpt lat="53.3790100" lon="-1.7097980"/>
            <trkpt lat="53.3794050" lon="-1.7098770"/>
            <trkpt lat="53.3801000" lon="-1.7104430"/>
            <trkpt lat="53.3811490" lon="-1.7111210"/>
            <trkpt lat="53.3816110" lon="-1.7117370"/>
            <trkpt lat="53.3821270" lon="-1.7122580"/>
            <trkpt lat="53.3830350" lon="-1.7130500"/>
            <trkpt lat="53.3832040" lon="-1.7132320"/>
            <trkpt lat="53.3835090" lon="-1.7134390"/>
            <trkpt lat="53.3837250" lon="-1.7135210"/>
            <trkpt lat="53.3842390" lon="-1.7135450"/>
            <trkpt lat="53.3844270" lon="-1.7136070"/>
            <trkpt lat="53.3846140" lon="-1.7137910"/>
            <trkpt lat="53.3847660" lon="-1.7141960"/>
            <trkpt lat="53.3848930" lon="-1.7144590"/>
            <trkpt lat="53.3853700" lon="-1.7147720"/>
            <trkpt lat="53.3858170" lon="-1.7148250"/>
            <trkpt lat="53.3865810" lon="-1.7150080"/>
            <trkpt lat="53.3869840" lon="-1.7150470"/>
            <trkpt lat="53.3873940" lon="-1.7152730"/>
            <trkpt lat="53.3875950" lon="-1.7152600"/>
            <trkpt lat="53.3878300" lon="-1.7150980"/>
            <trkpt lat="53.3879390" lon="-1.7149270"/>
            <trkpt lat="53.3880110" lon="-1.7147130"/>
            <trkpt lat="53.3881560" lon="-1.7140820"/>
            <trkpt lat="53.3882970" lon="-1.7141110"/>
            <trkpt lat="53.3883460" lon="-1.7141730"/>
            <trkpt lat="53.3883920" lon="-1.7143130"/>
            <trkpt lat="53.3884720" lon="-1.7149720"/>
            <trkpt lat="53.3885870" lon="-1.7153830"/>
            <trkpt lat="53.3887500" lon="-1.7155970"/>
            <trkpt lat="53.3888710" lon="-1.7157020"/>
            <trkpt lat="53.3897870" lon="-1.7160970"/>
            <trkpt lat="53.3898550" lon="-1.7161530"/>
            <trkpt lat="53.3900020" lon="-1.7163730"/>
            <trkpt lat="53.3903990" lon="-1.7171910"/>
            <trkpt lat="53.3911350" lon="-1.7180220"/>
            <trkpt lat="53.3912120" lon="-1.7181410"/>
            <trkpt lat="53.3913140" lon="-1.7185750"/>
            <trkpt lat="53.3914210" lon="-1.7188710"/>
            <trkpt lat="53.3920260" lon="-1.7200980"/>
            <trkpt lat="53.3926110" lon="-1.7209480"/>
            <trkpt lat="53.3929340" lon="-1.7213070"/>
            <trkpt lat="53.3933150" lon="-1.7214830"/>
            <trkpt lat="53.3937100" lon="-1.7217690"/>
            <trkpt lat="53.3944780" lon="-1.7220110"/>
            <trkpt lat="53.3946470" lon="-1.7221080"/>
            <trkpt lat="53.3947980" lon="-1.7222870"/>
            <trkpt lat="53.3948720" lon="-1.7224480"/>
            <trkpt lat="53.3948840" lon="-1.7226800"/>
            <trkpt lat="53.3948030" lon="-1.7231760"/>
            <trkpt lat="53.3947430" lon="-1.7232550"/>
            <trkpt lat="53.3944550" lon="-1.7234740"/>
            <trkpt lat="53.3943950" lon="-1.7236560"/>
            <trkpt lat="53.3943470" lon="-1.7239580"/>
            <trkpt lat="53.3943600" lon="-1.7243040"/>
            <trkpt lat="53.3944090" lon="-1.7245780"/>
            <trkpt lat="53.3946010" lon="-1.7249410"/>
            <trkpt lat="53.3949650" lon="-1.7255680"/>
            <trkpt lat="53.3953250" lon="-1.7263130"/>
            <trkpt lat="53.3958840" lon="-1.7278830"/>
            <trkpt lat="53.3959950" lon="-1.7281430"/>
            <trkpt lat="53.3961190" lon="-1.7284860"/>
            <trkpt lat="53.3962290" lon="-1.7288850"/>
            <trkpt lat="53.3963480" lon="-1.7295040"/>
            <trkpt lat="53.3966080" lon="-1.7306090"/>
            <trkpt lat="53.3966590" lon="-1.7307730"/>
            <trkpt lat="53.3967950" lon="-1.7310530"/>
            <trkpt lat="53.3968980" lon="-1.7316090"/>
            <trkpt lat="53.3972400" lon="-1.7322420"/>
            <trkpt lat="53.3975550" lon="-1.7327020"/>
            <trkpt lat="53.3980740" lon="-1.7337860"/>
            <trkpt lat="53.3982860" lon="-1.7341660"/>
            <trkpt lat="53.3989470" lon="-1.7355820"/>
            <trkpt lat="53.3992270" lon="-1.7360900"/>
            <trkpt lat="53.4002270" lon="-1.7373900"/>
            <trkpt lat="53.4005300" lon="-1.7378920"/>
            <trkpt lat="53.4023160" lon="-1.7392750"/>
            <trkpt lat="53.4026030" lon="-1.7394430"/>
            <trkpt lat="53.4032410" lon="-1.7399130"/>
            <trkpt lat="53.4033430" lon="-1.7400900"/>
            <trkpt lat="53.4034190" lon="-1.7399080"/>
            <trkpt lat="53.4035260" lon="-1.7398080"/>
            <trkpt lat="53.4043670" lon="-1.7399980"/>
            <trkpt lat="53.4049590" lon="-1.7402620"/>
            <trkpt lat="53.4049460" lon="-1.7403480"/>
            <trkpt lat="53.4048790" lon="-1.7404440"/>
            <trkpt lat="53.4039400" lon="-1.7414590"/>
            <trkpt lat="53.4035290" lon="-1.7417770"/>
            <trkpt lat="53.4032320" lon="-1.7418700"/>
            <trkpt lat="53.4030880" lon="-1.7418600"/>
            <trkpt lat="53.4028470" lon="-1.7419880"/>
            <trkpt lat="53.4027360" lon="-1.7420850"/>
            <trkpt lat="53.4023910" lon="-1.7423100"/>
            <trkpt lat="53.4020980" lon="-1.7425630"/>
            <trkpt lat="53.4018170" lon="-1.7426890"/>
            <trkpt lat="53.4017130" lon="-1.7426960"/>
            <trkpt lat="53.4011980" lon="-1.7425920"/>
            <trkpt lat="53.4010380" lon="-1.7426300"/>
            <trkpt lat="53.4009600" lon="-1.7428520"/>
            <trkpt lat="53.4009690" lon="-1.7431700"/>
            <trkpt lat="53.4009220" lon="-1.7431880"/>
            <trkpt lat="53.4008940" lon="-1.7431690"/>
            <trkpt lat="53.4008150" lon="-1.7433160"/>
            <trkpt lat="53.4004600" lon="-1.7432220"/>
            <trkpt lat="53.4000820" lon="-1.7430700"/>
            <trkpt lat="53.3995040" lon="-1.7427060"/>
            <trkpt lat="53.3987050" lon="-1.7421550"/>
            <trkpt lat="53.3986870" lon="-1.7421860"/>
            <trkpt lat="53.3987530" lon="-1.7422310"/>
            <trkpt lat="53.3987200" lon="-1.7423040"/>
            <trkpt lat="53.3986650" lon="-1.7423060"/>
            <trkpt lat="53.3983810" lon="-1.7421740"/>
            <trkpt lat="53.3982280" lon="-1.7421440"/>
            <trkpt lat="53.3978460" lon="-1.7422120"/>
            <trkpt lat="53.3975350" lon="-1.7423270"/>
            <trkpt lat="53.3972990" lon="-1.7426270"/>
            <trkpt lat="53.3973530" lon="-1.7428710"/>
            <trkpt lat="53.3975160" lon="-1.7433110"/>
            <trkpt lat="53.3976600" lon="-1.7437940"/>
            <trkpt lat="53.3979430" lon="-1.7443280"/>
            <trkpt lat="53.3979700" lon="-1.7444540"/>
            <trkpt lat="53.3979590" lon="-1.7451620"/>
            <trkpt lat="53.3979000" lon="-1.7456800"/>
            <trkpt lat="53.3978570" lon="-1.7458810"/>
            <trkpt lat="53.3978520" lon="-1.7461010"/>
            <trkpt lat="53.3978990" lon="-1.7465090"/>
            <trkpt lat="53.3979340" lon="-1.7473860"/>
            <trkpt lat="53.3979310" lon="-1.7477930"/>
            <trkpt lat="53.3979100" lon="-1.7479380"/>
            <trkpt lat="53.3979560" lon="-1.7482920"/>
            <trkpt lat="53.3979320" lon="-1.7486490"/>
            <trkpt lat="53.3978470" lon="-1.7492680"/>
            <trkpt lat="53.3978470" lon="-1.7494830"/>
            <trkpt lat="53.3978650" lon="-1.7497080"/>
            <trkpt lat="53.3978990" lon="-1.7498130"/>
            <trkpt lat="53.3979640" lon="-1.7502470"/>
            <trkpt lat="53.3980020" lon="-1.7508160"/>
            <trkpt lat="53.3979670" lon="-1.7510010"/>
            <trkpt lat="53.3979770" lon="-1.7511780"/>
            <trkpt lat="53.3980430" lon="-1.7514540"/>
            <trkpt lat="53.3978890" lon="-1.7518890"/>
            <trkpt lat="53.3978440" lon="-1.7523770"/>
            <trkpt lat="53.3978680" lon="-1.7525970"/>
            <trkpt lat="53.3978570" lon="-1.7529160"/>
            <trkpt lat="53.3979590" lon="-1.7536220"/>
            <trkpt lat="53.3982200" lon="-1.7540350"/>
            <trkpt lat="53.3983190" lon="-1.7542980"/>
            <trkpt lat="53.3982160" lon="-1.7547360"/>
            <trkpt lat="53.3982040" lon="-1.7549060"/>
            <trkpt lat="53.3982470" lon="-1.7550340"/>
            <trkpt lat="53.3981400" lon="-1.7550820"/>
            <trkpt lat="53.3979370" lon="-1.7553890"/>
            <trkpt lat="53.3978310" lon="-1.7553380"/>
            <trkpt lat="53.3977480" lon="-1.7552070"/>
            <trkpt lat="53.3975250" lon="-1.7545340"/>
            <trkpt lat="53.3972380" lon="-1.7540210"/>
            <trkpt lat="53.3971120" lon="-1.7537060"/>
            <trkpt lat="53.3955820" lon="-1.7512180"/>
            <trkpt lat="53.3953810" lon="-1.7506550"/>
            <trkpt lat="53.3951360" lon="-1.7497960"/>
            <trkpt lat="53.3948430" lon="-1.7489540"/>
            <trkpt lat="53.3939230" lon="-1.7467410"/>
            <trkpt lat="53.3937460" lon="-1.7462270"/>
            <trkpt lat="53.3936000" lon="-1.7458930"/>
            <trkpt lat="53.3933610" lon="-1.7450060"/>
            <trkpt lat="53.3932450" lon="-1.7447040"/>
            <trkpt lat="53.3932090" lon="-1.7447200"/>
            <trkpt lat="53.3930290" lon="-1.7446440"/>
            <trkpt lat="53.3926410" lon="-1.7443590"/>
            <trkpt lat="53.3923180" lon="-1.7440580"/>
            <trkpt lat="53.3914220" lon="-1.7431560"/>
            <trkpt lat="53.3906970" lon="-1.7422090"/>
            <trkpt lat="53.3899900" lon="-1.7414880"/>
            <trkpt lat="53.3895390" lon="-1.7406820"/>
            <trkpt lat="53.3891520" lon="-1.7397270"/>
            <trkpt lat="53.3886840" lon="-1.7390660"/>
            <trkpt lat="53.3885870" lon="-1.7386860"/>
            <trkpt lat="53.3884790" lon="-1.7384310"/>
            <trkpt lat="53.3882430" lon="-1.7381500"/>
            <trkpt lat="53.3879430" lon="-1.7374770"/>
            <trkpt lat="53.3878250" lon="-1.7369330"/>
            <trkpt lat="53.3869820" lon="-1.7356780"/>
            <trkpt lat="53.3866120" lon="-1.7354600"/>
            <trkpt lat="53.3863150" lon="-1.7352360"/>
            <trkpt lat="53.3860010" lon="-1.7348330"/>
            <trkpt lat="53.3858950" lon="-1.7348000"/>
            <trkpt lat="53.3855790" lon="-1.7345220"/>
            <trkpt lat="53.3845580" lon="-1.7329130"/>
            <trkpt lat="53.3841640" lon="-1.7321690"/>
            <trkpt lat="53.3839960" lon="-1.7319100"/>
            <trkpt lat="53.3837760" lon="-1.7318810"/>
            <trkpt lat="53.3833060" lon="-1.7316660"/>
            <trkpt lat="53.3830720" lon="-1.7316190"/>
            <trkpt lat="53.3826950" lon="-1.7316100"/>
            <trkpt lat="53.3825500" lon="-1.7295600"/>
            <trkpt lat="53.3821740" lon="-1.7289120"/>
            <trkpt lat="53.3817970" lon="-1.7287250"/>
            <trkpt lat="53.3816510" lon="-1.7284870"/>
            <trkpt lat="53.3812180" lon="-1.7284910"/>
            <trkpt lat="53.3808000" lon="-1.7281000"/>
            <trkpt lat="53.3807020" lon="-1.7279470"/>
            <trkpt lat="53.3805920" lon="-1.7279650"/>
            <trkpt lat="53.3804680" lon="-1.7276890"/>
            <trkpt lat="53.3802260" lon="-1.7275480"/>
            <trkpt lat="53.3800760" lon="-1.7273980"/>
            <trkpt lat="53.3799500" lon="-1.7271160"/>
            <trkpt lat="53.3796950" lon="-1.7268430"/>
            <trkpt lat="53.3791300" lon="-1.7264380"/>
            <trkpt lat="53.3789640" lon="-1.7260330"/>
            <trkpt lat="53.3783490" lon="-1.7256780"/>
            <trkpt lat="53.3782580" lon="-1.7257850"/>
            <trkpt lat="53.3781710" lon="-1.7257730"/>
            <trkpt lat="53.3780520" lon="-1.7258140"/>
            <trkpt lat="53.3779290" lon="-1.7253540"/>
            <trkpt lat="53.3777280" lon="-1.7247530"/>
            <trkpt lat="53.3775550" lon="-1.7244400"/>
            <trkpt lat="53.3772940" lon="-1.7242030"/>
            <trkpt lat="53.3772280" lon="-1.7240200"/>
            <trkpt lat="53.3771700" lon="-1.7236500"/>
            <trkpt lat="53.3770290" lon="-1.7232160"/>
            <trkpt lat="53.3771070" lon="-1.7225330"/>
            <trkpt lat="53.3774660" lon="-1.7222000"/>
            <trkpt lat="53.3778380" lon="-1.7220590"/>
            <trkpt lat="53.3780190" lon="-1.7217630"/>
            <trkpt lat="53.3780590" lon="-1.7215930"/>
            <trkpt lat="53.3781690" lon="-1.7215830"/>
            <trkpt lat="53.3784400" lon="-1.7213750"/>
            <trkpt lat="53.3784240" lon="-1.7213150"/>
            <trkpt lat="53.3784530" lon="-1.7209890"/>
            <trkpt lat="53.3785520" lon="-1.7205740"/>
            <trkpt lat="53.3785880" lon="-1.7204690"/>
            <trkpt lat="53.3788220" lon="-1.7202290"/>
            <trkpt lat="53.3791360" lon="-1.7199740"/>
            <trkpt lat="53.3796840" lon="-1.7198570"/>
            <trkpt lat="53.3798170" lon="-1.7197660"/>
            <trkpt lat="53.3798520" lon="-1.7196960"/>
            <trkpt lat="53.3798370" lon="-1.7195850"/>
            <trkpt lat="53.3798080" lon="-1.7195470"/>
            <trkpt lat="53.3795930" lon="-1.7194220"/>
            <trkpt lat="53.3795100" lon="-1.7192930"/>
            <trkpt lat="53.3794680" lon="-1.7190990"/>
            <trkpt lat="53.3794430" lon="-1.7185140"/>
            <trkpt lat="53.3795820" lon="-1.7179930"/>
            <trkpt lat="53.3797770" lon="-1.7174500"/>
            <trkpt lat="53.3798260" lon="-1.7171060"/>
            <trkpt lat="53.3798710" lon="-1.7164580"/>
            <trkpt lat="53.3799650" lon="-1.7159920"/>
            <trkpt lat="53.3799930" lon="-1.7159440"/>
            <trkpt lat="53.3801050" lon="-1.7159060"/>
            <trkpt lat="53.3799930" lon="-1.7159440"/>
            <trkpt lat="53.3798600" lon="-1.7157450"/>
            <trkpt lat="53.3797370" lon="-1.7154390"/>
            <trkpt lat="53.3791630" lon="-1.7148850"/>
            <trkpt lat="53.3787190" lon="-1.7146020"/>
            <trkpt lat="53.3782200" lon="-1.7144150"/>
            <trkpt lat="53.3777440" lon="-1.7143630"/>
            <trkpt lat="53.3768620" lon="-1.7145330"/>
            <trkpt lat="53.3764360" lon="-1.7145650"/>
            <trkpt lat="53.3760510" lon="-1.7144330"/>
            <trkpt lat="53.3749080" lon="-1.7137690"/>
            <trkpt lat="53.3748660" lon="-1.7136700"/>
            <trkpt lat="53.3747090" lon="-1.7134740"/>
            <trkpt lat="53.3746850" lon="-1.7091540"/>
            <trkpt lat="53.3746450" lon="-1.7081840"/>
            <trkpt lat="53.3745480" lon="-1.7081820"/>
            <trkpt lat="53.3743500" lon="-1.7060220"/>
            <trkpt lat="53.3740600" lon="-1.7040720"/>
            <trkpt lat="53.3740000" lon="-1.7032010"/>
            <trkpt lat="53.3739490" lon="-1.7027720"/>
            <trkpt lat="53.3738870" lon="-1.7024730"/>
            <trkpt lat="53.3737650" lon="-1.7020700"/>
            <trkpt lat="53.3734640" lon="-1.7013390"/>
            <trkpt lat="53.3732900" lon="-1.7008050"/>
            <trkpt lat="53.3732030" lon="-1.7003620"/>
            <trkpt lat="53.3731770" lon="-1.7001080"/>
            <trkpt lat="53.3731820" lon="-1.6996390"/>
            <trkpt lat="53.3732210" lon="-1.6992620"/>
            <trkpt lat="53.3733140" lon="-1.6988660"/>
            <trkpt lat="53.3737250" lon="-1.6978260"/>
            <trkpt lat="53.3737280" lon="-1.6976740"/>
            <trkpt lat="53.3736870" lon="-1.6976240"/>
            <trkpt lat="53.3721940" lon="-1.6965150"/>
            <trkpt lat="53.3720170" lon="-1.6964640"/>
            <trkpt lat="53.3717980" lon="-1.6964900"/>
            <trkpt lat="53.3716410" lon="-1.6966190"/>
            <trkpt lat="53.3711420" lon="-1.6972430"/>
            <trkpt lat="53.3706330" lon="-1.6977270"/>
            <trkpt lat="53.3706030" lon="-1.6976410"/>
            <trkpt lat="53.3706960" lon="-1.6975610"/>
            <trkpt lat="53.3706670" lon="-1.6974900"/>
            <trkpt lat="53.3704970" lon="-1.6975780"/>
            <trkpt lat="53.3709440" lon="-1.6971930"/>
        </trkseg>
    </trk>
</gpx>
