<?xml version="1.0" encoding="UTF-8" standalone="yes"?>
<gpx version="1.1" creator="OS Maps - Web" xmlns="http://www.topografix.com/GPX/1/1"
xmlns:xsi="http://www.w3.org/2001/XMLSchema-instance"
xsi:schemaLocation="http://www.topografix.com/GPX/1/1 http://www.topografix.com/GPX/1/1/gpx.xsd"
xmlns:gs="http://www.topografix.com/GPX/gpx_style/0/2"
xmlns:gh="https://graphhopper.com/public/schema/gpx/1.1"
xmlns:os="https://ordnancesurvey.co.uk/public/schema/route/0.1">
    <metadata>
        <name>Dead Edge End, Britland Edge Hill &amp; Snailsden Pike End (Ethels) - Circular (www.thelostpeak.co.uk)</name>
        <desc></desc>
        <bounds minlat="53.5075300" minlon="-1.8448200" maxlat="53.5313700" maxlon="-1.7704700"/>
        <extensions>
            <os:version>2.0</os:version>
            <os:point lat="53.5148600" lon="-1.7708000" type="start"/>
            <os:point lat="53.5148600" lon="-1.7708000" type="end"/>
            <os:activity>ON_FOOT_WALKING</os:activity>
            <os:difficulty>MODERATE</os:difficulty>
            <os:paths/>
            <os:distance>14803.6429026</os:distance>
            <os:elevation_ascent>335.4900000</os:elevation_ascent>
        </extensions>
    </metadata>
    <wpt lat="53.5148600" lon="-1.7708000"/>
    <wpt lat="53.5142200" lon="-1.7708400"/>
    <wpt lat="53.5134800" lon="-1.7705500"/>
    <wpt lat="53.5110800" lon="-1.7756600"/>
    <wpt lat="53.5099100" lon="-1.7776100"/>
    <wpt lat="53.5106900" lon="-1.7786500"/>
    <wpt lat="53.5107900" lon="-1.7802700"/>
    <wpt lat="53.5122200" lon="-1.7801500"/>
    <wpt lat="53.5123200" lon="-1.7805400"/>
    <wpt lat="53.5116700" lon="-1.7825100"/>
    <wpt lat="53.5108300" lon="-1.7843200"/>
    <wpt lat="53.5076900" lon="-1.7937600"/>
    <wpt lat="53.5075300" lon="-1.7952200"/>
    <wpt lat="53.5089300" lon="-1.7968600"/>
    <wpt lat="53.5096400" lon="-1.7983700"/>
    <wpt lat="53.5098300" lon="-1.7992600"/>
    <wpt lat="53.5103600" lon="-1.7997900"/>
    <wpt lat="53.5106400" lon="-1.8004200"/>
    <wpt lat="53.5115100" lon="-1.8007800"/>
    <wpt lat="53.5121500" lon="-1.8057100"/>
    <wpt lat="53.5121100" lon="-1.8137500"/>
    <wpt lat="53.5140100" lon="-1.8187700"/>
    <wpt lat="53.5149900" lon="-1.8199500"/>
    <wpt lat="53.5188300" lon="-1.8207900"/>
    <wpt lat="53.5201800" lon="-1.8219600"/>
    <wpt lat="53.5213000" lon="-1.8221900"/>
    <wpt lat="53.5226100" lon="-1.8237400"/>
    <wpt lat="53.5231600" lon="-1.8253200"/>
    <wpt lat="53.5236600" lon="-1.8276500"/>
    <wpt lat="53.5238400" lon="-1.8277900"/>
    <wpt lat="53.5236200" lon="-1.8280900"/>
    <wpt lat="53.5233600" lon="-1.8298200"/>
    <wpt lat="53.5228600" lon="-1.8312000"/>
    <wpt lat="53.5209400" lon="-1.8344400"/>
    <wpt lat="53.5198800" lon="-1.8397300"/>
    <wpt lat="53.5198600" lon="-1.8408700"/>
    <wpt lat="53.5199200" lon="-1.8417700"/>
    <wpt lat="53.5215900" lon="-1.8444000"/>
    <wpt lat="53.5224800" lon="-1.8442700"/>
    <wpt lat="53.5235200" lon="-1.8448200"/>
    <wpt lat="53.5239000" lon="-1.8441800"/>
    <wpt lat="53.5239100" lon="-1.8426000"/>
    <wpt lat="53.5235300" lon="-1.8404200"/>
    <wpt lat="53.5238100" lon="-1.8383300"/>
    <wpt lat="53.5237000" lon="-1.8376900"/>
    <wpt lat="53.5237800" lon="-1.8368500"/>
    <wpt lat="53.5241100" lon="-1.8357600"/>
    <wpt lat="53.5241000" lon="-1.8349200"/>
    <wpt lat="53.5244800" lon="-1.8328400"/>
    <wpt lat="53.5243900" lon="-1.8321300"/>
    <wpt lat="53.5245500" lon="-1.8281200"/>
    <wpt lat="53.5260100" lon="-1.8250900"/>
    <wpt lat="53.5263300" lon="-1.8237700"/>
    <wpt lat="53.5270400" lon="-1.8233400"/>
    <wpt lat="53.5274000" lon="-1.8226400"/>
    <wpt lat="53.5279000" lon="-1.8203100"/>
    <wpt lat="53.5289900" lon="-1.8185200"/>
    <wpt lat="53.5286600" lon="-1.8173700"/>
    <wpt lat="53.5289900" lon="-1.8164100"/>
    <wpt lat="53.5287600" lon="-1.8158300"/>
    <wpt lat="53.5290200" lon="-1.8156800"/>
    <wpt lat="53.5299300" lon="-1.8160100"/>
    <wpt lat="53.5303600" lon="-1.8134800"/>
    <wpt lat="53.5310600" lon="-1.8118500"/>
    <wpt lat="53.5313700" lon="-1.8114900"/>
    <wpt lat="53.5303600" lon="-1.8076700"/>
    <wpt lat="53.5288200" lon="-1.8071100"/>
    <wpt lat="53.5277200" lon="-1.8081000"/>
    <wpt lat="53.5271700" lon="-1.8080500"/>
    <wpt lat="53.5259300" lon="-1.8038900"/>
    <wpt lat="53.5257700" lon="-1.8009800"/>
    <wpt lat="53.5258100" lon="-1.8003800"/>
    <wpt lat="53.5260700" lon="-1.7999000"/>
    <wpt lat="53.5236800" lon="-1.7991900"/>
    <wpt lat="53.5240100" lon="-1.7974700"/>
    <wpt lat="53.5239700" lon="-1.7963000"/>
    <wpt lat="53.5236000" lon="-1.7939000"/>
    <wpt lat="53.5228400" lon="-1.7929200"/>
    <wpt lat="53.5233800" lon="-1.7913000"/>
    <wpt lat="53.5226400" lon="-1.7900100"/>
    <wpt lat="53.5212000" lon="-1.7916500"/>
    <wpt lat="53.5218500" lon="-1.7891200"/>
    <wpt lat="53.5219100" lon="-1.7877900"/>
    <wpt lat="53.5208900" lon="-1.7854200"/>
    <wpt lat="53.5208800" lon="-1.7846100"/>
    <wpt lat="53.5206900" lon="-1.7838800"/>
    <wpt lat="53.5200400" lon="-1.7826900"/>
    <wpt lat="53.5201300" lon="-1.7799300"/>
    <wpt lat="53.5198000" lon="-1.7797000"/>
    <wpt lat="53.5189000" lon="-1.7805200"/>
    <wpt lat="53.5179300" lon="-1.7823600"/>
    <wpt lat="53.5171700" lon="-1.7832400"/>
    <wpt lat="53.5164900" lon="-1.7826900"/>
    <wpt lat="53.5159500" lon="-1.7826600"/>
    <wpt lat="53.5159500" lon="-1.7821100"/>
    <wpt lat="53.5154800" lon="-1.7807300"/>
    <wpt lat="53.5162700" lon="-1.7798300"/>
    <wpt lat="53.5167600" lon="-1.7789200"/>
    <wpt lat="53.5173900" lon="-1.7769400"/>
    <wpt lat="53.5173800" lon="-1.7751700"/>
    <wpt lat="53.5166700" lon="-1.7722300"/>
    <wpt lat="53.5167600" lon="-1.7719600"/>
    <wpt lat="53.5163400" lon="-1.7715200"/>
    <wpt lat="53.5154000" lon="-1.7712500"/>
    <wpt lat="53.5148600" lon="-1.7708000"/>
    <trk>
        <name>Dead Edge End, Britland Edge Hill &amp; Snailsden Pike End (Ethels) - Circular (www.thelostpeak.co.uk)</name>
        <trkseg>
            <trkpt lat="53.5148600" lon="-1.7708000"><ele>351.7</ele></trkpt>
            <trkpt lat="53.5147600" lon="-1.7707500"><ele>351.6</ele></trkpt>
            <trkpt lat="53.5145600" lon="-1.7707700"><ele>351.8</ele></trkpt>
            <trkpt lat="53.5142200" lon="-1.7708400"><ele>352.6</ele></trkpt>
            <trkpt lat="53.5140000" lon="-1.7707800"><ele>353.3</ele></trkpt>
            <trkpt lat="53.5136500" lon="-1.7704900"><ele>354.6</ele></trkpt>
            <trkpt lat="53.5135900" lon="-1.7704700"><ele>355.2</ele></trkpt>
            <trkpt lat="53.5135500" lon="-1.7704800"><ele>355.4</ele></trkpt>
            <trkpt lat="53.5134800" lon="-1.7705500"><ele>356.0</ele></trkpt>
            <trkpt lat="53.5110800" lon="-1.7756600"><ele>382.9</ele></trkpt>
            <trkpt lat="53.5105500" lon="-1.7765500"><ele>391.2</ele></trkpt>
            <trkpt lat="53.5100200" lon="-1.7773800"><ele>394.5</ele></trkpt>
            <trkpt lat="53.5099100" lon="-1.7776100"><ele>396.3</ele></trkpt>
            <trkpt lat="53.5099900" lon="-1.7777400"><ele>398.0</ele></trkpt>
            <trkpt lat="53.5100600" lon="-1.7778200"><ele>399.1</ele></trkpt>
            <trkpt lat="53.5104800" lon="-1.7782300"><ele>400.2</ele></trkpt>
            <trkpt lat="53.5106100" lon="-1.7784600"><ele>400.4</ele></trkpt>
            <trkpt lat="53.5106900" lon="-1.7786500"><ele>400.4</ele></trkpt>
            <trkpt lat="53.5107100" lon="-1.7787200"><ele>400.6</ele></trkpt>
            <trkpt lat="53.5107500" lon="-1.7789900"><ele>400.6</ele></trkpt>
            <trkpt lat="53.5107500" lon="-1.7793600"><ele>401.1</ele></trkpt>
            <trkpt lat="53.5107000" lon="-1.7798600"><ele>402.5</ele></trkpt>
            <trkpt lat="53.5107000" lon="-1.7800400"><ele>402.8</ele></trkpt>
            <trkpt lat="53.5107600" lon="-1.7802200"><ele>403.3</ele></trkpt>
            <trkpt lat="53.5107900" lon="-1.7802700"><ele>403.4</ele></trkpt>
            <trkpt lat="53.5108700" lon="-1.7802900"><ele>403.0</ele></trkpt>
            <trkpt lat="53.5111500" lon="-1.7801500"><ele>402.2</ele></trkpt>
            <trkpt lat="53.5113700" lon="-1.7801300"><ele>403.5</ele></trkpt>
            <trkpt lat="53.5122200" lon="-1.7801500"><ele>409.6</ele></trkpt>
            <trkpt lat="53.5122800" lon="-1.7801800"><ele>409.7</ele></trkpt>
            <trkpt lat="53.5123100" lon="-1.7802300"><ele>409.9</ele></trkpt>
            <trkpt lat="53.5123300" lon="-1.7803300"><ele>410.4</ele></trkpt>
            <trkpt lat="53.5123200" lon="-1.7805400"><ele>412.3</ele></trkpt>
            <trkpt lat="53.5122900" lon="-1.7806800"><ele>413.7</ele></trkpt>
            <trkpt lat="53.5121200" lon="-1.7812100"><ele>419.0</ele></trkpt>
            <trkpt lat="53.5118100" lon="-1.7820700"><ele>425.9</ele></trkpt>
            <trkpt lat="53.5116700" lon="-1.7825100"><ele>428.7</ele></trkpt>
            <trkpt lat="53.5116000" lon="-1.7826800"><ele>429.5</ele></trkpt>
            <trkpt lat="53.5115500" lon="-1.7827400"><ele>429.8</ele></trkpt>
            <trkpt lat="53.5113500" lon="-1.7831300"><ele>433.2</ele></trkpt>
            <trkpt lat="53.5109800" lon="-1.7839200"><ele>437.7</ele></trkpt>
            <trkpt lat="53.5108300" lon="-1.7843200"><ele>440.3</ele></trkpt>
            <trkpt lat="53.5104700" lon="-1.7854100"><ele>443.8</ele></trkpt>
            <trkpt lat="53.5101900" lon="-1.7862100"><ele>446.6</ele></trkpt>
            <trkpt lat="53.5097200" lon="-1.7876700"><ele>452.8</ele></trkpt>
            <trkpt lat="53.5094900" lon="-1.7883400"><ele>456.6</ele></trkpt>
            <trkpt lat="53.5094300" lon="-1.7885700"><ele>457.9</ele></trkpt>
            <trkpt lat="53.5094000" lon="-1.7888500"><ele>459.0</ele></trkpt>
            <trkpt lat="53.5092900" lon="-1.7890700"><ele>459.6</ele></trkpt>
            <trkpt lat="53.5092100" lon="-1.7891600"><ele>459.8</ele></trkpt>
            <trkpt lat="53.5091700" lon="-1.7893800"><ele>459.8</ele></trkpt>
            <trkpt lat="53.5091000" lon="-1.7895500"><ele>460.0</ele></trkpt>
            <trkpt lat="53.5090300" lon="-1.7897800"><ele>460.4</ele></trkpt>
            <trkpt lat="53.5088800" lon="-1.7901900"><ele>461.6</ele></trkpt>
            <trkpt lat="53.5087900" lon="-1.7905100"><ele>462.4</ele></trkpt>
            <trkpt lat="53.5087600" lon="-1.7905700"><ele>462.6</ele></trkpt>
            <trkpt lat="53.5083500" lon="-1.7918200"><ele>468.2</ele></trkpt>
            <trkpt lat="53.5082500" lon="-1.7920800"><ele>468.5</ele></trkpt>
            <trkpt lat="53.5080100" lon="-1.7928100"><ele>470.1</ele></trkpt>
            <trkpt lat="53.5079800" lon="-1.7929400"><ele>470.5</ele></trkpt>
            <trkpt lat="53.5076900" lon="-1.7937600"><ele>470.5</ele></trkpt>
            <trkpt lat="53.5076300" lon="-1.7939500"><ele>470.1</ele></trkpt>
            <trkpt lat="53.5075600" lon="-1.7942800"><ele>469.3</ele></trkpt>
            <trkpt lat="53.5075400" lon="-1.7945100"><ele>469.2</ele></trkpt>
            <trkpt lat="53.5075300" lon="-1.7952200"><ele>468.4</ele></trkpt>
            <trkpt lat="53.5075400" lon="-1.7952700"><ele>468.3</ele></trkpt>
            <trkpt lat="53.5075700" lon="-1.7953200"><ele>468.2</ele></trkpt>
            <trkpt lat="53.5080600" lon="-1.7957500"><ele>467.5</ele></trkpt>
            <trkpt lat="53.5084100" lon="-1.7961300"><ele>468.0</ele></trkpt>
            <trkpt lat="53.5089300" lon="-1.7968600"><ele>468.3</ele></trkpt>
            <trkpt lat="53.5093100" lon="-1.7976500"><ele>468.9</ele></trkpt>
            <trkpt lat="53.5094100" lon="-1.7979700"><ele>470.1</ele></trkpt>
            <trkpt lat="53.5095700" lon="-1.7981900"><ele>470.9</ele></trkpt>
            <trkpt lat="53.5096400" lon="-1.7983700"><ele>471.4</ele></trkpt>
            <trkpt lat="53.5096900" lon="-1.7985900"><ele>472.2</ele></trkpt>
            <trkpt lat="53.5097900" lon="-1.7988900"><ele>473.1</ele></trkpt>
            <trkpt lat="53.5097900" lon="-1.7990100"><ele>473.4</ele></trkpt>
            <trkpt lat="53.5098300" lon="-1.7992600"><ele>474.3</ele></trkpt>
            <trkpt lat="53.5098700" lon="-1.7993300"><ele>474.6</ele></trkpt>
            <trkpt lat="53.5100500" lon="-1.7994100"><ele>474.9</ele></trkpt>
            <trkpt lat="53.5101000" lon="-1.7994500"><ele>475.0</ele></trkpt>
            <trkpt lat="53.5102300" lon="-1.7996600"><ele>475.8</ele></trkpt>
            <trkpt lat="53.5103600" lon="-1.7997900"><ele>476.2</ele></trkpt>
            <trkpt lat="53.5105500" lon="-1.8000900"><ele>477.5</ele></trkpt>
            <trkpt lat="53.5106200" lon="-1.8003800"><ele>478.5</ele></trkpt>
            <trkpt lat="53.5106400" lon="-1.8004200"><ele>478.6</ele></trkpt>
            <trkpt lat="53.5106700" lon="-1.8004600"><ele>478.8</ele></trkpt>
            <trkpt lat="53.5107900" lon="-1.8005300"><ele>479.1</ele></trkpt>
            <trkpt lat="53.5110000" lon="-1.8006900"><ele>480.1</ele></trkpt>
            <trkpt lat="53.5112300" lon="-1.8007700"><ele>480.6</ele></trkpt>
            <trkpt lat="53.5113000" lon="-1.8007800"><ele>480.8</ele></trkpt>
            <trkpt lat="53.5114600" lon="-1.8007400"><ele>481.0</ele></trkpt>
            <trkpt lat="53.5114900" lon="-1.8007500"><ele>481.0</ele></trkpt>
            <trkpt lat="53.5115100" lon="-1.8007800"><ele>481.2</ele></trkpt>
            <trkpt lat="53.5116100" lon="-1.8015000"><ele>483.3</ele></trkpt>
            <trkpt lat="53.5117100" lon="-1.8018200"><ele>484.7</ele></trkpt>
            <trkpt lat="53.5117000" lon="-1.8020400"><ele>485.1</ele></trkpt>
            <trkpt lat="53.5117300" lon="-1.8021700"><ele>485.2</ele></trkpt>
            <trkpt lat="53.5117300" lon="-1.8022500"><ele>485.5</ele></trkpt>
            <trkpt lat="53.5117700" lon="-1.8025200"><ele>486.4</ele></trkpt>
            <trkpt lat="53.5117700" lon="-1.8026800"><ele>487.0</ele></trkpt>
            <trkpt lat="53.5118500" lon="-1.8033000"><ele>487.9</ele></trkpt>
            <trkpt lat="53.5118800" lon="-1.8036900"><ele>487.8</ele></trkpt>
            <trkpt lat="53.5119000" lon="-1.8038200"><ele>488.1</ele></trkpt>
            <trkpt lat="53.5119300" lon="-1.8039200"><ele>488.3</ele></trkpt>
            <trkpt lat="53.5119500" lon="-1.8041600"><ele>489.0</ele></trkpt>
            <trkpt lat="53.5120000" lon="-1.8044500"><ele>489.6</ele></trkpt>
            <trkpt lat="53.5120000" lon="-1.8046100"><ele>490.1</ele></trkpt>
            <trkpt lat="53.5120900" lon="-1.8051900"><ele>490.0</ele></trkpt>
            <trkpt lat="53.5121500" lon="-1.8057100"><ele>489.9</ele></trkpt>
            <trkpt lat="53.5121300" lon="-1.8059400"><ele>489.9</ele></trkpt>
            <trkpt lat="53.5121500" lon="-1.8060100"><ele>490.1</ele></trkpt>
            <trkpt lat="53.5121500" lon="-1.8061100"><ele>490.3</ele></trkpt>
            <trkpt lat="53.5121200" lon="-1.8062200"><ele>490.4</ele></trkpt>
            <trkpt lat="53.5121100" lon="-1.8063600"><ele>490.8</ele></trkpt>
            <trkpt lat="53.5121200" lon="-1.8065400"><ele>491.0</ele></trkpt>
            <trkpt lat="53.5121100" lon="-1.8074800"><ele>492.2</ele></trkpt>
            <trkpt lat="53.5121300" lon="-1.8077700"><ele>492.6</ele></trkpt>
            <trkpt lat="53.5121100" lon="-1.8085000"><ele>494.9</ele></trkpt>
            <trkpt lat="53.5121100" lon="-1.8090000"><ele>495.2</ele></trkpt>
            <trkpt lat="53.5121300" lon="-1.8094000"><ele>494.6</ele></trkpt>
            <trkpt lat="53.5121300" lon="-1.8099700"><ele>494.1</ele></trkpt>
            <trkpt lat="53.5121200" lon="-1.8100600"><ele>494.1</ele></trkpt>
            <trkpt lat="53.5121300" lon="-1.8108200"><ele>495.2</ele></trkpt>
            <trkpt lat="53.5121200" lon="-1.8110700"><ele>495.5</ele></trkpt>
            <trkpt lat="53.5121300" lon="-1.8111600"><ele>495.9</ele></trkpt>
            <trkpt lat="53.5121300" lon="-1.8117400"><ele>497.6</ele></trkpt>
            <trkpt lat="53.5121400" lon="-1.8118400"><ele>497.7</ele></trkpt>
            <trkpt lat="53.5121200" lon="-1.8121100"><ele>497.8</ele></trkpt>
            <trkpt lat="53.5121100" lon="-1.8137500"><ele>496.0</ele></trkpt>
            <trkpt lat="53.5121500" lon="-1.8139000"><ele>495.4</ele></trkpt>
            <trkpt lat="53.5122400" lon="-1.8140800"><ele>494.5</ele></trkpt>
            <trkpt lat="53.5124300" lon="-1.8145800"><ele>492.1</ele></trkpt>
            <trkpt lat="53.5125100" lon="-1.8147400"><ele>490.9</ele></trkpt>
            <trkpt lat="53.5125800" lon="-1.8149200"><ele>489.9</ele></trkpt>
            <trkpt lat="53.5127100" lon="-1.8152700"><ele>489.0</ele></trkpt>
            <trkpt lat="53.5127400" lon="-1.8154100"><ele>488.9</ele></trkpt>
            <trkpt lat="53.5128200" lon="-1.8155500"><ele>488.8</ele></trkpt>
            <trkpt lat="53.5129000" lon="-1.8157800"><ele>488.9</ele></trkpt>
            <trkpt lat="53.5129500" lon="-1.8158600"><ele>488.8</ele></trkpt>
            <trkpt lat="53.5130100" lon="-1.8161000"><ele>488.4</ele></trkpt>
            <trkpt lat="53.5132600" lon="-1.8168300"><ele>489.5</ele></trkpt>
            <trkpt lat="53.5133100" lon="-1.8169600"><ele>489.7</ele></trkpt>
            <trkpt lat="53.5133800" lon="-1.8170800"><ele>489.8</ele></trkpt>
            <trkpt lat="53.5134100" lon="-1.8172300"><ele>490.0</ele></trkpt>
            <trkpt lat="53.5134900" lon="-1.8174200"><ele>490.2</ele></trkpt>
            <trkpt lat="53.5136000" lon="-1.8177500"><ele>491.2</ele></trkpt>
            <trkpt lat="53.5137300" lon="-1.8180300"><ele>492.3</ele></trkpt>
            <trkpt lat="53.5137500" lon="-1.8181500"><ele>492.5</ele></trkpt>
            <trkpt lat="53.5138100" lon="-1.8183300"><ele>493.0</ele></trkpt>
            <trkpt lat="53.5139100" lon="-1.8185700"><ele>492.6</ele></trkpt>
            <trkpt lat="53.5140100" lon="-1.8187700"><ele>492.4</ele></trkpt>
            <trkpt lat="53.5144300" lon="-1.8193700"><ele>492.7</ele></trkpt>
            <trkpt lat="53.5147400" lon="-1.8197700"><ele>491.5</ele></trkpt>
            <trkpt lat="53.5149300" lon="-1.8199200"><ele>489.4</ele></trkpt>
            <trkpt lat="53.5149900" lon="-1.8199500"><ele>489.0</ele></trkpt>
            <trkpt lat="53.5151300" lon="-1.8200000"><ele>487.2</ele></trkpt>
            <trkpt lat="53.5158500" lon="-1.8201300"><ele>485.4</ele></trkpt>
            <trkpt lat="53.5163900" lon="-1.8203200"><ele>479.9</ele></trkpt>
            <trkpt lat="53.5169400" lon="-1.8204600"><ele>480.3</ele></trkpt>
            <trkpt lat="53.5171900" lon="-1.8204900"><ele>479.9</ele></trkpt>
            <trkpt lat="53.5176300" lon="-1.8206200"><ele>478.0</ele></trkpt>
            <trkpt lat="53.5180500" lon="-1.8206800"><ele>477.2</ele></trkpt>
            <trkpt lat="53.5182600" lon="-1.8207800"><ele>475.9</ele></trkpt>
            <trkpt lat="53.5186100" lon="-1.8208100"><ele>476.2</ele></trkpt>
            <trkpt lat="53.5188300" lon="-1.8207900"><ele>477.0</ele></trkpt>
            <trkpt lat="53.5188700" lon="-1.8208100"><ele>477.1</ele></trkpt>
            <trkpt lat="53.5189400" lon="-1.8209000"><ele>477.2</ele></trkpt>
            <trkpt lat="53.5192100" lon="-1.8211000"><ele>477.2</ele></trkpt>
            <trkpt lat="53.5196300" lon="-1.8214700"><ele>477.5</ele></trkpt>
            <trkpt lat="53.5197800" lon="-1.8215800"><ele>477.2</ele></trkpt>
            <trkpt lat="53.5198700" lon="-1.8216600"><ele>476.8</ele></trkpt>
            <trkpt lat="53.5199700" lon="-1.8217800"><ele>476.0</ele></trkpt>
            <trkpt lat="53.5201800" lon="-1.8219600"><ele>475.0</ele></trkpt>
            <trkpt lat="53.5204000" lon="-1.8220500"><ele>474.3</ele></trkpt>
            <trkpt lat="53.5208300" lon="-1.8221100"><ele>473.3</ele></trkpt>
            <trkpt lat="53.5211300" lon="-1.8221800"><ele>474.0</ele></trkpt>
            <trkpt lat="53.5212000" lon="-1.8221500"><ele>474.2</ele></trkpt>
            <trkpt lat="53.5213000" lon="-1.8221900"><ele>474.8</ele></trkpt>
            <trkpt lat="53.5215400" lon="-1.8224700"><ele>476.2</ele></trkpt>
            <trkpt lat="53.5216300" lon="-1.8225500"><ele>476.4</ele></trkpt>
            <trkpt lat="53.5217300" lon="-1.8226700"><ele>476.6</ele></trkpt>
            <trkpt lat="53.5217500" lon="-1.8227300"><ele>476.7</ele></trkpt>
            <trkpt lat="53.5218600" lon="-1.8228400"><ele>477.0</ele></trkpt>
            <trkpt lat="53.5220600" lon="-1.8231100"><ele>478.1</ele></trkpt>
            <trkpt lat="53.5225400" lon="-1.8236400"><ele>481.3</ele></trkpt>
            <trkpt lat="53.5226100" lon="-1.8237400"><ele>481.3</ele></trkpt>
            <trkpt lat="53.5226800" lon="-1.8239400"><ele>481.3</ele></trkpt>
            <trkpt lat="53.5228000" lon="-1.8243600"><ele>480.6</ele></trkpt>
            <trkpt lat="53.5229200" lon="-1.8246600"><ele>481.6</ele></trkpt>
            <trkpt lat="53.5230200" lon="-1.8250100"><ele>482.5</ele></trkpt>
            <trkpt lat="53.5230400" lon="-1.8251300"><ele>482.6</ele></trkpt>
            <trkpt lat="53.5230700" lon="-1.8252100"><ele>482.7</ele></trkpt>
            <trkpt lat="53.5231600" lon="-1.8253200"><ele>482.8</ele></trkpt>
            <trkpt lat="53.5231600" lon="-1.8254100"><ele>482.9</ele></trkpt>
            <trkpt lat="53.5232500" lon="-1.8258300"><ele>482.9</ele></trkpt>
            <trkpt lat="53.5233200" lon="-1.8260200"><ele>482.9</ele></trkpt>
            <trkpt lat="53.5233700" lon="-1.8262000"><ele>482.7</ele></trkpt>
            <trkpt lat="53.5234500" lon="-1.8263700"><ele>482.5</ele></trkpt>
            <trkpt lat="53.5234700" lon="-1.8264700"><ele>482.5</ele></trkpt>
            <trkpt lat="53.5234900" lon="-1.8265100"><ele>482.5</ele></trkpt>
            <trkpt lat="53.5235000" lon="-1.8267200"><ele>482.4</ele></trkpt>
            <trkpt lat="53.5235900" lon="-1.8270400"><ele>482.5</ele></trkpt>
            <trkpt lat="53.5236100" lon="-1.8271800"><ele>482.5</ele></trkpt>
            <trkpt lat="53.5236200" lon="-1.8274600"><ele>482.1</ele></trkpt>
            <trkpt lat="53.5236500" lon="-1.8275500"><ele>482.0</ele></trkpt>
            <trkpt lat="53.5236600" lon="-1.8276500"><ele>481.9</ele></trkpt>
            <trkpt lat="53.5236800" lon="-1.8276900"><ele>481.9</ele></trkpt>
            <trkpt lat="53.5237200" lon="-1.8276700"><ele>481.9</ele></trkpt>
            <trkpt lat="53.5237600" lon="-1.8276900"><ele>481.8</ele></trkpt>
            <trkpt lat="53.5238400" lon="-1.8277900"><ele>481.6</ele></trkpt>
            <trkpt lat="53.5237800" lon="-1.8278300"><ele>481.6</ele></trkpt>
            <trkpt lat="53.5237300" lon="-1.8278400"><ele>481.7</ele></trkpt>
            <trkpt lat="53.5236700" lon="-1.8279500"><ele>481.4</ele></trkpt>
            <trkpt lat="53.5236200" lon="-1.8280900"><ele>481.2</ele></trkpt>
            <trkpt lat="53.5235500" lon="-1.8284600"><ele>480.9</ele></trkpt>
            <trkpt lat="53.5235400" lon="-1.8287100"><ele>480.6</ele></trkpt>
            <trkpt lat="53.5234600" lon="-1.8289200"><ele>481.1</ele></trkpt>
            <trkpt lat="53.5234200" lon="-1.8292000"><ele>481.7</ele></trkpt>
            <trkpt lat="53.5233700" lon="-1.8293500"><ele>482.0</ele></trkpt>
            <trkpt lat="53.5233600" lon="-1.8295900"><ele>482.6</ele></trkpt>
            <trkpt lat="53.5233700" lon="-1.8297100"><ele>483.0</ele></trkpt>
            <trkpt lat="53.5233600" lon="-1.8298200"><ele>483.3</ele></trkpt>
            <trkpt lat="53.5232500" lon="-1.8301600"><ele>485.0</ele></trkpt>
            <trkpt lat="53.5230700" lon="-1.8305800"><ele>486.9</ele></trkpt>
            <trkpt lat="53.5230600" lon="-1.8306700"><ele>487.2</ele></trkpt>
            <trkpt lat="53.5230200" lon="-1.8307900"><ele>487.4</ele></trkpt>
            <trkpt lat="53.5228600" lon="-1.8312000"><ele>487.2</ele></trkpt>
            <trkpt lat="53.5228100" lon="-1.8312700"><ele>487.1</ele></trkpt>
            <trkpt lat="53.5226200" lon="-1.8316200"><ele>487.6</ele></trkpt>
            <trkpt lat="53.5226100" lon="-1.8316600"><ele>487.7</ele></trkpt>
            <trkpt lat="53.5219100" lon="-1.8328400"><ele>494.0</ele></trkpt>
            <trkpt lat="53.5218000" lon="-1.8330600"><ele>494.9</ele></trkpt>
            <trkpt lat="53.5214400" lon="-1.8335500"><ele>497.3</ele></trkpt>
            <trkpt lat="53.5210500" lon="-1.8342200"><ele>498.8</ele></trkpt>
            <trkpt lat="53.5209400" lon="-1.8344400"><ele>499.1</ele></trkpt>
            <trkpt lat="53.5205200" lon="-1.8364700"><ele>507.6</ele></trkpt>
            <trkpt lat="53.5204500" lon="-1.8369200"><ele>509.7</ele></trkpt>
            <trkpt lat="53.5203600" lon="-1.8373800"><ele>511.7</ele></trkpt>
            <trkpt lat="53.5203500" lon="-1.8375200"><ele>512.3</ele></trkpt>
            <trkpt lat="53.5202900" lon="-1.8376900"><ele>512.9</ele></trkpt>
            <trkpt lat="53.5200200" lon="-1.8391200"><ele>517.2</ele></trkpt>
            <trkpt lat="53.5198800" lon="-1.8397300"><ele>519.0</ele></trkpt>
            <trkpt lat="53.5198600" lon="-1.8401900"><ele>520.2</ele></trkpt>
            <trkpt lat="53.5198600" lon="-1.8408700"><ele>521.4</ele></trkpt>
            <trkpt lat="53.5198700" lon="-1.8409500"><ele>521.6</ele></trkpt>
            <trkpt lat="53.5198800" lon="-1.8416200"><ele>522.4</ele></trkpt>
            <trkpt lat="53.5199200" lon="-1.8417700"><ele>522.1</ele></trkpt>
            <trkpt lat="53.5200600" lon="-1.8420200"><ele>521.9</ele></trkpt>
            <trkpt lat="53.5201400" lon="-1.8421200"><ele>521.8</ele></trkpt>
            <trkpt lat="53.5202300" lon="-1.8422700"><ele>521.2</ele></trkpt>
            <trkpt lat="53.5204100" lon="-1.8424800"><ele>519.8</ele></trkpt>
            <trkpt lat="53.5204800" lon="-1.8426200"><ele>519.0</ele></trkpt>
            <trkpt lat="53.5206400" lon="-1.8428500"><ele>518.1</ele></trkpt>
            <trkpt lat="53.5206900" lon="-1.8429500"><ele>517.7</ele></trkpt>
            <trkpt lat="53.5208400" lon="-1.8431800"><ele>516.9</ele></trkpt>
            <trkpt lat="53.5209800" lon="-1.8433500"><ele>516.2</ele></trkpt>
            <trkpt lat="53.5210700" lon="-1.8434900"><ele>515.6</ele></trkpt>
            <trkpt lat="53.5212300" lon="-1.8438400"><ele>514.0</ele></trkpt>
            <trkpt lat="53.5214300" lon="-1.8441600"><ele>512.0</ele></trkpt>
            <trkpt lat="53.5214400" lon="-1.8442000"><ele>511.9</ele></trkpt>
            <trkpt lat="53.5215900" lon="-1.8444000"><ele>511.3</ele></trkpt>
            <trkpt lat="53.5217700" lon="-1.8444700"><ele>511.4</ele></trkpt>
            <trkpt lat="53.5219100" lon="-1.8444400"><ele>511.7</ele></trkpt>
            <trkpt lat="53.5220100" lon="-1.8444400"><ele>511.9</ele></trkpt>
            <trkpt lat="53.5222000" lon="-1.8443900"><ele>511.7</ele></trkpt>
            <trkpt lat="53.5223200" lon="-1.8442700"><ele>511.2</ele></trkpt>
            <trkpt lat="53.5224800" lon="-1.8442700"><ele>510.2</ele></trkpt>
            <trkpt lat="53.5225700" lon="-1.8442900"><ele>509.8</ele></trkpt>
            <trkpt lat="53.5226000" lon="-1.8443500"><ele>509.7</ele></trkpt>
            <trkpt lat="53.5226700" lon="-1.8444100"><ele>509.4</ele></trkpt>
            <trkpt lat="53.5228000" lon="-1.8444200"><ele>509.3</ele></trkpt>
            <trkpt lat="53.5229100" lon="-1.8444600"><ele>509.4</ele></trkpt>
            <trkpt lat="53.5230000" lon="-1.8445200"><ele>509.7</ele></trkpt>
            <trkpt lat="53.5230500" lon="-1.8445800"><ele>509.8</ele></trkpt>
            <trkpt lat="53.5231600" lon="-1.8446100"><ele>510.1</ele></trkpt>
            <trkpt lat="53.5232300" lon="-1.8445900"><ele>510.3</ele></trkpt>
            <trkpt lat="53.5233200" lon="-1.8446000"><ele>510.6</ele></trkpt>
            <trkpt lat="53.5234000" lon="-1.8446700"><ele>511.0</ele></trkpt>
            <trkpt lat="53.5235200" lon="-1.8448200"><ele>512.0</ele></trkpt>
            <trkpt lat="53.5235700" lon="-1.8447900"><ele>512.1</ele></trkpt>
            <trkpt lat="53.5236100" lon="-1.8446900"><ele>512.0</ele></trkpt>
            <trkpt lat="53.5236100" lon="-1.8446300"><ele>511.8</ele></trkpt>
            <trkpt lat="53.5236500" lon="-1.8445700"><ele>511.8</ele></trkpt>
            <trkpt lat="53.5237200" lon="-1.8445300"><ele>512.3</ele></trkpt>
            <trkpt lat="53.5238000" lon="-1.8444300"><ele>512.8</ele></trkpt>
            <trkpt lat="53.5239000" lon="-1.8441800"><ele>513.0</ele></trkpt>
            <trkpt lat="53.5238900" lon="-1.8438400"><ele>511.9</ele></trkpt>
            <trkpt lat="53.5239100" lon="-1.8433300"><ele>510.4</ele></trkpt>
            <trkpt lat="53.5238900" lon="-1.8432000"><ele>509.8</ele></trkpt>
            <trkpt lat="53.5238800" lon="-1.8429800"><ele>509.0</ele></trkpt>
            <trkpt lat="53.5239100" lon="-1.8427000"><ele>508.5</ele></trkpt>
            <trkpt lat="53.5239100" lon="-1.8426000"><ele>508.1</ele></trkpt>
            <trkpt lat="53.5238900" lon="-1.8424400"><ele>507.2</ele></trkpt>
            <trkpt lat="53.5238600" lon="-1.8423300"><ele>506.6</ele></trkpt>
            <trkpt lat="53.5238100" lon="-1.8418700"><ele>505.4</ele></trkpt>
            <trkpt lat="53.5237200" lon="-1.8415900"><ele>504.2</ele></trkpt>
            <trkpt lat="53.5236900" lon="-1.8414000"><ele>504.0</ele></trkpt>
            <trkpt lat="53.5236700" lon="-1.8411700"><ele>503.7</ele></trkpt>
            <trkpt lat="53.5235500" lon="-1.8407800"><ele>503.2</ele></trkpt>
            <trkpt lat="53.5235300" lon="-1.8406200"><ele>503.4</ele></trkpt>
            <trkpt lat="53.5235300" lon="-1.8404200"><ele>503.3</ele></trkpt>
            <trkpt lat="53.5235700" lon="-1.8400700"><ele>501.7</ele></trkpt>
            <trkpt lat="53.5235600" lon="-1.8399900"><ele>501.3</ele></trkpt>
            <trkpt lat="53.5235700" lon="-1.8398700"><ele>500.9</ele></trkpt>
            <trkpt lat="53.5236000" lon="-1.8397200"><ele>500.1</ele></trkpt>
            <trkpt lat="53.5236000" lon="-1.8393700"><ele>498.5</ele></trkpt>
            <trkpt lat="53.5236900" lon="-1.8388200"><ele>497.3</ele></trkpt>
            <trkpt lat="53.5238000" lon="-1.8384600"><ele>496.6</ele></trkpt>
            <trkpt lat="53.5238100" lon="-1.8383300"><ele>496.4</ele></trkpt>
            <trkpt lat="53.5238000" lon="-1.8381700"><ele>495.9</ele></trkpt>
            <trkpt lat="53.5237200" lon="-1.8378300"><ele>495.0</ele></trkpt>
            <trkpt lat="53.5237000" lon="-1.8376900"><ele>494.5</ele></trkpt>
            <trkpt lat="53.5237100" lon="-1.8374700"><ele>493.7</ele></trkpt>
            <trkpt lat="53.5237800" lon="-1.8368500"><ele>492.4</ele></trkpt>
            <trkpt lat="53.5238000" lon="-1.8367300"><ele>492.2</ele></trkpt>
            <trkpt lat="53.5239900" lon="-1.8362300"><ele>491.7</ele></trkpt>
            <trkpt lat="53.5240700" lon="-1.8359700"><ele>491.0</ele></trkpt>
            <trkpt lat="53.5241100" lon="-1.8357600"><ele>490.7</ele></trkpt>
            <trkpt lat="53.5241200" lon="-1.8354200"><ele>490.1</ele></trkpt>
            <trkpt lat="53.5241000" lon="-1.8349200"><ele>488.7</ele></trkpt>
            <trkpt lat="53.5241800" lon="-1.8345000"><ele>487.4</ele></trkpt>
            <trkpt lat="53.5242600" lon="-1.8343000"><ele>487.3</ele></trkpt>
            <trkpt lat="53.5242800" lon="-1.8342100"><ele>487.3</ele></trkpt>
            <trkpt lat="53.5242900" lon="-1.8339100"><ele>486.7</ele></trkpt>
            <trkpt lat="53.5244100" lon="-1.8333400"><ele>486.0</ele></trkpt>
            <trkpt lat="53.5244100" lon="-1.8332800"><ele>486.0</ele></trkpt>
            <trkpt lat="53.5244800" lon="-1.8328400"><ele>485.4</ele></trkpt>
            <trkpt lat="53.5244700" lon="-1.8327200"><ele>485.2</ele></trkpt>
            <trkpt lat="53.5244000" lon="-1.8324000"><ele>484.5</ele></trkpt>
            <trkpt lat="53.5243900" lon="-1.8321300"><ele>483.8</ele></trkpt>
            <trkpt lat="53.5244200" lon="-1.8319100"><ele>484.0</ele></trkpt>
            <trkpt lat="53.5244200" lon="-1.8317500"><ele>484.0</ele></trkpt>
            <trkpt lat="53.5244600" lon="-1.8314100"><ele>483.3</ele></trkpt>
            <trkpt lat="53.5244600" lon="-1.8312100"><ele>482.6</ele></trkpt>
            <trkpt lat="53.5244300" lon="-1.8309800"><ele>481.7</ele></trkpt>
            <trkpt lat="53.5244300" lon="-1.8308500"><ele>481.3</ele></trkpt>
            <trkpt lat="53.5244800" lon="-1.8305400"><ele>480.4</ele></trkpt>
            <trkpt lat="53.5245200" lon="-1.8301000"><ele>479.8</ele></trkpt>
            <trkpt lat="53.5245000" lon="-1.8297100"><ele>479.3</ele></trkpt>
            <trkpt lat="53.5245000" lon="-1.8294600"><ele>479.1</ele></trkpt>
            <trkpt lat="53.5245300" lon="-1.8291400"><ele>479.0</ele></trkpt>
            <trkpt lat="53.5245100" lon="-1.8284100"><ele>479.0</ele></trkpt>
            <trkpt lat="53.5245400" lon="-1.8282500"><ele>479.0</ele></trkpt>
            <trkpt lat="53.5245500" lon="-1.8281200"><ele>479.0</ele></trkpt>
            <trkpt lat="53.5245800" lon="-1.8280000"><ele>479.0</ele></trkpt>
            <trkpt lat="53.5246300" lon="-1.8279000"><ele>479.0</ele></trkpt>
            <trkpt lat="53.5248200" lon="-1.8276800"><ele>479.4</ele></trkpt>
            <trkpt lat="53.5248400" lon="-1.8275500"><ele>479.4</ele></trkpt>
            <trkpt lat="53.5249200" lon="-1.8273400"><ele>479.5</ele></trkpt>
            <trkpt lat="53.5252700" lon="-1.8265800"><ele>476.7</ele></trkpt>
            <trkpt lat="53.5254300" lon="-1.8261600"><ele>474.7</ele></trkpt>
            <trkpt lat="53.5255500" lon="-1.8259000"><ele>474.0</ele></trkpt>
            <trkpt lat="53.5256400" lon="-1.8256200"><ele>473.3</ele></trkpt>
            <trkpt lat="53.5258000" lon="-1.8253200"><ele>472.9</ele></trkpt>
            <trkpt lat="53.5258800" lon="-1.8252700"><ele>472.8</ele></trkpt>
            <trkpt lat="53.5260100" lon="-1.8250900"><ele>472.4</ele></trkpt>
            <trkpt lat="53.5260900" lon="-1.8247900"><ele>471.4</ele></trkpt>
            <trkpt lat="53.5262000" lon="-1.8244800"><ele>469.9</ele></trkpt>
            <trkpt lat="53.5262100" lon="-1.8243200"><ele>469.3</ele></trkpt>
            <trkpt lat="53.5262300" lon="-1.8242200"><ele>469.0</ele></trkpt>
            <trkpt lat="53.5262200" lon="-1.8240700"><ele>468.5</ele></trkpt>
            <trkpt lat="53.5262500" lon="-1.8239600"><ele>468.1</ele></trkpt>
            <trkpt lat="53.5263300" lon="-1.8237700"><ele>467.6</ele></trkpt>
            <trkpt lat="53.5263900" lon="-1.8237100"><ele>467.0</ele></trkpt>
            <trkpt lat="53.5264700" lon="-1.8235800"><ele>466.9</ele></trkpt>
            <trkpt lat="53.5266400" lon="-1.8235100"><ele>465.6</ele></trkpt>
            <trkpt lat="53.5268500" lon="-1.8234600"><ele>462.7</ele></trkpt>
            <trkpt lat="53.5269900" lon="-1.8233900"><ele>460.9</ele></trkpt>
            <trkpt lat="53.5270400" lon="-1.8233400"><ele>460.0</ele></trkpt>
            <trkpt lat="53.5270900" lon="-1.8232800"><ele>459.0</ele></trkpt>
            <trkpt lat="53.5272000" lon="-1.8230200"><ele>457.6</ele></trkpt>
            <trkpt lat="53.5274000" lon="-1.8226400"><ele>454.1</ele></trkpt>
            <trkpt lat="53.5274600" lon="-1.8224600"><ele>452.7</ele></trkpt>
            <trkpt lat="53.5275000" lon="-1.8222300"><ele>454.2</ele></trkpt>
            <trkpt lat="53.5275900" lon="-1.8219100"><ele>452.1</ele></trkpt>
            <trkpt lat="53.5276100" lon="-1.8215900"><ele>451.7</ele></trkpt>
            <trkpt lat="53.5276700" lon="-1.8213200"><ele>449.6</ele></trkpt>
            <trkpt lat="53.5277200" lon="-1.8211600"><ele>447.0</ele></trkpt>
            <trkpt lat="53.5277900" lon="-1.8207500"><ele>445.6</ele></trkpt>
            <trkpt lat="53.5279000" lon="-1.8203100"><ele>445.3</ele></trkpt>
            <trkpt lat="53.5280100" lon="-1.8200700"><ele>444.5</ele></trkpt>
            <trkpt lat="53.5284700" lon="-1.8192300"><ele>443.5</ele></trkpt>
            <trkpt lat="53.5286400" lon="-1.8189800"><ele>439.5</ele></trkpt>
            <trkpt lat="53.5288800" lon="-1.8187200"><ele>436.4</ele></trkpt>
            <trkpt lat="53.5289100" lon="-1.8186400"><ele>436.8</ele></trkpt>
            <trkpt lat="53.5289900" lon="-1.8185200"><ele>437.3</ele></trkpt>
            <trkpt lat="53.5290200" lon="-1.8183700"><ele>438.8</ele></trkpt>
            <trkpt lat="53.5289900" lon="-1.8182600"><ele>441.6</ele></trkpt>
            <trkpt lat="53.5288400" lon="-1.8178100"><ele>447.8</ele></trkpt>
            <trkpt lat="53.5287600" lon="-1.8177200"><ele>449.6</ele></trkpt>
            <trkpt lat="53.5287000" lon="-1.8175700"><ele>450.1</ele></trkpt>
            <trkpt lat="53.5286600" lon="-1.8173700"><ele>448.9</ele></trkpt>
            <trkpt lat="53.5286700" lon="-1.8173000"><ele>448.5</ele></trkpt>
            <trkpt lat="53.5287300" lon="-1.8172400"><ele>446.3</ele></trkpt>
            <trkpt lat="53.5288500" lon="-1.8170400"><ele>442.5</ele></trkpt>
            <trkpt lat="53.5289600" lon="-1.8166500"><ele>436.7</ele></trkpt>
            <trkpt lat="53.5289900" lon="-1.8164100"><ele>436.5</ele></trkpt>
            <trkpt lat="53.5289800" lon="-1.8162800"><ele>437.9</ele></trkpt>
            <trkpt lat="53.5289300" lon="-1.8160600"><ele>440.4</ele></trkpt>
            <trkpt lat="53.5289000" lon="-1.8160100"><ele>441.3</ele></trkpt>
            <trkpt lat="53.5287700" lon="-1.8159100"><ele>444.1</ele></trkpt>
            <trkpt lat="53.5287600" lon="-1.8158300"><ele>444.1</ele></trkpt>
            <trkpt lat="53.5287700" lon="-1.8158100"><ele>444.1</ele></trkpt>
            <trkpt lat="53.5288400" lon="-1.8157800"><ele>443.0</ele></trkpt>
            <trkpt lat="53.5289800" lon="-1.8156800"><ele>441.4</ele></trkpt>
            <trkpt lat="53.5290200" lon="-1.8156800"><ele>440.8</ele></trkpt>
            <trkpt lat="53.5292300" lon="-1.8157300"><ele>438.2</ele></trkpt>
            <trkpt lat="53.5296900" lon="-1.8160300"><ele>430.5</ele></trkpt>
            <trkpt lat="53.5298400" lon="-1.8160600"><ele>427.6</ele></trkpt>
            <trkpt lat="53.5299000" lon="-1.8160400"><ele>427.9</ele></trkpt>
            <trkpt lat="53.5299300" lon="-1.8160100"><ele>426.0</ele></trkpt>
            <trkpt lat="53.5299500" lon="-1.8159300"><ele>428.1</ele></trkpt>
            <trkpt lat="53.5299700" lon="-1.8155100"><ele>435.2</ele></trkpt>
            <trkpt lat="53.5300600" lon="-1.8148600"><ele>437.2</ele></trkpt>
            <trkpt lat="53.5300800" lon="-1.8147900"><ele>436.2</ele></trkpt>
            <trkpt lat="53.5301000" lon="-1.8146300"><ele>437.0</ele></trkpt>
            <trkpt lat="53.5302000" lon="-1.8142300"><ele>434.9</ele></trkpt>
            <trkpt lat="53.5303000" lon="-1.8136800"><ele>432.5</ele></trkpt>
            <trkpt lat="53.5303600" lon="-1.8134800"><ele>432.5</ele></trkpt>
            <trkpt lat="53.5304500" lon="-1.8132400"><ele>432.3</ele></trkpt>
            <trkpt lat="53.5308300" lon="-1.8124300"><ele>430.2</ele></trkpt>
            <trkpt lat="53.5309600" lon="-1.8120600"><ele>430.1</ele></trkpt>
            <trkpt lat="53.5310600" lon="-1.8118500"><ele>430.4</ele></trkpt>
            <trkpt lat="53.5311200" lon="-1.8117600"><ele>430.4</ele></trkpt>
            <trkpt lat="53.5313600" lon="-1.8115200"><ele>430.4</ele></trkpt>
            <trkpt lat="53.5313700" lon="-1.8114900"><ele>430.5</ele></trkpt>
            <trkpt lat="53.5313300" lon="-1.8114300"><ele>430.8</ele></trkpt>
            <trkpt lat="53.5312900" lon="-1.8112900"><ele>431.4</ele></trkpt>
            <trkpt lat="53.5312800" lon="-1.8112100"><ele>431.8</ele></trkpt>
            <trkpt lat="53.5312100" lon="-1.8110200"><ele>433.3</ele></trkpt>
            <trkpt lat="53.5311800" lon="-1.8107600"><ele>434.0</ele></trkpt>
            <trkpt lat="53.5311200" lon="-1.8106000"><ele>434.3</ele></trkpt>
            <trkpt lat="53.5310800" lon="-1.8102900"><ele>434.1</ele></trkpt>
            <trkpt lat="53.5309700" lon="-1.8098900"><ele>434.8</ele></trkpt>
            <trkpt lat="53.5309500" lon="-1.8097500"><ele>434.9</ele></trkpt>
            <trkpt lat="53.5309100" lon="-1.8096500"><ele>434.9</ele></trkpt>
            <trkpt lat="53.5308900" lon="-1.8095200"><ele>434.7</ele></trkpt>
            <trkpt lat="53.5308200" lon="-1.8093400"><ele>434.3</ele></trkpt>
            <trkpt lat="53.5307400" lon="-1.8089400"><ele>434.0</ele></trkpt>
            <trkpt lat="53.5306600" lon="-1.8087100"><ele>434.0</ele></trkpt>
            <trkpt lat="53.5306300" lon="-1.8084300"><ele>433.8</ele></trkpt>
            <trkpt lat="53.5305700" lon="-1.8083000"><ele>433.7</ele></trkpt>
            <trkpt lat="53.5304900" lon="-1.8080400"><ele>433.3</ele></trkpt>
            <trkpt lat="53.5304700" lon="-1.8078200"><ele>432.7</ele></trkpt>
            <trkpt lat="53.5303600" lon="-1.8076700"><ele>432.6</ele></trkpt>
            <trkpt lat="53.5301100" lon="-1.8075500"><ele>434.2</ele></trkpt>
            <trkpt lat="53.5300300" lon="-1.8074700"><ele>435.0</ele></trkpt>
            <trkpt lat="53.5299100" lon="-1.8074100"><ele>436.9</ele></trkpt>
            <trkpt lat="53.5298200" lon="-1.8074000"><ele>439.0</ele></trkpt>
            <trkpt lat="53.5297800" lon="-1.8073600"><ele>439.6</ele></trkpt>
            <trkpt lat="53.5293500" lon="-1.8073300"><ele>450.6</ele></trkpt>
            <trkpt lat="53.5292800" lon="-1.8072800"><ele>453.0</ele></trkpt>
            <trkpt lat="53.5290900" lon="-1.8072300"><ele>458.6</ele></trkpt>
            <trkpt lat="53.5289900" lon="-1.8071700"><ele>461.1</ele></trkpt>
            <trkpt lat="53.5289600" lon="-1.8071300"><ele>461.9</ele></trkpt>
            <trkpt lat="53.5288200" lon="-1.8071100"><ele>465.3</ele></trkpt>
            <trkpt lat="53.5286500" lon="-1.8072500"><ele>467.0</ele></trkpt>
            <trkpt lat="53.5283700" lon="-1.8074000"><ele>469.1</ele></trkpt>
            <trkpt lat="53.5282800" lon="-1.8074800"><ele>469.8</ele></trkpt>
            <trkpt lat="53.5280500" lon="-1.8077400"><ele>472.4</ele></trkpt>
            <trkpt lat="53.5278400" lon="-1.8080100"><ele>472.8</ele></trkpt>
            <trkpt lat="53.5277200" lon="-1.8081000"><ele>473.5</ele></trkpt>
            <trkpt lat="53.5274900" lon="-1.8081700"><ele>473.5</ele></trkpt>
            <trkpt lat="53.5273000" lon="-1.8081700"><ele>473.3</ele></trkpt>
            <trkpt lat="53.5272500" lon="-1.8081400"><ele>473.5</ele></trkpt>
            <trkpt lat="53.5271700" lon="-1.8080500"><ele>473.0</ele></trkpt>
            <trkpt lat="53.5270900" lon="-1.8078900"><ele>472.9</ele></trkpt>
            <trkpt lat="53.5270600" lon="-1.8076000"><ele>473.4</ele></trkpt>
            <trkpt lat="53.5270200" lon="-1.8074300"><ele>473.7</ele></trkpt>
            <trkpt lat="53.5268400" lon="-1.8070100"><ele>473.0</ele></trkpt>
            <trkpt lat="53.5266500" lon="-1.8063800"><ele>471.1</ele></trkpt>
            <trkpt lat="53.5264900" lon="-1.8059900"><ele>470.2</ele></trkpt>
            <trkpt lat="53.5263700" lon="-1.8055600"><ele>469.7</ele></trkpt>
            <trkpt lat="53.5260300" lon="-1.8044800"><ele>468.8</ele></trkpt>
            <trkpt lat="53.5259300" lon="-1.8038900"><ele>469.1</ele></trkpt>
            <trkpt lat="53.5259000" lon="-1.8035500"><ele>468.6</ele></trkpt>
            <trkpt lat="53.5258500" lon="-1.8031900"><ele>466.5</ele></trkpt>
            <trkpt lat="53.5257700" lon="-1.8020800"><ele>466.3</ele></trkpt>
            <trkpt lat="53.5257700" lon="-1.8009800"><ele>464.0</ele></trkpt>
            <trkpt lat="53.5258100" lon="-1.8003800"><ele>462.3</ele></trkpt>
            <trkpt lat="53.5258400" lon="-1.8003100"><ele>462.6</ele></trkpt>
            <trkpt lat="53.5259100" lon="-1.8002100"><ele>463.5</ele></trkpt>
            <trkpt lat="53.5260700" lon="-1.8000300"><ele>465.1</ele></trkpt>
            <trkpt lat="53.5260900" lon="-1.7999600"><ele>465.2</ele></trkpt>
            <trkpt lat="53.5260700" lon="-1.7999000"><ele>464.1</ele></trkpt>
            <trkpt lat="53.5259700" lon="-1.7998700"><ele>462.2</ele></trkpt>
            <trkpt lat="53.5257600" lon="-1.7998700"><ele>457.8</ele></trkpt>
            <trkpt lat="53.5256700" lon="-1.7998400"><ele>455.6</ele></trkpt>
            <trkpt lat="53.5256100" lon="-1.7997800"><ele>453.0</ele></trkpt>
            <trkpt lat="53.5253900" lon="-1.7997300"><ele>447.4</ele></trkpt>
            <trkpt lat="53.5253500" lon="-1.7997000"><ele>446.1</ele></trkpt>
            <trkpt lat="53.5253200" lon="-1.7996400"><ele>444.8</ele></trkpt>
            <trkpt lat="53.5252400" lon="-1.7995700"><ele>442.7</ele></trkpt>
            <trkpt lat="53.5251000" lon="-1.7995300"><ele>439.5</ele></trkpt>
            <trkpt lat="53.5250100" lon="-1.7995300"><ele>438.2</ele></trkpt>
            <trkpt lat="53.5248800" lon="-1.7995000"><ele>435.9</ele></trkpt>
            <trkpt lat="53.5246100" lon="-1.7994200"><ele>431.8</ele></trkpt>
            <trkpt lat="53.5245100" lon="-1.7994200"><ele>430.7</ele></trkpt>
            <trkpt lat="53.5242300" lon="-1.7993600"><ele>428.0</ele></trkpt>
            <trkpt lat="53.5240800" lon="-1.7993000"><ele>426.1</ele></trkpt>
            <trkpt lat="53.5237700" lon="-1.7992700"><ele>422.0</ele></trkpt>
            <trkpt lat="53.5237200" lon="-1.7992500"><ele>421.2</ele></trkpt>
            <trkpt lat="53.5236800" lon="-1.7991900"><ele>420.7</ele></trkpt>
            <trkpt lat="53.5236700" lon="-1.7989800"><ele>419.7</ele></trkpt>
            <trkpt lat="53.5236700" lon="-1.7988200"><ele>419.1</ele></trkpt>
            <trkpt lat="53.5236800" lon="-1.7987600"><ele>419.3</ele></trkpt>
            <trkpt lat="53.5237700" lon="-1.7984800"><ele>419.0</ele></trkpt>
            <trkpt lat="53.5237900" lon="-1.7983600"><ele>418.8</ele></trkpt>
            <trkpt lat="53.5238600" lon="-1.7981100"><ele>419.4</ele></trkpt>
            <trkpt lat="53.5239400" lon="-1.7977400"><ele>419.6</ele></trkpt>
            <trkpt lat="53.5239900" lon="-1.7975900"><ele>419.7</ele></trkpt>
            <trkpt lat="53.5240100" lon="-1.7974700"><ele>419.8</ele></trkpt>
            <trkpt lat="53.5240100" lon="-1.7973000"><ele>419.2</ele></trkpt>
            <trkpt lat="53.5239400" lon="-1.7970600"><ele>417.3</ele></trkpt>
            <trkpt lat="53.5239400" lon="-1.7968000"><ele>416.1</ele></trkpt>
            <trkpt lat="53.5239700" lon="-1.7963000"><ele>414.0</ele></trkpt>
            <trkpt lat="53.5239400" lon="-1.7961600"><ele>412.6</ele></trkpt>
            <trkpt lat="53.5238800" lon="-1.7960300"><ele>410.2</ele></trkpt>
            <trkpt lat="53.5238600" lon="-1.7959400"><ele>409.6</ele></trkpt>
            <trkpt lat="53.5238600" lon="-1.7958500"><ele>409.0</ele></trkpt>
            <trkpt lat="53.5238200" lon="-1.7956000"><ele>406.2</ele></trkpt>
            <trkpt lat="53.5236500" lon="-1.7946900"><ele>404.7</ele></trkpt>
            <trkpt lat="53.5236300" lon="-1.7944700"><ele>405.8</ele></trkpt>
            <trkpt lat="53.5236300" lon="-1.7943200"><ele>406.4</ele></trkpt>
            <trkpt lat="53.5236500" lon="-1.7940900"><ele>407.1</ele></trkpt>
            <trkpt lat="53.5236000" lon="-1.7939000"><ele>407.1</ele></trkpt>
            <trkpt lat="53.5235300" lon="-1.7937800"><ele>405.7</ele></trkpt>
            <trkpt lat="53.5233300" lon="-1.7935500"><ele>400.6</ele></trkpt>
            <trkpt lat="53.5232000" lon="-1.7934300"><ele>396.8</ele></trkpt>
            <trkpt lat="53.5229400" lon="-1.7931200"><ele>390.2</ele></trkpt>
            <trkpt lat="53.5228500" lon="-1.7929900"><ele>388.3</ele></trkpt>
            <trkpt lat="53.5228400" lon="-1.7929200"><ele>388.3</ele></trkpt>
            <trkpt lat="53.5228500" lon="-1.7928400"><ele>388.3</ele></trkpt>
            <trkpt lat="53.5230700" lon="-1.7923100"><ele>390.7</ele></trkpt>
            <trkpt lat="53.5233800" lon="-1.7913000"><ele>390.6</ele></trkpt>
            <trkpt lat="53.5233500" lon="-1.7912500"><ele>390.0</ele></trkpt>
            <trkpt lat="53.5232500" lon="-1.7912000"><ele>387.9</ele></trkpt>
            <trkpt lat="53.5231900" lon="-1.7911200"><ele>386.4</ele></trkpt>
            <trkpt lat="53.5230400" lon="-1.7907400"><ele>382.4</ele></trkpt>
            <trkpt lat="53.5229200" lon="-1.7904800"><ele>378.4</ele></trkpt>
            <trkpt lat="53.5227900" lon="-1.7902400"><ele>373.6</ele></trkpt>
            <trkpt lat="53.5227500" lon="-1.7901000"><ele>371.3</ele></trkpt>
            <trkpt lat="53.5227000" lon="-1.7900300"><ele>369.4</ele></trkpt>
            <trkpt lat="53.5226400" lon="-1.7900100"><ele>368.3</ele></trkpt>
            <trkpt lat="53.5225800" lon="-1.7900400"><ele>367.3</ele></trkpt>
            <trkpt lat="53.5223900" lon="-1.7903800"><ele>366.5</ele></trkpt>
            <trkpt lat="53.5222500" lon="-1.7906000"><ele>366.0</ele></trkpt>
            <trkpt lat="53.5220800" lon="-1.7908100"><ele>365.1</ele></trkpt>
            <trkpt lat="53.5219200" lon="-1.7909600"><ele>364.8</ele></trkpt>
            <trkpt lat="53.5217000" lon="-1.7911100"><ele>365.1</ele></trkpt>
            <trkpt lat="53.5215800" lon="-1.7911300"><ele>366.5</ele></trkpt>
            <trkpt lat="53.5215200" lon="-1.7911600"><ele>367.3</ele></trkpt>
            <trkpt lat="53.5214600" lon="-1.7913200"><ele>367.6</ele></trkpt>
            <trkpt lat="53.5213200" lon="-1.7914900"><ele>369.0</ele></trkpt>
            <trkpt lat="53.5212700" lon="-1.7915700"><ele>369.3</ele></trkpt>
            <trkpt lat="53.5212300" lon="-1.7916700"><ele>369.3</ele></trkpt>
            <trkpt lat="53.5212000" lon="-1.7916500"><ele>370.5</ele></trkpt>
            <trkpt lat="53.5212000" lon="-1.7916100"><ele>370.9</ele></trkpt>
            <trkpt lat="53.5213000" lon="-1.7913000"><ele>371.7</ele></trkpt>
            <trkpt lat="53.5215800" lon="-1.7902500"><ele>372.4</ele></trkpt>
            <trkpt lat="53.5217000" lon="-1.7899000"><ele>372.8</ele></trkpt>
            <trkpt lat="53.5218500" lon="-1.7891200"><ele>373.1</ele></trkpt>
            <trkpt lat="53.5218900" lon="-1.7888400"><ele>373.4</ele></trkpt>
            <trkpt lat="53.5219100" lon="-1.7877900"><ele>371.1</ele></trkpt>
            <trkpt lat="53.5219000" lon="-1.7876900"><ele>370.6</ele></trkpt>
            <trkpt lat="53.5218700" lon="-1.7875600"><ele>370.7</ele></trkpt>
            <trkpt lat="53.5218500" lon="-1.7875200"><ele>371.3</ele></trkpt>
            <trkpt lat="53.5218500" lon="-1.7874800"><ele>371.0</ele></trkpt>
            <trkpt lat="53.5216300" lon="-1.7870600"><ele>374.6</ele></trkpt>
            <trkpt lat="53.5214700" lon="-1.7868500"><ele>376.8</ele></trkpt>
            <trkpt lat="53.5212800" lon="-1.7864700"><ele>377.8</ele></trkpt>
            <trkpt lat="53.5212600" lon="-1.7863900"><ele>377.6</ele></trkpt>
            <trkpt lat="53.5212700" lon="-1.7863500"><ele>377.2</ele></trkpt>
            <trkpt lat="53.5212600" lon="-1.7862900"><ele>376.7</ele></trkpt>
            <trkpt lat="53.5212200" lon="-1.7861900"><ele>377.3</ele></trkpt>
            <trkpt lat="53.5211900" lon="-1.7861200"><ele>377.1</ele></trkpt>
            <trkpt lat="53.5210600" lon="-1.7859500"><ele>378.8</ele></trkpt>
            <trkpt lat="53.5210400" lon="-1.7858900"><ele>379.1</ele></trkpt>
            <trkpt lat="53.5210500" lon="-1.7857300"><ele>376.9</ele></trkpt>
            <trkpt lat="53.5210400" lon="-1.7856500"><ele>376.9</ele></trkpt>
            <trkpt lat="53.5210000" lon="-1.7855700"><ele>376.9</ele></trkpt>
            <trkpt lat="53.5208900" lon="-1.7854200"><ele>379.6</ele></trkpt>
            <trkpt lat="53.5208800" lon="-1.7853800"><ele>379.3</ele></trkpt>
            <trkpt lat="53.5208800" lon="-1.7852700"><ele>378.0</ele></trkpt>
            <trkpt lat="53.5209100" lon="-1.7851100"><ele>375.8</ele></trkpt>
            <trkpt lat="53.5209100" lon="-1.7849600"><ele>373.9</ele></trkpt>
            <trkpt lat="53.5208800" lon="-1.7846100"><ele>371.2</ele></trkpt>
            <trkpt lat="53.5208500" lon="-1.7845000"><ele>371.0</ele></trkpt>
            <trkpt lat="53.5207700" lon="-1.7843800"><ele>373.3</ele></trkpt>
            <trkpt lat="53.5207400" lon="-1.7842900"><ele>374.2</ele></trkpt>
            <trkpt lat="53.5207200" lon="-1.7840000"><ele>372.7</ele></trkpt>
            <trkpt lat="53.5206900" lon="-1.7838800"><ele>373.3</ele></trkpt>
            <trkpt lat="53.5204700" lon="-1.7835700"><ele>376.0</ele></trkpt>
            <trkpt lat="53.5203800" lon="-1.7833800"><ele>376.0</ele></trkpt>
            <trkpt lat="53.5202400" lon="-1.7831700"><ele>376.3</ele></trkpt>
            <trkpt lat="53.5201600" lon="-1.7828900"><ele>375.5</ele></trkpt>
            <trkpt lat="53.5200400" lon="-1.7826900"><ele>375.3</ele></trkpt>
            <trkpt lat="53.5200400" lon="-1.7826400"><ele>375.1</ele></trkpt>
            <trkpt lat="53.5200700" lon="-1.7825000"><ele>374.5</ele></trkpt>
            <trkpt lat="53.5200500" lon="-1.7821400"><ele>373.4</ele></trkpt>
            <trkpt lat="53.5200500" lon="-1.7819300"><ele>372.7</ele></trkpt>
            <trkpt lat="53.5200600" lon="-1.7813900"><ele>370.2</ele></trkpt>
            <trkpt lat="53.5200900" lon="-1.7808600"><ele>366.5</ele></trkpt>
            <trkpt lat="53.5200800" lon="-1.7803700"><ele>363.2</ele></trkpt>
            <trkpt lat="53.5200900" lon="-1.7802000"><ele>361.8</ele></trkpt>
            <trkpt lat="53.5201400" lon="-1.7799900"><ele>359.8</ele></trkpt>
            <trkpt lat="53.5201300" lon="-1.7799300"><ele>359.5</ele></trkpt>
            <trkpt lat="53.5199300" lon="-1.7797900"><ele>359.1</ele></trkpt>
            <trkpt lat="53.5198800" lon="-1.7797300"><ele>358.4</ele></trkpt>
            <trkpt lat="53.5198000" lon="-1.7797000"><ele>358.1</ele></trkpt>
            <trkpt lat="53.5196500" lon="-1.7798200"><ele>357.8</ele></trkpt>
            <trkpt lat="53.5190500" lon="-1.7804000"><ele>359.0</ele></trkpt>
            <trkpt lat="53.5189000" lon="-1.7805200"><ele>358.0</ele></trkpt>
            <trkpt lat="53.5186100" lon="-1.7809700"><ele>359.3</ele></trkpt>
            <trkpt lat="53.5183600" lon="-1.7815400"><ele>361.4</ele></trkpt>
            <trkpt lat="53.5179300" lon="-1.7823600"><ele>363.7</ele></trkpt>
            <trkpt lat="53.5178200" lon="-1.7824800"><ele>363.9</ele></trkpt>
            <trkpt lat="53.5176400" lon="-1.7828000"><ele>364.6</ele></trkpt>
            <trkpt lat="53.5174700" lon="-1.7829600"><ele>362.1</ele></trkpt>
            <trkpt lat="53.5173800" lon="-1.7830200"><ele>361.5</ele></trkpt>
            <trkpt lat="53.5171700" lon="-1.7832400"><ele>360.7</ele></trkpt>
            <trkpt lat="53.5170200" lon="-1.7832200"><ele>359.7</ele></trkpt>
            <trkpt lat="53.5169700" lon="-1.7831700"><ele>358.3</ele></trkpt>
            <trkpt lat="53.5168900" lon="-1.7830000"><ele>355.8</ele></trkpt>
            <trkpt lat="53.5168100" lon="-1.7828900"><ele>354.2</ele></trkpt>
            <trkpt lat="53.5164900" lon="-1.7826900"><ele>351.3</ele></trkpt>
            <trkpt lat="53.5163700" lon="-1.7826600"><ele>350.8</ele></trkpt>
            <trkpt lat="53.5162300" lon="-1.7826800"><ele>351.0</ele></trkpt>
            <trkpt lat="53.5161500" lon="-1.7826600"><ele>350.9</ele></trkpt>
            <trkpt lat="53.5161100" lon="-1.7826300"><ele>351.1</ele></trkpt>
            <trkpt lat="53.5160800" lon="-1.7826400"><ele>351.2</ele></trkpt>
            <trkpt lat="53.5160200" lon="-1.7827000"><ele>351.9</ele></trkpt>
            <trkpt lat="53.5159800" lon="-1.7827000"><ele>352.1</ele></trkpt>
            <trkpt lat="53.5159500" lon="-1.7826600"><ele>352.2</ele></trkpt>
            <trkpt lat="53.5159300" lon="-1.7825300"><ele>352.0</ele></trkpt>
            <trkpt lat="53.5159500" lon="-1.7823800"><ele>351.3</ele></trkpt>
            <trkpt lat="53.5159400" lon="-1.7823000"><ele>351.4</ele></trkpt>
            <trkpt lat="53.5159600" lon="-1.7821600"><ele>350.8</ele></trkpt>
            <trkpt lat="53.5159500" lon="-1.7821100"><ele>350.8</ele></trkpt>
            <trkpt lat="53.5158800" lon="-1.7819200"><ele>351.9</ele></trkpt>
            <trkpt lat="53.5158100" lon="-1.7818100"><ele>353.5</ele></trkpt>
            <trkpt lat="53.5157600" lon="-1.7816500"><ele>355.3</ele></trkpt>
            <trkpt lat="53.5157400" lon="-1.7814200"><ele>357.4</ele></trkpt>
            <trkpt lat="53.5155800" lon="-1.7811400"><ele>363.4</ele></trkpt>
            <trkpt lat="53.5154800" lon="-1.7807300"><ele>369.7</ele></trkpt>
            <trkpt lat="53.5155100" lon="-1.7806200"><ele>370.6</ele></trkpt>
            <trkpt lat="53.5155700" lon="-1.7805800"><ele>369.6</ele></trkpt>
            <trkpt lat="53.5158500" lon="-1.7803100"><ele>367.8</ele></trkpt>
            <trkpt lat="53.5161500" lon="-1.7799900"><ele>366.0</ele></trkpt>
            <trkpt lat="53.5162700" lon="-1.7798300"><ele>365.2</ele></trkpt>
            <trkpt lat="53.5164000" lon="-1.7796300"><ele>364.4</ele></trkpt>
            <trkpt lat="53.5165500" lon="-1.7793600"><ele>363.8</ele></trkpt>
            <trkpt lat="53.5167600" lon="-1.7789200"><ele>364.9</ele></trkpt>
            <trkpt lat="53.5170800" lon="-1.7776600"><ele>359.2</ele></trkpt>
            <trkpt lat="53.5171600" lon="-1.7774400"><ele>358.9</ele></trkpt>
            <trkpt lat="53.5173200" lon="-1.7771700"><ele>358.6</ele></trkpt>
            <trkpt lat="53.5173900" lon="-1.7769400"><ele>357.9</ele></trkpt>
            <trkpt lat="53.5174300" lon="-1.7766100"><ele>357.4</ele></trkpt>
            <trkpt lat="53.5174300" lon="-1.7765200"><ele>357.3</ele></trkpt>
            <trkpt lat="53.5173900" lon="-1.7762900"><ele>358.0</ele></trkpt>
            <trkpt lat="53.5173900" lon="-1.7761700"><ele>357.6</ele></trkpt>
            <trkpt lat="53.5173600" lon="-1.7759700"><ele>357.2</ele></trkpt>
            <trkpt lat="53.5173800" lon="-1.7757800"><ele>354.6</ele></trkpt>
            <trkpt lat="53.5173600" lon="-1.7756500"><ele>354.0</ele></trkpt>
            <trkpt lat="53.5173600" lon="-1.7754900"><ele>352.8</ele></trkpt>
            <trkpt lat="53.5173800" lon="-1.7753100"><ele>351.5</ele></trkpt>
            <trkpt lat="53.5173800" lon="-1.7751700"><ele>351.0</ele></trkpt>
            <trkpt lat="53.5173700" lon="-1.7750900"><ele>351.1</ele></trkpt>
            <trkpt lat="53.5173200" lon="-1.7749300"><ele>351.4</ele></trkpt>
            <trkpt lat="53.5172800" lon="-1.7746800"><ele>351.7</ele></trkpt>
            <trkpt lat="53.5171300" lon="-1.7741300"><ele>351.7</ele></trkpt>
            <trkpt lat="53.5169800" lon="-1.7737500"><ele>351.5</ele></trkpt>
            <trkpt lat="53.5169500" lon="-1.7736300"><ele>351.3</ele></trkpt>
            <trkpt lat="53.5169500" lon="-1.7733000"><ele>349.5</ele></trkpt>
            <trkpt lat="53.5169100" lon="-1.7730200"><ele>349.0</ele></trkpt>
            <trkpt lat="53.5168000" lon="-1.7725800"><ele>348.5</ele></trkpt>
            <trkpt lat="53.5166700" lon="-1.7722300"><ele>348.2</ele></trkpt>
            <trkpt lat="53.5166900" lon="-1.7721300"><ele>347.7</ele></trkpt>
            <trkpt lat="53.5167600" lon="-1.7720500"><ele>347.3</ele></trkpt>
            <trkpt lat="53.5167600" lon="-1.7719600"><ele>347.2</ele></trkpt>
            <trkpt lat="53.5165400" lon="-1.7716700"><ele>348.1</ele></trkpt>
            <trkpt lat="53.5163400" lon="-1.7715200"><ele>349.0</ele></trkpt>
            <trkpt lat="53.5160800" lon="-1.7713900"><ele>348.9</ele></trkpt>
            <trkpt lat="53.5156000" lon="-1.7713200"><ele>349.2</ele></trkpt>
            <trkpt lat="53.5154000" lon="-1.7712500"><ele>349.9</ele></trkpt>
            <trkpt lat="53.5153300" lon="-1.7711900"><ele>350.1</ele></trkpt>
            <trkpt lat="53.5151700" lon="-1.7709700"><ele>350.7</ele></trkpt>
            <trkpt lat="53.5150800" lon="-1.7708900"><ele>351.1</ele></trkpt>
            <trkpt lat="53.5149500" lon="-1.7708200"><ele>351.6</ele></trkpt>
            <trkpt lat="53.5148600" lon="-1.7708000"><ele>351.7</ele></trkpt>
        </trkseg>
    </trk>
<!-- ele-hash:5317010fd656c4e7 -->
</gpx>
