<?xml version="1.0" encoding="UTF-8" standalone="yes"?>
<gpx version="1.1" creator="OS Maps - Web" xmlns="http://www.topografix.com/GPX/1/1"
xmlns:xsi="http://www.w3.org/2001/XMLSchema-instance"
xsi:schemaLocation="http://www.topografix.com/GPX/1/1 http://www.topografix.com/GPX/1/1/gpx.xsd"
xmlns:gs="http://www.topografix.com/GPX/gpx_style/0/2"
xmlns:gh="https://graphhopper.com/public/schema/gpx/1.1"
xmlns:os="https://ordnancesurvey.co.uk/public/schema/route/0.1">
    <metadata>
        <name>Eccles Pike (Ethel) - Circular (www.thelostpeak.co.uk)</name>
        <desc></desc>
        <bounds minlat="53.3156000" minlon="-1.9840600" maxlat="53.3375000" maxlon="-1.9392700"/>
        <extensions>
            <os:version>2.0</os:version>
            <os:point lat="53.3353900" lon="-1.9675200" type="start"/>
            <os:point lat="53.3353900" lon="-1.9675200" type="end"/>
            <os:activity>ON_FOOT_WALKING</os:activity>
            <os:difficulty>MODERATE</os:difficulty>
            <os:paths/>
            <os:distance>10626.7061509</os:distance>
            <os:elevation_ascent>372.4300000</os:elevation_ascent>
        </extensions>
    </metadata>
    <wpt lat="53.3353900" lon="-1.9675200"/>
    <wpt lat="53.3353900" lon="-1.9675200"/>
    <trk>
        <name>Eccles Pike (Ethel) - Circular (www.thelostpeak.co.uk)</name>
        <trkseg>
            <trkpt lat="53.3353900" lon="-1.9675200"><ele>164.6</ele></trkpt>
            <trkpt lat="53.3353400" lon="-1.9678600"><ele>164.4</ele></trkpt>
            <trkpt lat="53.3353400" lon="-1.9681100"><ele>164.5</ele></trkpt>
            <trkpt lat="53.3353600" lon="-1.9683600"><ele>165.3</ele></trkpt>
            <trkpt lat="53.3357900" lon="-1.9717200"><ele>162.1</ele></trkpt>
            <trkpt lat="53.3358300" lon="-1.9724700"><ele>161.8</ele></trkpt>
            <trkpt lat="53.3358400" lon="-1.9739800"><ele>163.6</ele></trkpt>
            <trkpt lat="53.3358900" lon="-1.9747100"><ele>163.6</ele></trkpt>
            <trkpt lat="53.3360200" lon="-1.9751700"><ele>165.5</ele></trkpt>
            <trkpt lat="53.3362600" lon="-1.9757800"><ele>167.5</ele></trkpt>
            <trkpt lat="53.3365000" lon="-1.9760500"><ele>165.8</ele></trkpt>
            <trkpt lat="53.3371200" lon="-1.9768300"><ele>165.6</ele></trkpt>
            <trkpt lat="53.3373900" lon="-1.9773300"><ele>164.0</ele></trkpt>
            <trkpt lat="53.3374400" lon="-1.9774600"><ele>163.9</ele></trkpt>
            <trkpt lat="53.3374900" lon="-1.9776800"><ele>164.3</ele></trkpt>
            <trkpt lat="53.3375000" lon="-1.9777600"><ele>164.4</ele></trkpt>
            <trkpt lat="53.3375000" lon="-1.9780800"><ele>164.6</ele></trkpt>
            <trkpt lat="53.3374900" lon="-1.9781600"><ele>164.7</ele></trkpt>
            <trkpt lat="53.3373800" lon="-1.9786000"><ele>164.8</ele></trkpt>
            <trkpt lat="53.3373400" lon="-1.9788200"><ele>164.3</ele></trkpt>
            <trkpt lat="53.3372900" lon="-1.9789700"><ele>164.2</ele></trkpt>
            <trkpt lat="53.3372700" lon="-1.9791200"><ele>164.0</ele></trkpt>
            <trkpt lat="53.3372600" lon="-1.9798900"><ele>161.1</ele></trkpt>
            <trkpt lat="53.3372700" lon="-1.9801500"><ele>161.4</ele></trkpt>
            <trkpt lat="53.3373200" lon="-1.9805500"><ele>162.4</ele></trkpt>
            <trkpt lat="53.3374300" lon="-1.9810600"><ele>163.8</ele></trkpt>
            <trkpt lat="53.3374500" lon="-1.9812100"><ele>164.0</ele></trkpt>
            <trkpt lat="53.3374400" lon="-1.9813600"><ele>164.3</ele></trkpt>
            <trkpt lat="53.3373900" lon="-1.9815000"><ele>164.3</ele></trkpt>
            <trkpt lat="53.3373700" lon="-1.9816900"><ele>164.8</ele></trkpt>
            <trkpt lat="53.3372800" lon="-1.9818500"><ele>164.9</ele></trkpt>
            <trkpt lat="53.3366800" lon="-1.9824800"><ele>168.9</ele></trkpt>
            <trkpt lat="53.3365500" lon="-1.9825500"><ele>168.4</ele></trkpt>
            <trkpt lat="53.3364500" lon="-1.9825800"><ele>167.9</ele></trkpt>
            <trkpt lat="53.3363700" lon="-1.9826300"><ele>168.1</ele></trkpt>
            <trkpt lat="53.3361100" lon="-1.9827000"><ele>169.4</ele></trkpt>
            <trkpt lat="53.3358700" lon="-1.9827100"><ele>168.8</ele></trkpt>
            <trkpt lat="53.3356900" lon="-1.9827400"><ele>168.2</ele></trkpt>
            <trkpt lat="53.3351500" lon="-1.9827600"><ele>163.4</ele></trkpt>
            <trkpt lat="53.3349900" lon="-1.9828000"><ele>163.6</ele></trkpt>
            <trkpt lat="53.3339700" lon="-1.9833200"><ele>163.8</ele></trkpt>
            <trkpt lat="53.3328200" lon="-1.9840000"><ele>170.3</ele></trkpt>
            <trkpt lat="53.3325400" lon="-1.9840600"><ele>169.9</ele></trkpt>
            <trkpt lat="53.3324400" lon="-1.9840600"><ele>169.6</ele></trkpt>
            <trkpt lat="53.3323500" lon="-1.9840000"><ele>168.8</ele></trkpt>
            <trkpt lat="53.3322500" lon="-1.9838200"><ele>167.2</ele></trkpt>
            <trkpt lat="53.3321900" lon="-1.9836100"><ele>165.5</ele></trkpt>
            <trkpt lat="53.3321500" lon="-1.9835700"><ele>165.2</ele></trkpt>
            <trkpt lat="53.3320600" lon="-1.9835300"><ele>164.9</ele></trkpt>
            <trkpt lat="53.3315600" lon="-1.9834500"><ele>165.6</ele></trkpt>
            <trkpt lat="53.3313700" lon="-1.9833900"><ele>165.2</ele></trkpt>
            <trkpt lat="53.3307600" lon="-1.9829100"><ele>163.7</ele></trkpt>
            <trkpt lat="53.3306200" lon="-1.9828300"><ele>163.8</ele></trkpt>
            <trkpt lat="53.3304300" lon="-1.9828100"><ele>164.1</ele></trkpt>
            <trkpt lat="53.3302000" lon="-1.9827100"><ele>164.5</ele></trkpt>
            <trkpt lat="53.3301000" lon="-1.9826900"><ele>164.9</ele></trkpt>
            <trkpt lat="53.3298100" lon="-1.9826700"><ele>165.8</ele></trkpt>
            <trkpt lat="53.3287200" lon="-1.9823500"><ele>172.7</ele></trkpt>
            <trkpt lat="53.3284300" lon="-1.9822900"><ele>176.3</ele></trkpt>
            <trkpt lat="53.3282900" lon="-1.9822800"><ele>177.2</ele></trkpt>
            <trkpt lat="53.3281400" lon="-1.9823200"><ele>178.2</ele></trkpt>
            <trkpt lat="53.3276000" lon="-1.9827900"><ele>177.5</ele></trkpt>
            <trkpt lat="53.3275100" lon="-1.9828400"><ele>177.3</ele></trkpt>
            <trkpt lat="53.3274600" lon="-1.9828100"><ele>178.2</ele></trkpt>
            <trkpt lat="53.3274000" lon="-1.9826900"><ele>179.6</ele></trkpt>
            <trkpt lat="53.3273200" lon="-1.9822700"><ele>185.8</ele></trkpt>
            <trkpt lat="53.3272800" lon="-1.9821800"><ele>187.8</ele></trkpt>
            <trkpt lat="53.3272000" lon="-1.9821500"><ele>189.7</ele></trkpt>
            <trkpt lat="53.3266800" lon="-1.9821000"><ele>195.6</ele></trkpt>
            <trkpt lat="53.3266600" lon="-1.9820300"><ele>196.8</ele></trkpt>
            <trkpt lat="53.3268900" lon="-1.9814200"><ele>203.1</ele></trkpt>
            <trkpt lat="53.3269100" lon="-1.9812700"><ele>203.8</ele></trkpt>
            <trkpt lat="53.3268800" lon="-1.9811200"><ele>204.9</ele></trkpt>
            <trkpt lat="53.3268500" lon="-1.9810600"><ele>205.3</ele></trkpt>
            <trkpt lat="53.3264400" lon="-1.9806400"><ele>211.0</ele></trkpt>
            <trkpt lat="53.3261400" lon="-1.9802000"><ele>214.7</ele></trkpt>
            <trkpt lat="53.3255900" lon="-1.9792700"><ele>226.9</ele></trkpt>
            <trkpt lat="53.3254600" lon="-1.9789700"><ele>229.2</ele></trkpt>
            <trkpt lat="53.3253100" lon="-1.9781000"><ele>231.3</ele></trkpt>
            <trkpt lat="53.3253000" lon="-1.9772900"><ele>238.0</ele></trkpt>
            <trkpt lat="53.3252800" lon="-1.9771300"><ele>240.3</ele></trkpt>
            <trkpt lat="53.3252300" lon="-1.9769900"><ele>241.6</ele></trkpt>
            <trkpt lat="53.3251100" lon="-1.9767500"><ele>244.1</ele></trkpt>
            <trkpt lat="53.3250900" lon="-1.9766800"><ele>245.0</ele></trkpt>
            <trkpt lat="53.3250900" lon="-1.9766000"><ele>245.4</ele></trkpt>
            <trkpt lat="53.3251800" lon="-1.9766500"><ele>244.6</ele></trkpt>
            <trkpt lat="53.3253500" lon="-1.9767900"><ele>242.5</ele></trkpt>
            <trkpt lat="53.3254400" lon="-1.9768300"><ele>241.6</ele></trkpt>
            <trkpt lat="53.3254900" lon="-1.9768300"><ele>241.5</ele></trkpt>
            <trkpt lat="53.3255800" lon="-1.9767900"><ele>241.4</ele></trkpt>
            <trkpt lat="53.3259700" lon="-1.9765300"><ele>242.2</ele></trkpt>
            <trkpt lat="53.3266600" lon="-1.9760000"><ele>245.4</ele></trkpt>
            <trkpt lat="53.3268100" lon="-1.9758500"><ele>245.3</ele></trkpt>
            <trkpt lat="53.3272400" lon="-1.9753100"><ele>244.8</ele></trkpt>
            <trkpt lat="53.3275200" lon="-1.9748400"><ele>246.5</ele></trkpt>
            <trkpt lat="53.3276800" lon="-1.9744400"><ele>248.6</ele></trkpt>
            <trkpt lat="53.3277200" lon="-1.9742900"><ele>249.0</ele></trkpt>
            <trkpt lat="53.3282800" lon="-1.9732300"><ele>246.0</ele></trkpt>
            <trkpt lat="53.3284500" lon="-1.9731000"><ele>244.1</ele></trkpt>
            <trkpt lat="53.3291800" lon="-1.9723600"><ele>238.0</ele></trkpt>
            <trkpt lat="53.3292700" lon="-1.9723200"><ele>236.6</ele></trkpt>
            <trkpt lat="53.3293300" lon="-1.9722100"><ele>235.8</ele></trkpt>
            <trkpt lat="53.3293800" lon="-1.9720700"><ele>235.1</ele></trkpt>
            <trkpt lat="53.3293800" lon="-1.9718000"><ele>234.9</ele></trkpt>
            <trkpt lat="53.3294000" lon="-1.9717300"><ele>234.4</ele></trkpt>
            <trkpt lat="53.3294400" lon="-1.9714300"><ele>233.2</ele></trkpt>
            <trkpt lat="53.3294400" lon="-1.9712700"><ele>233.2</ele></trkpt>
            <trkpt lat="53.3294000" lon="-1.9711200"><ele>233.9</ele></trkpt>
            <trkpt lat="53.3291800" lon="-1.9707900"><ele>236.4</ele></trkpt>
            <trkpt lat="53.3291600" lon="-1.9707100"><ele>236.1</ele></trkpt>
            <trkpt lat="53.3291400" lon="-1.9705700"><ele>236.1</ele></trkpt>
            <trkpt lat="53.3291400" lon="-1.9704100"><ele>235.7</ele></trkpt>
            <trkpt lat="53.3291800" lon="-1.9701100"><ele>235.7</ele></trkpt>
            <trkpt lat="53.3291800" lon="-1.9699500"><ele>236.2</ele></trkpt>
            <trkpt lat="53.3291100" lon="-1.9695000"><ele>241.2</ele></trkpt>
            <trkpt lat="53.3291200" lon="-1.9693400"><ele>243.1</ele></trkpt>
            <trkpt lat="53.3291900" lon="-1.9691400"><ele>244.3</ele></trkpt>
            <trkpt lat="53.3292600" lon="-1.9690300"><ele>244.6</ele></trkpt>
            <trkpt lat="53.3295300" lon="-1.9687600"><ele>243.7</ele></trkpt>
            <trkpt lat="53.3295800" lon="-1.9686400"><ele>244.5</ele></trkpt>
            <trkpt lat="53.3296600" lon="-1.9685400"><ele>244.4</ele></trkpt>
            <trkpt lat="53.3300000" lon="-1.9679000"><ele>241.9</ele></trkpt>
            <trkpt lat="53.3302000" lon="-1.9669200"><ele>239.1</ele></trkpt>
            <trkpt lat="53.3302200" lon="-1.9665800"><ele>242.2</ele></trkpt>
            <trkpt lat="53.3303900" lon="-1.9655500"><ele>249.1</ele></trkpt>
            <trkpt lat="53.3304000" lon="-1.9653200"><ele>250.1</ele></trkpt>
            <trkpt lat="53.3303800" lon="-1.9652400"><ele>251.2</ele></trkpt>
            <trkpt lat="53.3303500" lon="-1.9651900"><ele>252.2</ele></trkpt>
            <trkpt lat="53.3300000" lon="-1.9649600"><ele>263.3</ele></trkpt>
            <trkpt lat="53.3295500" lon="-1.9647900"><ele>269.0</ele></trkpt>
            <trkpt lat="53.3294400" lon="-1.9647300"><ele>270.9</ele></trkpt>
            <trkpt lat="53.3294000" lon="-1.9646900"><ele>271.8</ele></trkpt>
            <trkpt lat="53.3292700" lon="-1.9644700"><ele>274.0</ele></trkpt>
            <trkpt lat="53.3289900" lon="-1.9641700"><ele>278.5</ele></trkpt>
            <trkpt lat="53.3289000" lon="-1.9639900"><ele>279.5</ele></trkpt>
            <trkpt lat="53.3288800" lon="-1.9639200"><ele>279.8</ele></trkpt>
            <trkpt lat="53.3286900" lon="-1.9635000"><ele>283.8</ele></trkpt>
            <trkpt lat="53.3284200" lon="-1.9630500"><ele>289.4</ele></trkpt>
            <trkpt lat="53.3283000" lon="-1.9628000"><ele>290.9</ele></trkpt>
            <trkpt lat="53.3282400" lon="-1.9624700"><ele>288.7</ele></trkpt>
            <trkpt lat="53.3281600" lon="-1.9622300"><ele>288.4</ele></trkpt>
            <trkpt lat="53.3279700" lon="-1.9617600"><ele>290.7</ele></trkpt>
            <trkpt lat="53.3276900" lon="-1.9610100"><ele>295.0</ele></trkpt>
            <trkpt lat="53.3276000" lon="-1.9608400"><ele>296.7</ele></trkpt>
            <trkpt lat="53.3274300" lon="-1.9604600"><ele>299.5</ele></trkpt>
            <trkpt lat="53.3273100" lon="-1.9601600"><ele>300.3</ele></trkpt>
            <trkpt lat="53.3271400" lon="-1.9598600"><ele>301.7</ele></trkpt>
            <trkpt lat="53.3270000" lon="-1.9595700"><ele>303.6</ele></trkpt>
            <trkpt lat="53.3269700" lon="-1.9595200"><ele>304.0</ele></trkpt>
            <trkpt lat="53.3268500" lon="-1.9594000"><ele>305.2</ele></trkpt>
            <trkpt lat="53.3265700" lon="-1.9588700"><ele>308.7</ele></trkpt>
            <trkpt lat="53.3264300" lon="-1.9587200"><ele>310.2</ele></trkpt>
            <trkpt lat="53.3261400" lon="-1.9584900"><ele>310.9</ele></trkpt>
            <trkpt lat="53.3260000" lon="-1.9584800"><ele>310.2</ele></trkpt>
            <trkpt lat="53.3259100" lon="-1.9584300"><ele>309.5</ele></trkpt>
            <trkpt lat="53.3255000" lon="-1.9583100"><ele>305.7</ele></trkpt>
            <trkpt lat="53.3253000" lon="-1.9582700"><ele>302.4</ele></trkpt>
            <trkpt lat="53.3252600" lon="-1.9582300"><ele>301.9</ele></trkpt>
            <trkpt lat="53.3252200" lon="-1.9580900"><ele>300.6</ele></trkpt>
            <trkpt lat="53.3251900" lon="-1.9578600"><ele>299.6</ele></trkpt>
            <trkpt lat="53.3251900" lon="-1.9576200"><ele>299.0</ele></trkpt>
            <trkpt lat="53.3251800" lon="-1.9575400"><ele>298.2</ele></trkpt>
            <trkpt lat="53.3251600" lon="-1.9574700"><ele>298.2</ele></trkpt>
            <trkpt lat="53.3250100" lon="-1.9572900"><ele>293.8</ele></trkpt>
            <trkpt lat="53.3250000" lon="-1.9571900"><ele>293.0</ele></trkpt>
            <trkpt lat="53.3251600" lon="-1.9565600"><ele>296.8</ele></trkpt>
            <trkpt lat="53.3252700" lon="-1.9556800"><ele>301.3</ele></trkpt>
            <trkpt lat="53.3252600" lon="-1.9555800"><ele>301.3</ele></trkpt>
            <trkpt lat="53.3251700" lon="-1.9555500"><ele>298.7</ele></trkpt>
            <trkpt lat="53.3251300" lon="-1.9555100"><ele>297.6</ele></trkpt>
            <trkpt lat="53.3250200" lon="-1.9553700"><ele>295.6</ele></trkpt>
            <trkpt lat="53.3247500" lon="-1.9549500"><ele>290.9</ele></trkpt>
            <trkpt lat="53.3246900" lon="-1.9548300"><ele>288.8</ele></trkpt>
            <trkpt lat="53.3245900" lon="-1.9545600"><ele>285.1</ele></trkpt>
            <trkpt lat="53.3243800" lon="-1.9540700"><ele>278.9</ele></trkpt>
            <trkpt lat="53.3240500" lon="-1.9533600"><ele>274.2</ele></trkpt>
            <trkpt lat="53.3239200" lon="-1.9530500"><ele>271.7</ele></trkpt>
            <trkpt lat="53.3238800" lon="-1.9528300"><ele>269.5</ele></trkpt>
            <trkpt lat="53.3238400" lon="-1.9527800"><ele>268.2</ele></trkpt>
            <trkpt lat="53.3234500" lon="-1.9524600"><ele>257.7</ele></trkpt>
            <trkpt lat="53.3232000" lon="-1.9521600"><ele>252.6</ele></trkpt>
            <trkpt lat="53.3229900" lon="-1.9520700"><ele>249.5</ele></trkpt>
            <trkpt lat="53.3222500" lon="-1.9519600"><ele>236.5</ele></trkpt>
            <trkpt lat="53.3215600" lon="-1.9520000"><ele>228.7</ele></trkpt>
            <trkpt lat="53.3213700" lon="-1.9519200"><ele>225.6</ele></trkpt>
            <trkpt lat="53.3205800" lon="-1.9514600"><ele>218.1</ele></trkpt>
            <trkpt lat="53.3202500" lon="-1.9513000"><ele>215.8</ele></trkpt>
            <trkpt lat="53.3201900" lon="-1.9512300"><ele>215.1</ele></trkpt>
            <trkpt lat="53.3199200" lon="-1.9508000"><ele>211.9</ele></trkpt>
            <trkpt lat="53.3198700" lon="-1.9507500"><ele>211.7</ele></trkpt>
            <trkpt lat="53.3198200" lon="-1.9507400"><ele>211.5</ele></trkpt>
            <trkpt lat="53.3196900" lon="-1.9507800"><ele>211.2</ele></trkpt>
            <trkpt lat="53.3195600" lon="-1.9507700"><ele>211.5</ele></trkpt>
            <trkpt lat="53.3188900" lon="-1.9506400"><ele>211.4</ele></trkpt>
            <trkpt lat="53.3183000" lon="-1.9505700"><ele>210.6</ele></trkpt>
            <trkpt lat="53.3177400" lon="-1.9504700"><ele>212.5</ele></trkpt>
            <trkpt lat="53.3175800" lon="-1.9505000"><ele>212.7</ele></trkpt>
            <trkpt lat="53.3173700" lon="-1.9505900"><ele>212.3</ele></trkpt>
            <trkpt lat="53.3171100" lon="-1.9505300"><ele>212.2</ele></trkpt>
            <trkpt lat="53.3165500" lon="-1.9505200"><ele>208.1</ele></trkpt>
            <trkpt lat="53.3164200" lon="-1.9505900"><ele>207.0</ele></trkpt>
            <trkpt lat="53.3163700" lon="-1.9505600"><ele>206.8</ele></trkpt>
            <trkpt lat="53.3162800" lon="-1.9504000"><ele>207.0</ele></trkpt>
            <trkpt lat="53.3162000" lon="-1.9503100"><ele>206.9</ele></trkpt>
            <trkpt lat="53.3157700" lon="-1.9500700"><ele>207.4</ele></trkpt>
            <trkpt lat="53.3156100" lon="-1.9499500"><ele>212.2</ele></trkpt>
            <trkpt lat="53.3156000" lon="-1.9498800"><ele>212.9</ele></trkpt>
            <trkpt lat="53.3156200" lon="-1.9498100"><ele>213.5</ele></trkpt>
            <trkpt lat="53.3162500" lon="-1.9490300"><ele>214.1</ele></trkpt>
            <trkpt lat="53.3165400" lon="-1.9487200"><ele>215.6</ele></trkpt>
            <trkpt lat="53.3169900" lon="-1.9483100"><ele>217.7</ele></trkpt>
            <trkpt lat="53.3170200" lon="-1.9481600"><ele>218.2</ele></trkpt>
            <trkpt lat="53.3168500" lon="-1.9467100"><ele>221.1</ele></trkpt>
            <trkpt lat="53.3168500" lon="-1.9461100"><ele>222.2</ele></trkpt>
            <trkpt lat="53.3168600" lon="-1.9460900"><ele>222.3</ele></trkpt>
            <trkpt lat="53.3168800" lon="-1.9458400"><ele>222.2</ele></trkpt>
            <trkpt lat="53.3169000" lon="-1.9457800"><ele>221.9</ele></trkpt>
            <trkpt lat="53.3169900" lon="-1.9457400"><ele>221.7</ele></trkpt>
            <trkpt lat="53.3172200" lon="-1.9457300"><ele>220.6</ele></trkpt>
            <trkpt lat="53.3173100" lon="-1.9457700"><ele>220.1</ele></trkpt>
            <trkpt lat="53.3173700" lon="-1.9458600"><ele>219.5</ele></trkpt>
            <trkpt lat="53.3174400" lon="-1.9458800"><ele>219.2</ele></trkpt>
            <trkpt lat="53.3176300" lon="-1.9458700"><ele>217.9</ele></trkpt>
            <trkpt lat="53.3179900" lon="-1.9457600"><ele>217.4</ele></trkpt>
            <trkpt lat="53.3183500" lon="-1.9456200"><ele>219.7</ele></trkpt>
            <trkpt lat="53.3194600" lon="-1.9450600"><ele>222.6</ele></trkpt>
            <trkpt lat="53.3197400" lon="-1.9449700"><ele>226.4</ele></trkpt>
            <trkpt lat="53.3201200" lon="-1.9449600"><ele>228.1</ele></trkpt>
            <trkpt lat="53.3209900" lon="-1.9449800"><ele>221.8</ele></trkpt>
            <trkpt lat="53.3210900" lon="-1.9450000"><ele>221.6</ele></trkpt>
            <trkpt lat="53.3212600" lon="-1.9451500"><ele>222.7</ele></trkpt>
            <trkpt lat="53.3213100" lon="-1.9451700"><ele>222.9</ele></trkpt>
            <trkpt lat="53.3218300" lon="-1.9452400"><ele>227.5</ele></trkpt>
            <trkpt lat="53.3227100" lon="-1.9449300"><ele>238.4</ele></trkpt>
            <trkpt lat="53.3227800" lon="-1.9448400"><ele>239.7</ele></trkpt>
            <trkpt lat="53.3228800" lon="-1.9446000"><ele>241.7</ele></trkpt>
            <trkpt lat="53.3233300" lon="-1.9441300"><ele>249.6</ele></trkpt>
            <trkpt lat="53.3234100" lon="-1.9439600"><ele>251.3</ele></trkpt>
            <trkpt lat="53.3236000" lon="-1.9438800"><ele>252.9</ele></trkpt>
            <trkpt lat="53.3236400" lon="-1.9438400"><ele>253.2</ele></trkpt>
            <trkpt lat="53.3237500" lon="-1.9436200"><ele>254.4</ele></trkpt>
            <trkpt lat="53.3237500" lon="-1.9433400"><ele>254.9</ele></trkpt>
            <trkpt lat="53.3237600" lon="-1.9432600"><ele>254.9</ele></trkpt>
            <trkpt lat="53.3237800" lon="-1.9431900"><ele>255.1</ele></trkpt>
            <trkpt lat="53.3238700" lon="-1.9430000"><ele>255.2</ele></trkpt>
            <trkpt lat="53.3239300" lon="-1.9427700"><ele>254.4</ele></trkpt>
            <trkpt lat="53.3242000" lon="-1.9414500"><ele>256.5</ele></trkpt>
            <trkpt lat="53.3243100" lon="-1.9411500"><ele>257.2</ele></trkpt>
            <trkpt lat="53.3243500" lon="-1.9411000"><ele>257.7</ele></trkpt>
            <trkpt lat="53.3244400" lon="-1.9411000"><ele>258.6</ele></trkpt>
            <trkpt lat="53.3244800" lon="-1.9411400"><ele>258.8</ele></trkpt>
            <trkpt lat="53.3247300" lon="-1.9412700"><ele>261.8</ele></trkpt>
            <trkpt lat="53.3251800" lon="-1.9413900"><ele>266.6</ele></trkpt>
            <trkpt lat="53.3252700" lon="-1.9413600"><ele>267.7</ele></trkpt>
            <trkpt lat="53.3257900" lon="-1.9408400"><ele>275.7</ele></trkpt>
            <trkpt lat="53.3264700" lon="-1.9401100"><ele>286.9</ele></trkpt>
            <trkpt lat="53.3265100" lon="-1.9399900"><ele>287.3</ele></trkpt>
            <trkpt lat="53.3265700" lon="-1.9399100"><ele>288.6</ele></trkpt>
            <trkpt lat="53.3270800" lon="-1.9396200"><ele>296.7</ele></trkpt>
            <trkpt lat="53.3272000" lon="-1.9395100"><ele>297.6</ele></trkpt>
            <trkpt lat="53.3274700" lon="-1.9393400"><ele>299.3</ele></trkpt>
            <trkpt lat="53.3275200" lon="-1.9392900"><ele>299.4</ele></trkpt>
            <trkpt lat="53.3275700" lon="-1.9392700"><ele>299.8</ele></trkpt>
            <trkpt lat="53.3276100" lon="-1.9392800"><ele>299.9</ele></trkpt>
            <trkpt lat="53.3276500" lon="-1.9394300"><ele>300.8</ele></trkpt>
            <trkpt lat="53.3277100" lon="-1.9395600"><ele>301.5</ele></trkpt>
            <trkpt lat="53.3277100" lon="-1.9396300"><ele>301.7</ele></trkpt>
            <trkpt lat="53.3277900" lon="-1.9402600"><ele>303.2</ele></trkpt>
            <trkpt lat="53.3278100" lon="-1.9403400"><ele>302.9</ele></trkpt>
            <trkpt lat="53.3278400" lon="-1.9404000"><ele>302.4</ele></trkpt>
            <trkpt lat="53.3278800" lon="-1.9404300"><ele>301.2</ele></trkpt>
            <trkpt lat="53.3279100" lon="-1.9404800"><ele>300.6</ele></trkpt>
            <trkpt lat="53.3278700" lon="-1.9410400"><ele>305.1</ele></trkpt>
            <trkpt lat="53.3278400" lon="-1.9419700"><ele>312.5</ele></trkpt>
            <trkpt lat="53.3279200" lon="-1.9439400"><ele>328.2</ele></trkpt>
            <trkpt lat="53.3279500" lon="-1.9455600"><ele>340.6</ele></trkpt>
            <trkpt lat="53.3279900" lon="-1.9468100"><ele>349.6</ele></trkpt>
            <trkpt lat="53.3279600" lon="-1.9475700"><ele>352.2</ele></trkpt>
            <trkpt lat="53.3279900" lon="-1.9483600"><ele>358.8</ele></trkpt>
            <trkpt lat="53.3279200" lon="-1.9486500"><ele>360.3</ele></trkpt>
            <trkpt lat="53.3279200" lon="-1.9489700"><ele>360.5</ele></trkpt>
            <trkpt lat="53.3279300" lon="-1.9490500"><ele>360.2</ele></trkpt>
            <trkpt lat="53.3279900" lon="-1.9492800"><ele>359.6</ele></trkpt>
            <trkpt lat="53.3280400" lon="-1.9494000"><ele>358.7</ele></trkpt>
            <trkpt lat="53.3281700" lon="-1.9496100"><ele>355.5</ele></trkpt>
            <trkpt lat="53.3282700" lon="-1.9496500"><ele>352.5</ele></trkpt>
            <trkpt lat="53.3284100" lon="-1.9496200"><ele>348.0</ele></trkpt>
            <trkpt lat="53.3285000" lon="-1.9495700"><ele>343.7</ele></trkpt>
            <trkpt lat="53.3287300" lon="-1.9496100"><ele>334.1</ele></trkpt>
            <trkpt lat="53.3299400" lon="-1.9494500"><ele>294.5</ele></trkpt>
            <trkpt lat="53.3299800" lon="-1.9494700"><ele>292.9</ele></trkpt>
            <trkpt lat="53.3300100" lon="-1.9495400"><ele>291.8</ele></trkpt>
            <trkpt lat="53.3300200" lon="-1.9499500"><ele>292.3</ele></trkpt>
            <trkpt lat="53.3300400" lon="-1.9501000"><ele>292.2</ele></trkpt>
            <trkpt lat="53.3300900" lon="-1.9502500"><ele>291.0</ele></trkpt>
            <trkpt lat="53.3304500" lon="-1.9519600"><ele>294.7</ele></trkpt>
            <trkpt lat="53.3304900" lon="-1.9525500"><ele>298.4</ele></trkpt>
            <trkpt lat="53.3304800" lon="-1.9531000"><ele>296.1</ele></trkpt>
            <trkpt lat="53.3304500" lon="-1.9534800"><ele>294.0</ele></trkpt>
            <trkpt lat="53.3303900" lon="-1.9539200"><ele>293.2</ele></trkpt>
            <trkpt lat="53.3304000" lon="-1.9540400"><ele>293.0</ele></trkpt>
            <trkpt lat="53.3304100" lon="-1.9541100"><ele>292.9</ele></trkpt>
            <trkpt lat="53.3306200" lon="-1.9546500"><ele>290.5</ele></trkpt>
            <trkpt lat="53.3308300" lon="-1.9554000"><ele>285.0</ele></trkpt>
            <trkpt lat="53.3308700" lon="-1.9558900"><ele>281.8</ele></trkpt>
            <trkpt lat="53.3309300" lon="-1.9561900"><ele>279.0</ele></trkpt>
            <trkpt lat="53.3310500" lon="-1.9566100"><ele>275.1</ele></trkpt>
            <trkpt lat="53.3310600" lon="-1.9569700"><ele>271.6</ele></trkpt>
            <trkpt lat="53.3311200" lon="-1.9573000"><ele>267.7</ele></trkpt>
            <trkpt lat="53.3311100" lon="-1.9573700"><ele>266.8</ele></trkpt>
            <trkpt lat="53.3311200" lon="-1.9574500"><ele>266.4</ele></trkpt>
            <trkpt lat="53.3311600" lon="-1.9574700"><ele>265.2</ele></trkpt>
            <trkpt lat="53.3313900" lon="-1.9574700"><ele>260.8</ele></trkpt>
            <trkpt lat="53.3322900" lon="-1.9575700"><ele>242.5</ele></trkpt>
            <trkpt lat="53.3332600" lon="-1.9577000"><ele>231.7</ele></trkpt>
            <trkpt lat="53.3339000" lon="-1.9578300"><ele>217.3</ele></trkpt>
            <trkpt lat="53.3342900" lon="-1.9579600"><ele>211.4</ele></trkpt>
            <trkpt lat="53.3344100" lon="-1.9580700"><ele>209.3</ele></trkpt>
            <trkpt lat="53.3345200" lon="-1.9582300"><ele>207.0</ele></trkpt>
            <trkpt lat="53.3345300" lon="-1.9584600"><ele>207.1</ele></trkpt>
            <trkpt lat="53.3345100" lon="-1.9585400"><ele>207.3</ele></trkpt>
            <trkpt lat="53.3344400" lon="-1.9586300"><ele>207.8</ele></trkpt>
            <trkpt lat="53.3338500" lon="-1.9590400"><ele>212.5</ele></trkpt>
            <trkpt lat="53.3334600" lon="-1.9592800"><ele>217.7</ele></trkpt>
            <trkpt lat="53.3333700" lon="-1.9594100"><ele>217.6</ele></trkpt>
            <trkpt lat="53.3333100" lon="-1.9595400"><ele>216.6</ele></trkpt>
            <trkpt lat="53.3332900" lon="-1.9596100"><ele>215.7</ele></trkpt>
            <trkpt lat="53.3330400" lon="-1.9611900"><ele>199.5</ele></trkpt>
            <trkpt lat="53.3329900" lon="-1.9616700"><ele>195.5</ele></trkpt>
            <trkpt lat="53.3329800" lon="-1.9618900"><ele>193.2</ele></trkpt>
            <trkpt lat="53.3330000" lon="-1.9620500"><ele>191.5</ele></trkpt>
            <trkpt lat="53.3330500" lon="-1.9621800"><ele>190.6</ele></trkpt>
            <trkpt lat="53.3331800" lon="-1.9622800"><ele>189.1</ele></trkpt>
            <trkpt lat="53.3333200" lon="-1.9623400"><ele>187.9</ele></trkpt>
            <trkpt lat="53.3334100" lon="-1.9624000"><ele>187.2</ele></trkpt>
            <trkpt lat="53.3334600" lon="-1.9625300"><ele>186.5</ele></trkpt>
            <trkpt lat="53.3334500" lon="-1.9628900"><ele>185.5</ele></trkpt>
            <trkpt lat="53.3334700" lon="-1.9645800"><ele>183.8</ele></trkpt>
            <trkpt lat="53.3334800" lon="-1.9646500"><ele>183.9</ele></trkpt>
            <trkpt lat="53.3335100" lon="-1.9647100"><ele>183.5</ele></trkpt>
            <trkpt lat="53.3335600" lon="-1.9647400"><ele>182.8</ele></trkpt>
            <trkpt lat="53.3343300" lon="-1.9649800"><ele>177.5</ele></trkpt>
            <trkpt lat="53.3348800" lon="-1.9652000"><ele>170.7</ele></trkpt>
            <trkpt lat="53.3350200" lon="-1.9652800"><ele>169.5</ele></trkpt>
            <trkpt lat="53.3350600" lon="-1.9653200"><ele>168.9</ele></trkpt>
            <trkpt lat="53.3350400" lon="-1.9655600"><ele>169.0</ele></trkpt>
            <trkpt lat="53.3350500" lon="-1.9656300"><ele>169.0</ele></trkpt>
            <trkpt lat="53.3350900" lon="-1.9655000"><ele>168.5</ele></trkpt>
            <trkpt lat="53.3351300" lon="-1.9654400"><ele>167.9</ele></trkpt>
            <trkpt lat="53.3351700" lon="-1.9654600"><ele>167.6</ele></trkpt>
            <trkpt lat="53.3352600" lon="-1.9657400"><ele>167.2</ele></trkpt>
            <trkpt lat="53.3353400" lon="-1.9658400"><ele>167.0</ele></trkpt>
            <trkpt lat="53.3354200" lon="-1.9659100"><ele>167.0</ele></trkpt>
            <trkpt lat="53.3354400" lon="-1.9659800"><ele>167.0</ele></trkpt>
            <trkpt lat="53.3354400" lon="-1.9661400"><ele>167.0</ele></trkpt>
            <trkpt lat="53.3354000" lon="-1.9664300"><ele>167.0</ele></trkpt>
            <trkpt lat="53.3354000" lon="-1.9666700"><ele>166.5</ele></trkpt>
            <trkpt lat="53.3353400" lon="-1.9671400"><ele>165.0</ele></trkpt>
            <trkpt lat="53.3353400" lon="-1.9673800"><ele>164.5</ele></trkpt>
            <trkpt lat="53.3353900" lon="-1.9675200"><ele>164.6</ele></trkpt>
        </trkseg>
    </trk>
<!-- ele-hash:0fdf713b27fa437a -->
</gpx>
