<?xml version="1.0" encoding="UTF-8" standalone="yes"?>
<gpx version="1.1" creator="OS Maps - Web" xmlns="http://www.topografix.com/GPX/1/1"
xmlns:xsi="http://www.w3.org/2001/XMLSchema-instance"
xsi:schemaLocation="http://www.topografix.com/GPX/1/1 http://www.topografix.com/GPX/1/1/gpx.xsd"
xmlns:gs="http://www.topografix.com/GPX/gpx_style/0/2"
xmlns:gh="https://graphhopper.com/public/schema/gpx/1.1"
xmlns:os="https://ordnancesurvey.co.uk/public/schema/route/0.1">
    <metadata>
        <name>Ecton Hill &amp; Wetton Hill (Ethels) - Circular (www.thelostpeak.co.uk)</name>
        <desc></desc>
        <bounds minlat="53.0912800" minlon="-1.8654700" maxlat="53.1237000" maxlon="-1.8327500"/>
        <extensions>
            <os:version>2.0</os:version>
            <os:point lat="53.0935400" lon="-1.8385000" type="start"/>
            <os:point lat="53.0935200" lon="-1.8385000" type="end"/>
            <os:activity>ON_FOOT_WALKING</os:activity>
            <os:difficulty>MODERATE</os:difficulty>
            <os:paths/>
            <os:distance>12420.2259441</os:distance>
            <os:elevation_ascent>531.6800000</os:elevation_ascent>
            <os:route_type>SINGLE</os:route_type>
        </extensions>
    </metadata>
    <wpt lat="53.0935400" lon="-1.8385000"/>
    <wpt lat="53.1101800" lon="-1.8437300"/>
    <wpt lat="53.1100400" lon="-1.8436000"/>
    <wpt lat="53.1098900" lon="-1.8410800"/>
    <wpt lat="53.1093000" lon="-1.8382300"/>
    <wpt lat="53.1087900" lon="-1.8365400"/>
    <wpt lat="53.1072000" lon="-1.8361600"/>
    <wpt lat="53.1064200" lon="-1.8327500"/>
    <wpt lat="53.1071900" lon="-1.8362000"/>
    <wpt lat="53.1087900" lon="-1.8365400"/>
    <wpt lat="53.1090700" lon="-1.8375400"/>
    <wpt lat="53.1084200" lon="-1.8398600"/>
    <wpt lat="53.1080600" lon="-1.8423200"/>
    <wpt lat="53.1048900" lon="-1.8409700"/>
    <wpt lat="53.0935200" lon="-1.8385000"/>
    <trk>
        <name>Ecton Hill &amp; Wetton Hill (Ethels) - Circular (www.thelostpeak.co.uk)</name>
        <trkseg>
            <trkpt lat="53.0935400" lon="-1.8385000"/>
            <trkpt lat="53.0936800" lon="-1.8384300"/>
            <trkpt lat="53.0939100" lon="-1.8389100"/>
            <trkpt lat="53.0949200" lon="-1.8403400"/>
            <trkpt lat="53.0950900" lon="-1.8405000"/>
            <trkpt lat="53.0952200" lon="-1.8404900"/>
            <trkpt lat="53.0953600" lon="-1.8406600"/>
            <trkpt lat="53.0951800" lon="-1.8410400"/>
            <trkpt lat="53.0945900" lon="-1.8420500"/>
            <trkpt lat="53.0945500" lon="-1.8427100"/>
            <trkpt lat="53.0943300" lon="-1.8431900"/>
            <trkpt lat="53.0940100" lon="-1.8442800"/>
            <trkpt lat="53.0937500" lon="-1.8448700"/>
            <trkpt lat="53.0931500" lon="-1.8459800"/>
            <trkpt lat="53.0921300" lon="-1.8475300"/>
            <trkpt lat="53.0918800" lon="-1.8480200"/>
            <trkpt lat="53.0917700" lon="-1.8481500"/>
            <trkpt lat="53.0916500" lon="-1.8483300"/>
            <trkpt lat="53.0915400" lon="-1.8486300"/>
            <trkpt lat="53.0915500" lon="-1.8486600"/>
            <trkpt lat="53.0915200" lon="-1.8486800"/>
            <trkpt lat="53.0914400" lon="-1.8488500"/>
            <trkpt lat="53.0913200" lon="-1.8492700"/>
            <trkpt lat="53.0913400" lon="-1.8495700"/>
            <trkpt lat="53.0913000" lon="-1.8499500"/>
            <trkpt lat="53.0912800" lon="-1.8507500"/>
            <trkpt lat="53.0913300" lon="-1.8510200"/>
            <trkpt lat="53.0913400" lon="-1.8515400"/>
            <trkpt lat="53.0912800" lon="-1.8518200"/>
            <trkpt lat="53.0913400" lon="-1.8526600"/>
            <trkpt lat="53.0914600" lon="-1.8529300"/>
            <trkpt lat="53.0914800" lon="-1.8530800"/>
            <trkpt lat="53.0915300" lon="-1.8530800"/>
            <trkpt lat="53.0917400" lon="-1.8534300"/>
            <trkpt lat="53.0917700" lon="-1.8535700"/>
            <trkpt lat="53.0917400" lon="-1.8537800"/>
            <trkpt lat="53.0917900" lon="-1.8539800"/>
            <trkpt lat="53.0917900" lon="-1.8541000"/>
            <trkpt lat="53.0917800" lon="-1.8541100"/>
            <trkpt lat="53.0917900" lon="-1.8541000"/>
            <trkpt lat="53.0917900" lon="-1.8539500"/>
            <trkpt lat="53.0918200" lon="-1.8539200"/>
            <trkpt lat="53.0918400" lon="-1.8539400"/>
            <trkpt lat="53.0922600" lon="-1.8535500"/>
            <trkpt lat="53.0923400" lon="-1.8534200"/>
            <trkpt lat="53.0923600" lon="-1.8531800"/>
            <trkpt lat="53.0924500" lon="-1.8529300"/>
            <trkpt lat="53.0927900" lon="-1.8528500"/>
            <trkpt lat="53.0929800" lon="-1.8527300"/>
            <trkpt lat="53.0931300" lon="-1.8524400"/>
            <trkpt lat="53.0932200" lon="-1.8521900"/>
            <trkpt lat="53.0932300" lon="-1.8520400"/>
            <trkpt lat="53.0932600" lon="-1.8519200"/>
            <trkpt lat="53.0932800" lon="-1.8518900"/>
            <trkpt lat="53.0933200" lon="-1.8526500"/>
            <trkpt lat="53.0933300" lon="-1.8532000"/>
            <trkpt lat="53.0933200" lon="-1.8533300"/>
            <trkpt lat="53.0932600" lon="-1.8534900"/>
            <trkpt lat="53.0932000" lon="-1.8537500"/>
            <trkpt lat="53.0931500" lon="-1.8538100"/>
            <trkpt lat="53.0931100" lon="-1.8539300"/>
            <trkpt lat="53.0930400" lon="-1.8539800"/>
            <trkpt lat="53.0930600" lon="-1.8543200"/>
            <trkpt lat="53.0931700" lon="-1.8545900"/>
            <trkpt lat="53.0933500" lon="-1.8546400"/>
            <trkpt lat="53.0934800" lon="-1.8547200"/>
            <trkpt lat="53.0937300" lon="-1.8550400"/>
            <trkpt lat="53.0950600" lon="-1.8571700"/>
            <trkpt lat="53.0953000" lon="-1.8573600"/>
            <trkpt lat="53.0955000" lon="-1.8574100"/>
            <trkpt lat="53.0957100" lon="-1.8573900"/>
            <trkpt lat="53.0958600" lon="-1.8573500"/>
            <trkpt lat="53.0961000" lon="-1.8571100"/>
            <trkpt lat="53.0963800" lon="-1.8566000"/>
            <trkpt lat="53.0969200" lon="-1.8550700"/>
            <trkpt lat="53.0971100" lon="-1.8546900"/>
            <trkpt lat="53.0972800" lon="-1.8544800"/>
            <trkpt lat="53.0975000" lon="-1.8543600"/>
            <trkpt lat="53.0976800" lon="-1.8543200"/>
            <trkpt lat="53.0979200" lon="-1.8543800"/>
            <trkpt lat="53.0982300" lon="-1.8545800"/>
            <trkpt lat="53.0982500" lon="-1.8546200"/>
            <trkpt lat="53.0983200" lon="-1.8545200"/>
            <trkpt lat="53.0983300" lon="-1.8544500"/>
            <trkpt lat="53.0984400" lon="-1.8544000"/>
            <trkpt lat="53.0987800" lon="-1.8544800"/>
            <trkpt lat="53.0991900" lon="-1.8544200"/>
            <trkpt lat="53.0994700" lon="-1.8542600"/>
            <trkpt lat="53.0996400" lon="-1.8541100"/>
            <trkpt lat="53.0999000" lon="-1.8539600"/>
            <trkpt lat="53.1001500" lon="-1.8539800"/>
            <trkpt lat="53.1006200" lon="-1.8542800"/>
            <trkpt lat="53.1010000" lon="-1.8544000"/>
            <trkpt lat="53.1011900" lon="-1.8546000"/>
            <trkpt lat="53.1016300" lon="-1.8549200"/>
            <trkpt lat="53.1018500" lon="-1.8554300"/>
            <trkpt lat="53.1019500" lon="-1.8557200"/>
            <trkpt lat="53.1020900" lon="-1.8557700"/>
            <trkpt lat="53.1023400" lon="-1.8556600"/>
            <trkpt lat="53.1022100" lon="-1.8559400"/>
            <trkpt lat="53.1020600" lon="-1.8561000"/>
            <trkpt lat="53.1020400" lon="-1.8561900"/>
            <trkpt lat="53.1019400" lon="-1.8563000"/>
            <trkpt lat="53.1018400" lon="-1.8563700"/>
            <trkpt lat="53.1017100" lon="-1.8563300"/>
            <trkpt lat="53.1016600" lon="-1.8563900"/>
            <trkpt lat="53.1016600" lon="-1.8565100"/>
            <trkpt lat="53.1017800" lon="-1.8566700"/>
            <trkpt lat="53.1018300" lon="-1.8568300"/>
            <trkpt lat="53.1019100" lon="-1.8569600"/>
            <trkpt lat="53.1020800" lon="-1.8570900"/>
            <trkpt lat="53.1021300" lon="-1.8571900"/>
            <trkpt lat="53.1021600" lon="-1.8574700"/>
            <trkpt lat="53.1021300" lon="-1.8577700"/>
            <trkpt lat="53.1021300" lon="-1.8578800"/>
            <trkpt lat="53.1020700" lon="-1.8582300"/>
            <trkpt lat="53.1021000" lon="-1.8584700"/>
            <trkpt lat="53.1020300" lon="-1.8586100"/>
            <trkpt lat="53.1020700" lon="-1.8591600"/>
            <trkpt lat="53.1022600" lon="-1.8593600"/>
            <trkpt lat="53.1024200" lon="-1.8596000"/>
            <trkpt lat="53.1025200" lon="-1.8596500"/>
            <trkpt lat="53.1026700" lon="-1.8596600"/>
            <trkpt lat="53.1032000" lon="-1.8595300"/>
            <trkpt lat="53.1033400" lon="-1.8595600"/>
            <trkpt lat="53.1033800" lon="-1.8598700"/>
            <trkpt lat="53.1035400" lon="-1.8606200"/>
            <trkpt lat="53.1036700" lon="-1.8610900"/>
            <trkpt lat="53.1040300" lon="-1.8626000"/>
            <trkpt lat="53.1043000" lon="-1.8631800"/>
            <trkpt lat="53.1045000" lon="-1.8633500"/>
            <trkpt lat="53.1055200" lon="-1.8638100"/>
            <trkpt lat="53.1058400" lon="-1.8638900"/>
            <trkpt lat="53.1061100" lon="-1.8638600"/>
            <trkpt lat="53.1064500" lon="-1.8636600"/>
            <trkpt lat="53.1071200" lon="-1.8628500"/>
            <trkpt lat="53.1073700" lon="-1.8625900"/>
            <trkpt lat="53.1075300" lon="-1.8625100"/>
            <trkpt lat="53.1076600" lon="-1.8625200"/>
            <trkpt lat="53.1083300" lon="-1.8627900"/>
            <trkpt lat="53.1089300" lon="-1.8632300"/>
            <trkpt lat="53.1091500" lon="-1.8634400"/>
            <trkpt lat="53.1092700" lon="-1.8636100"/>
            <trkpt lat="53.1099300" lon="-1.8648500"/>
            <trkpt lat="53.1101200" lon="-1.8650800"/>
            <trkpt lat="53.1105700" lon="-1.8653600"/>
            <trkpt lat="53.1111100" lon="-1.8653300"/>
            <trkpt lat="53.1118000" lon="-1.8651300"/>
            <trkpt lat="53.1128600" lon="-1.8653800"/>
            <trkpt lat="53.1135100" lon="-1.8653900"/>
            <trkpt lat="53.1139000" lon="-1.8654700"/>
            <trkpt lat="53.1141700" lon="-1.8654400"/>
            <trkpt lat="53.1143100" lon="-1.8652900"/>
            <trkpt lat="53.1144400" lon="-1.8649000"/>
            <trkpt lat="53.1147800" lon="-1.8636400"/>
            <trkpt lat="53.1149700" lon="-1.8631800"/>
            <trkpt lat="53.1150800" lon="-1.8628000"/>
            <trkpt lat="53.1152600" lon="-1.8623300"/>
            <trkpt lat="53.1154000" lon="-1.8620900"/>
            <trkpt lat="53.1155800" lon="-1.8619000"/>
            <trkpt lat="53.1159600" lon="-1.8616500"/>
            <trkpt lat="53.1163400" lon="-1.8616300"/>
            <trkpt lat="53.1167600" lon="-1.8619100"/>
            <trkpt lat="53.1170100" lon="-1.8622100"/>
            <trkpt lat="53.1171500" lon="-1.8624200"/>
            <trkpt lat="53.1174500" lon="-1.8632300"/>
            <trkpt lat="53.1176100" lon="-1.8638000"/>
            <trkpt lat="53.1180000" lon="-1.8639700"/>
            <trkpt lat="53.1182000" lon="-1.8639500"/>
            <trkpt lat="53.1183100" lon="-1.8638800"/>
            <trkpt lat="53.1185300" lon="-1.8637000"/>
            <trkpt lat="53.1188100" lon="-1.8634200"/>
            <trkpt lat="53.1193300" lon="-1.8627700"/>
            <trkpt lat="53.1194900" lon="-1.8626500"/>
            <trkpt lat="53.1197900" lon="-1.8623300"/>
            <trkpt lat="53.1198900" lon="-1.8621600"/>
            <trkpt lat="53.1200200" lon="-1.8617500"/>
            <trkpt lat="53.1200400" lon="-1.8614100"/>
            <trkpt lat="53.1199900" lon="-1.8608700"/>
            <trkpt lat="53.1197300" lon="-1.8600000"/>
            <trkpt lat="53.1196600" lon="-1.8596600"/>
            <trkpt lat="53.1196600" lon="-1.8593300"/>
            <trkpt lat="53.1197000" lon="-1.8587800"/>
            <trkpt lat="53.1198100" lon="-1.8582400"/>
            <trkpt lat="53.1200000" lon="-1.8575700"/>
            <trkpt lat="53.1201700" lon="-1.8572100"/>
            <trkpt lat="53.1202900" lon="-1.8571200"/>
            <trkpt lat="53.1204300" lon="-1.8570600"/>
            <trkpt lat="53.1208600" lon="-1.8570000"/>
            <trkpt lat="53.1211100" lon="-1.8570600"/>
            <trkpt lat="53.1214000" lon="-1.8572800"/>
            <trkpt lat="53.1216800" lon="-1.8576000"/>
            <trkpt lat="53.1223200" lon="-1.8582800"/>
            <trkpt lat="53.1225200" lon="-1.8584300"/>
            <trkpt lat="53.1219800" lon="-1.8567000"/>
            <trkpt lat="53.1218900" lon="-1.8565800"/>
            <trkpt lat="53.1219900" lon="-1.8565400"/>
            <trkpt lat="53.1225000" lon="-1.8568300"/>
            <trkpt lat="53.1229300" lon="-1.8568900"/>
            <trkpt lat="53.1232300" lon="-1.8567200"/>
            <trkpt lat="53.1234700" lon="-1.8564000"/>
            <trkpt lat="53.1236200" lon="-1.8559100"/>
            <trkpt lat="53.1237000" lon="-1.8552100"/>
            <trkpt lat="53.1236800" lon="-1.8549700"/>
            <trkpt lat="53.1230100" lon="-1.8543200"/>
            <trkpt lat="53.1226900" lon="-1.8538100"/>
            <trkpt lat="53.1226900" lon="-1.8537800"/>
            <trkpt lat="53.1225800" lon="-1.8535300"/>
            <trkpt lat="53.1223500" lon="-1.8533600"/>
            <trkpt lat="53.1223200" lon="-1.8532900"/>
            <trkpt lat="53.1219100" lon="-1.8529700"/>
            <trkpt lat="53.1214700" lon="-1.8527000"/>
            <trkpt lat="53.1208800" lon="-1.8521500"/>
            <trkpt lat="53.1206800" lon="-1.8520200"/>
            <trkpt lat="53.1200500" lon="-1.8522000"/>
            <trkpt lat="53.1194700" lon="-1.8524600"/>
            <trkpt lat="53.1190900" lon="-1.8523700"/>
            <trkpt lat="53.1184900" lon="-1.8520100"/>
            <trkpt lat="53.1177600" lon="-1.8514300"/>
            <trkpt lat="53.1171300" lon="-1.8507700"/>
            <trkpt lat="53.1162600" lon="-1.8496800"/>
            <trkpt lat="53.1159100" lon="-1.8490200"/>
            <trkpt lat="53.1154700" lon="-1.8485700"/>
            <trkpt lat="53.1153000" lon="-1.8484900"/>
            <trkpt lat="53.1148500" lon="-1.8481300"/>
            <trkpt lat="53.1144700" lon="-1.8476600"/>
            <trkpt lat="53.1140800" lon="-1.8474400"/>
            <trkpt lat="53.1137000" lon="-1.8472800"/>
            <trkpt lat="53.1125500" lon="-1.8472800"/>
            <trkpt lat="53.1123600" lon="-1.8470700"/>
            <trkpt lat="53.1121500" lon="-1.8469400"/>
            <trkpt lat="53.1118500" lon="-1.8468500"/>
            <trkpt lat="53.1118400" lon="-1.8467800"/>
            <trkpt lat="53.1119000" lon="-1.8466800"/>
            <trkpt lat="53.1121100" lon="-1.8464800"/>
            <trkpt lat="53.1123400" lon="-1.8461100"/>
            <trkpt lat="53.1123000" lon="-1.8460800"/>
            <trkpt lat="53.1121700" lon="-1.8460800"/>
            <trkpt lat="53.1115100" lon="-1.8462400"/>
            <trkpt lat="53.1114500" lon="-1.8461800"/>
            <trkpt lat="53.1106500" lon="-1.8443100"/>
            <trkpt lat="53.1103100" lon="-1.8437900"/>
            <trkpt lat="53.1101800" lon="-1.8437300"/>
            <trkpt lat="53.1100400" lon="-1.8436000"/>
            <trkpt lat="53.1098900" lon="-1.8410800"/>
            <trkpt lat="53.1093000" lon="-1.8382300"/>
            <trkpt lat="53.1087900" lon="-1.8365400"/>
            <trkpt lat="53.1072000" lon="-1.8361600"/>
            <trkpt lat="53.1064200" lon="-1.8327500"/>
            <trkpt lat="53.1071900" lon="-1.8362000"/>
            <trkpt lat="53.1087900" lon="-1.8365400"/>
            <trkpt lat="53.1090700" lon="-1.8375400"/>
            <trkpt lat="53.1084200" lon="-1.8398600"/>
            <trkpt lat="53.1080600" lon="-1.8423200"/>
            <trkpt lat="53.1048900" lon="-1.8409700"/>
            <trkpt lat="53.1046100" lon="-1.8409500"/>
            <trkpt lat="53.1044000" lon="-1.8410000"/>
            <trkpt lat="53.1040800" lon="-1.8411300"/>
            <trkpt lat="53.1033700" lon="-1.8413400"/>
            <trkpt lat="53.1029100" lon="-1.8415100"/>
            <trkpt lat="53.1013500" lon="-1.8417400"/>
            <trkpt lat="53.1012700" lon="-1.8417300"/>
            <trkpt lat="53.1009600" lon="-1.8419000"/>
            <trkpt lat="53.1007200" lon="-1.8421300"/>
            <trkpt lat="53.1003900" lon="-1.8421200"/>
            <trkpt lat="53.0998200" lon="-1.8419300"/>
            <trkpt lat="53.0988300" lon="-1.8413900"/>
            <trkpt lat="53.0982000" lon="-1.8409800"/>
            <trkpt lat="53.0981300" lon="-1.8408600"/>
            <trkpt lat="53.0977700" lon="-1.8406200"/>
            <trkpt lat="53.0975200" lon="-1.8402100"/>
            <trkpt lat="53.0970100" lon="-1.8398500"/>
            <trkpt lat="53.0968200" lon="-1.8396100"/>
            <trkpt lat="53.0967600" lon="-1.8394400"/>
            <trkpt lat="53.0967300" lon="-1.8392700"/>
            <trkpt lat="53.0966600" lon="-1.8391100"/>
            <trkpt lat="53.0965000" lon="-1.8389400"/>
            <trkpt lat="53.0964100" lon="-1.8389700"/>
            <trkpt lat="53.0961700" lon="-1.8389800"/>
            <trkpt lat="53.0961300" lon="-1.8391800"/>
            <trkpt lat="53.0958400" lon="-1.8396700"/>
            <trkpt lat="53.0953500" lon="-1.8406600"/>
            <trkpt lat="53.0952200" lon="-1.8405000"/>
            <trkpt lat="53.0950900" lon="-1.8405100"/>
            <trkpt lat="53.0949100" lon="-1.8403400"/>
            <trkpt lat="53.0947500" lon="-1.8400800"/>
            <trkpt lat="53.0939100" lon="-1.8389100"/>
            <trkpt lat="53.0937800" lon="-1.8386600"/>
            <trkpt lat="53.0937200" lon="-1.8385900"/>
            <trkpt lat="53.0936800" lon="-1.8384200"/>
            <trkpt lat="53.0935200" lon="-1.8385000"/>
        </trkseg>
    </trk>
</gpx>
