<?xml version="1.0" encoding="UTF-8" standalone="yes"?>
<gpx version="1.1" creator="OS Maps - Web" xmlns="http://www.topografix.com/GPX/1/1"
xmlns:xsi="http://www.w3.org/2001/XMLSchema-instance"
xsi:schemaLocation="http://www.topografix.com/GPX/1/1 http://www.topografix.com/GPX/1/1/gpx.xsd"
xmlns:gs="http://www.topografix.com/GPX/gpx_style/0/2"
xmlns:gh="https://graphhopper.com/public/schema/gpx/1.1"
xmlns:os="https://ordnancesurvey.co.uk/public/schema/route/0.1">
    <metadata>
        <name>Fin Cop (Ethel) - Circular (www.thelostpeak.co.uk)</name>
        <desc>www.thelostpeak.co.uk</desc>
        <bounds minlat="53.2170700" minlon="-1.7405100" maxlat="53.2406500" maxlon="-1.6785900"/>
        <extensions>
            <os:version>2.0</os:version>
            <os:point lat="53.2406300" lon="-1.7246600" type="start"/>
            <os:point lat="53.2406300" lon="-1.7246600" type="end"/>
            <os:activity>ON_FOOT_WALKING</os:activity>
            <os:difficulty>MODERATE</os:difficulty>
            <os:paths/>
            <os:distance>12262.0941103</os:distance>
            <os:elevation_ascent>305.5500000</os:elevation_ascent>
        </extensions>
    </metadata>
    <wpt lat="53.2406300" lon="-1.7246600"/>
    <wpt lat="53.2405300" lon="-1.7252500"/>
    <wpt lat="53.2392900" lon="-1.7271200"/>
    <wpt lat="53.2385600" lon="-1.7290900"/>
    <wpt lat="53.2376700" lon="-1.7301900"/>
    <wpt lat="53.2370500" lon="-1.7315700"/>
    <wpt lat="53.2369300" lon="-1.7362000"/>
    <wpt lat="53.2370200" lon="-1.7405100"/>
    <wpt lat="53.2348600" lon="-1.7403000"/>
    <wpt lat="53.2369900" lon="-1.7404600"/>
    <wpt lat="53.2370200" lon="-1.7315200"/>
    <wpt lat="53.2361300" lon="-1.7316800"/>
    <wpt lat="53.2341800" lon="-1.7313900"/>
    <wpt lat="53.2332400" lon="-1.7315700"/>
    <wpt lat="53.2323600" lon="-1.7321100"/>
    <wpt lat="53.2324500" lon="-1.7296400"/>
    <wpt lat="53.2328000" lon="-1.7271900"/>
    <wpt lat="53.2311500" lon="-1.7261800"/>
    <wpt lat="53.2310300" lon="-1.7258600"/>
    <wpt lat="53.2298200" lon="-1.7254300"/>
    <wpt lat="53.2294000" lon="-1.7246300"/>
    <wpt lat="53.2294100" lon="-1.7225800"/>
    <wpt lat="53.2288300" lon="-1.7203700"/>
    <wpt lat="53.2290600" lon="-1.7186200"/>
    <wpt lat="53.2290100" lon="-1.7178700"/>
    <wpt lat="53.2280500" lon="-1.7148000"/>
    <wpt lat="53.2266800" lon="-1.7135700"/>
    <wpt lat="53.2257300" lon="-1.7115200"/>
    <wpt lat="53.2252100" lon="-1.7111500"/>
    <wpt lat="53.2252800" lon="-1.7109400"/>
    <wpt lat="53.2248700" lon="-1.7110800"/>
    <wpt lat="53.2229800" lon="-1.7102200"/>
    <wpt lat="53.2228500" lon="-1.7083500"/>
    <wpt lat="53.2221000" lon="-1.7046600"/>
    <wpt lat="53.2221700" lon="-1.7027800"/>
    <wpt lat="53.2219800" lon="-1.7019700"/>
    <wpt lat="53.2220600" lon="-1.7012600"/>
    <wpt lat="53.2217100" lon="-1.6974000"/>
    <wpt lat="53.2215600" lon="-1.6928800"/>
    <wpt lat="53.2213800" lon="-1.6921000"/>
    <wpt lat="53.2205900" lon="-1.6905500"/>
    <wpt lat="53.2186400" lon="-1.6882700"/>
    <wpt lat="53.2182200" lon="-1.6881100"/>
    <wpt lat="53.2177700" lon="-1.6871800"/>
    <wpt lat="53.2174500" lon="-1.6846200"/>
    <wpt lat="53.2176400" lon="-1.6806800"/>
    <wpt lat="53.2175300" lon="-1.6800400"/>
    <wpt lat="53.2170800" lon="-1.6791100"/>
    <wpt lat="53.2178100" lon="-1.6785900"/>
    <wpt lat="53.2182200" lon="-1.6787800"/>
    <wpt lat="53.2191500" lon="-1.6812300"/>
    <wpt lat="53.2199100" lon="-1.6811300"/>
    <wpt lat="53.2220100" lon="-1.6814600"/>
    <wpt lat="53.2230200" lon="-1.6836200"/>
    <wpt lat="53.2238200" lon="-1.6847500"/>
    <wpt lat="53.2274500" lon="-1.6863200"/>
    <wpt lat="53.2282900" lon="-1.6876400"/>
    <wpt lat="53.2299500" lon="-1.6893500"/>
    <wpt lat="53.2312100" lon="-1.6896400"/>
    <wpt lat="53.2323200" lon="-1.6892000"/>
    <wpt lat="53.2335400" lon="-1.6897100"/>
    <wpt lat="53.2338500" lon="-1.6906300"/>
    <wpt lat="53.2349100" lon="-1.6924500"/>
    <wpt lat="53.2354200" lon="-1.6929100"/>
    <wpt lat="53.2359600" lon="-1.6928600"/>
    <wpt lat="53.2363400" lon="-1.6938700"/>
    <wpt lat="53.2363100" lon="-1.6944300"/>
    <wpt lat="53.2368500" lon="-1.6979600"/>
    <wpt lat="53.2368800" lon="-1.6999100"/>
    <wpt lat="53.2365700" lon="-1.7042200"/>
    <wpt lat="53.2368100" lon="-1.7083400"/>
    <wpt lat="53.2372800" lon="-1.7107500"/>
    <wpt lat="53.2385400" lon="-1.7146600"/>
    <wpt lat="53.2390000" lon="-1.7166800"/>
    <wpt lat="53.2393300" lon="-1.7189700"/>
    <wpt lat="53.2395200" lon="-1.7226800"/>
    <wpt lat="53.2400900" lon="-1.7258200"/>
    <wpt lat="53.2406300" lon="-1.7246600"/>
    <trk>
        <name>Fin Cop (Ethel) - Circular (www.thelostpeak.co.uk)</name>
        <trkseg>
            <trkpt lat="53.2406300" lon="-1.7246600"><ele>230.0</ele></trkpt>
            <trkpt lat="53.2406200" lon="-1.7248000"><ele>228.9</ele></trkpt>
            <trkpt lat="53.2406400" lon="-1.7249800"><ele>227.3</ele></trkpt>
            <trkpt lat="53.2406200" lon="-1.7250000"><ele>226.4</ele></trkpt>
            <trkpt lat="53.2405800" lon="-1.7251500"><ele>225.0</ele></trkpt>
            <trkpt lat="53.2405300" lon="-1.7252500"><ele>224.0</ele></trkpt>
            <trkpt lat="53.2397700" lon="-1.7263000"><ele>232.7</ele></trkpt>
            <trkpt lat="53.2392900" lon="-1.7271200"><ele>242.1</ele></trkpt>
            <trkpt lat="53.2385600" lon="-1.7290900"><ele>248.5</ele></trkpt>
            <trkpt lat="53.2376700" lon="-1.7301900"><ele>254.8</ele></trkpt>
            <trkpt lat="53.2372800" lon="-1.7312400"><ele>259.7</ele></trkpt>
            <trkpt lat="53.2370500" lon="-1.7315700"><ele>265.4</ele></trkpt>
            <trkpt lat="53.2369300" lon="-1.7362000"><ele>293.6</ele></trkpt>
            <trkpt lat="53.2370100" lon="-1.7392200"><ele>320.5</ele></trkpt>
            <trkpt lat="53.2370200" lon="-1.7405100"><ele>312.8</ele></trkpt>
            <trkpt lat="53.2349000" lon="-1.7403400"><ele>317.7</ele></trkpt>
            <trkpt lat="53.2348600" lon="-1.7403000"><ele>318.4</ele></trkpt>
            <trkpt lat="53.2369900" lon="-1.7404600"><ele>314.3</ele></trkpt>
            <trkpt lat="53.2369400" lon="-1.7361800"><ele>293.6</ele></trkpt>
            <trkpt lat="53.2370200" lon="-1.7315200"><ele>265.6</ele></trkpt>
            <trkpt lat="53.2361300" lon="-1.7316800"><ele>270.3</ele></trkpt>
            <trkpt lat="53.2353000" lon="-1.7314700"><ele>271.4</ele></trkpt>
            <trkpt lat="53.2341800" lon="-1.7313900"><ele>265.5</ele></trkpt>
            <trkpt lat="53.2332400" lon="-1.7315700"><ele>267.2</ele></trkpt>
            <trkpt lat="53.2323600" lon="-1.7321100"><ele>268.0</ele></trkpt>
            <trkpt lat="53.2323500" lon="-1.7320700"><ele>267.7</ele></trkpt>
            <trkpt lat="53.2323500" lon="-1.7314700"><ele>263.8</ele></trkpt>
            <trkpt lat="53.2323600" lon="-1.7311500"><ele>261.0</ele></trkpt>
            <trkpt lat="53.2323800" lon="-1.7309400"><ele>259.2</ele></trkpt>
            <trkpt lat="53.2323800" lon="-1.7306600"><ele>257.1</ele></trkpt>
            <trkpt lat="53.2324500" lon="-1.7296400"><ele>251.1</ele></trkpt>
            <trkpt lat="53.2325300" lon="-1.7288400"><ele>245.7</ele></trkpt>
            <trkpt lat="53.2325500" lon="-1.7287500"><ele>245.2</ele></trkpt>
            <trkpt lat="53.2326000" lon="-1.7283100"><ele>242.9</ele></trkpt>
            <trkpt lat="53.2328000" lon="-1.7271900"><ele>234.6</ele></trkpt>
            <trkpt lat="53.2327500" lon="-1.7271100"><ele>234.1</ele></trkpt>
            <trkpt lat="53.2326900" lon="-1.7270500"><ele>234.1</ele></trkpt>
            <trkpt lat="53.2324400" lon="-1.7268600"><ele>233.8</ele></trkpt>
            <trkpt lat="53.2317300" lon="-1.7264600"><ele>230.4</ele></trkpt>
            <trkpt lat="53.2314600" lon="-1.7263500"><ele>229.2</ele></trkpt>
            <trkpt lat="53.2311500" lon="-1.7261800"><ele>228.4</ele></trkpt>
            <trkpt lat="53.2311100" lon="-1.7261200"><ele>228.2</ele></trkpt>
            <trkpt lat="53.2311000" lon="-1.7260800"><ele>228.1</ele></trkpt>
            <trkpt lat="53.2311000" lon="-1.7259800"><ele>227.7</ele></trkpt>
            <trkpt lat="53.2310600" lon="-1.7258900"><ele>227.5</ele></trkpt>
            <trkpt lat="53.2310300" lon="-1.7258600"><ele>227.3</ele></trkpt>
            <trkpt lat="53.2309400" lon="-1.7258100"><ele>226.9</ele></trkpt>
            <trkpt lat="53.2298200" lon="-1.7254300"><ele>219.5</ele></trkpt>
            <trkpt lat="53.2297800" lon="-1.7253800"><ele>219.2</ele></trkpt>
            <trkpt lat="53.2297000" lon="-1.7251100"><ele>218.0</ele></trkpt>
            <trkpt lat="53.2296600" lon="-1.7250300"><ele>217.8</ele></trkpt>
            <trkpt lat="53.2294000" lon="-1.7246300"><ele>218.7</ele></trkpt>
            <trkpt lat="53.2293800" lon="-1.7245700"><ele>218.8</ele></trkpt>
            <trkpt lat="53.2293800" lon="-1.7244600"><ele>218.5</ele></trkpt>
            <trkpt lat="53.2293900" lon="-1.7243700"><ele>218.2</ele></trkpt>
            <trkpt lat="53.2293900" lon="-1.7237600"><ele>216.0</ele></trkpt>
            <trkpt lat="53.2294000" lon="-1.7236900"><ele>215.5</ele></trkpt>
            <trkpt lat="53.2293900" lon="-1.7236400"><ele>215.5</ele></trkpt>
            <trkpt lat="53.2294100" lon="-1.7234100"><ele>214.1</ele></trkpt>
            <trkpt lat="53.2294200" lon="-1.7229300"><ele>211.5</ele></trkpt>
            <trkpt lat="53.2294100" lon="-1.7225800"><ele>209.9</ele></trkpt>
            <trkpt lat="53.2292100" lon="-1.7217900"><ele>207.3</ele></trkpt>
            <trkpt lat="53.2291100" lon="-1.7214500"><ele>205.5</ele></trkpt>
            <trkpt lat="53.2291000" lon="-1.7213500"><ele>205.2</ele></trkpt>
            <trkpt lat="53.2290600" lon="-1.7211700"><ele>204.2</ele></trkpt>
            <trkpt lat="53.2288800" lon="-1.7206700"><ele>201.4</ele></trkpt>
            <trkpt lat="53.2288300" lon="-1.7203700"><ele>200.3</ele></trkpt>
            <trkpt lat="53.2288300" lon="-1.7202400"><ele>200.1</ele></trkpt>
            <trkpt lat="53.2288700" lon="-1.7199200"><ele>200.4</ele></trkpt>
            <trkpt lat="53.2290600" lon="-1.7186200"><ele>196.3</ele></trkpt>
            <trkpt lat="53.2290600" lon="-1.7184900"><ele>196.3</ele></trkpt>
            <trkpt lat="53.2290700" lon="-1.7184400"><ele>196.3</ele></trkpt>
            <trkpt lat="53.2290100" lon="-1.7178700"><ele>194.2</ele></trkpt>
            <trkpt lat="53.2289600" lon="-1.7176100"><ele>192.9</ele></trkpt>
            <trkpt lat="53.2286400" lon="-1.7167200"><ele>190.5</ele></trkpt>
            <trkpt lat="53.2284600" lon="-1.7160700"><ele>187.0</ele></trkpt>
            <trkpt lat="53.2283000" lon="-1.7156500"><ele>185.3</ele></trkpt>
            <trkpt lat="53.2281200" lon="-1.7152700"><ele>183.5</ele></trkpt>
            <trkpt lat="53.2280900" lon="-1.7151300"><ele>182.7</ele></trkpt>
            <trkpt lat="53.2280900" lon="-1.7150500"><ele>182.1</ele></trkpt>
            <trkpt lat="53.2280500" lon="-1.7148000"><ele>180.7</ele></trkpt>
            <trkpt lat="53.2279900" lon="-1.7147700"><ele>180.9</ele></trkpt>
            <trkpt lat="53.2279800" lon="-1.7147400"><ele>180.8</ele></trkpt>
            <trkpt lat="53.2278500" lon="-1.7146700"><ele>181.2</ele></trkpt>
            <trkpt lat="53.2277900" lon="-1.7146100"><ele>181.6</ele></trkpt>
            <trkpt lat="53.2277400" lon="-1.7146000"><ele>181.8</ele></trkpt>
            <trkpt lat="53.2276000" lon="-1.7144900"><ele>182.0</ele></trkpt>
            <trkpt lat="53.2275600" lon="-1.7144300"><ele>182.0</ele></trkpt>
            <trkpt lat="53.2272100" lon="-1.7141500"><ele>183.4</ele></trkpt>
            <trkpt lat="53.2269700" lon="-1.7139200"><ele>182.7</ele></trkpt>
            <trkpt lat="53.2266800" lon="-1.7135700"><ele>179.0</ele></trkpt>
            <trkpt lat="53.2266200" lon="-1.7134800"><ele>177.9</ele></trkpt>
            <trkpt lat="53.2265100" lon="-1.7132500"><ele>175.7</ele></trkpt>
            <trkpt lat="53.2262800" lon="-1.7127000"><ele>172.6</ele></trkpt>
            <trkpt lat="53.2261300" lon="-1.7123900"><ele>170.1</ele></trkpt>
            <trkpt lat="53.2258900" lon="-1.7118100"><ele>165.0</ele></trkpt>
            <trkpt lat="53.2257300" lon="-1.7115200"><ele>162.4</ele></trkpt>
            <trkpt lat="53.2252100" lon="-1.7111500"><ele>150.9</ele></trkpt>
            <trkpt lat="53.2252200" lon="-1.7110600"><ele>150.4</ele></trkpt>
            <trkpt lat="53.2252600" lon="-1.7110100"><ele>151.1</ele></trkpt>
            <trkpt lat="53.2252800" lon="-1.7109400"><ele>150.6</ele></trkpt>
            <trkpt lat="53.2252500" lon="-1.7109300"><ele>150.1</ele></trkpt>
            <trkpt lat="53.2251100" lon="-1.7110300"><ele>148.5</ele></trkpt>
            <trkpt lat="53.2248700" lon="-1.7110800"><ele>145.6</ele></trkpt>
            <trkpt lat="53.2246600" lon="-1.7109400"><ele>142.9</ele></trkpt>
            <trkpt lat="53.2244800" lon="-1.7108700"><ele>142.2</ele></trkpt>
            <trkpt lat="53.2240700" lon="-1.7106400"><ele>139.5</ele></trkpt>
            <trkpt lat="53.2240300" lon="-1.7106400"><ele>139.4</ele></trkpt>
            <trkpt lat="53.2237400" lon="-1.7104300"><ele>139.0</ele></trkpt>
            <trkpt lat="53.2235200" lon="-1.7103800"><ele>139.1</ele></trkpt>
            <trkpt lat="53.2232100" lon="-1.7103900"><ele>140.7</ele></trkpt>
            <trkpt lat="53.2231200" lon="-1.7103600"><ele>141.9</ele></trkpt>
            <trkpt lat="53.2229800" lon="-1.7102200"><ele>143.3</ele></trkpt>
            <trkpt lat="53.2229700" lon="-1.7101400"><ele>143.3</ele></trkpt>
            <trkpt lat="53.2229800" lon="-1.7097500"><ele>143.8</ele></trkpt>
            <trkpt lat="53.2229700" lon="-1.7093500"><ele>144.0</ele></trkpt>
            <trkpt lat="53.2229100" lon="-1.7087400"><ele>143.4</ele></trkpt>
            <trkpt lat="53.2228700" lon="-1.7085300"><ele>143.3</ele></trkpt>
            <trkpt lat="53.2228500" lon="-1.7083500"><ele>142.9</ele></trkpt>
            <trkpt lat="53.2226900" lon="-1.7074900"><ele>140.8</ele></trkpt>
            <trkpt lat="53.2223100" lon="-1.7061500"><ele>140.1</ele></trkpt>
            <trkpt lat="53.2223000" lon="-1.7059100"><ele>139.3</ele></trkpt>
            <trkpt lat="53.2223300" lon="-1.7057400"><ele>138.8</ele></trkpt>
            <trkpt lat="53.2221800" lon="-1.7051200"><ele>136.9</ele></trkpt>
            <trkpt lat="53.2221400" lon="-1.7048200"><ele>136.6</ele></trkpt>
            <trkpt lat="53.2221000" lon="-1.7046600"><ele>137.1</ele></trkpt>
            <trkpt lat="53.2220700" lon="-1.7042300"><ele>138.2</ele></trkpt>
            <trkpt lat="53.2220600" lon="-1.7039600"><ele>138.8</ele></trkpt>
            <trkpt lat="53.2220700" lon="-1.7038400"><ele>138.9</ele></trkpt>
            <trkpt lat="53.2220600" lon="-1.7038000"><ele>139.0</ele></trkpt>
            <trkpt lat="53.2220900" lon="-1.7035400"><ele>138.7</ele></trkpt>
            <trkpt lat="53.2221000" lon="-1.7033400"><ele>137.9</ele></trkpt>
            <trkpt lat="53.2221600" lon="-1.7029300"><ele>136.9</ele></trkpt>
            <trkpt lat="53.2221700" lon="-1.7027800"><ele>136.6</ele></trkpt>
            <trkpt lat="53.2221300" lon="-1.7023800"><ele>136.4</ele></trkpt>
            <trkpt lat="53.2219800" lon="-1.7019700"><ele>137.5</ele></trkpt>
            <trkpt lat="53.2219900" lon="-1.7018400"><ele>137.5</ele></trkpt>
            <trkpt lat="53.2220400" lon="-1.7016000"><ele>137.0</ele></trkpt>
            <trkpt lat="53.2220600" lon="-1.7012600"><ele>136.8</ele></trkpt>
            <trkpt lat="53.2219700" lon="-1.6998700"><ele>137.1</ele></trkpt>
            <trkpt lat="53.2219000" lon="-1.6992000"><ele>140.3</ele></trkpt>
            <trkpt lat="53.2218500" lon="-1.6989600"><ele>141.2</ele></trkpt>
            <trkpt lat="53.2218000" lon="-1.6985900"><ele>141.7</ele></trkpt>
            <trkpt lat="53.2217900" lon="-1.6983300"><ele>141.4</ele></trkpt>
            <trkpt lat="53.2218000" lon="-1.6981100"><ele>141.5</ele></trkpt>
            <trkpt lat="53.2217100" lon="-1.6974000"><ele>143.2</ele></trkpt>
            <trkpt lat="53.2216900" lon="-1.6967400"><ele>141.8</ele></trkpt>
            <trkpt lat="53.2217100" lon="-1.6963500"><ele>140.8</ele></trkpt>
            <trkpt lat="53.2217300" lon="-1.6961800"><ele>141.0</ele></trkpt>
            <trkpt lat="53.2217100" lon="-1.6959800"><ele>141.0</ele></trkpt>
            <trkpt lat="53.2216800" lon="-1.6953500"><ele>143.2</ele></trkpt>
            <trkpt lat="53.2216800" lon="-1.6949600"><ele>143.2</ele></trkpt>
            <trkpt lat="53.2216600" lon="-1.6948700"><ele>143.1</ele></trkpt>
            <trkpt lat="53.2216400" lon="-1.6946300"><ele>143.0</ele></trkpt>
            <trkpt lat="53.2216400" lon="-1.6945000"><ele>142.6</ele></trkpt>
            <trkpt lat="53.2216800" lon="-1.6943000"><ele>141.5</ele></trkpt>
            <trkpt lat="53.2216300" lon="-1.6937800"><ele>140.8</ele></trkpt>
            <trkpt lat="53.2215900" lon="-1.6936800"><ele>140.7</ele></trkpt>
            <trkpt lat="53.2215900" lon="-1.6936000"><ele>140.4</ele></trkpt>
            <trkpt lat="53.2215600" lon="-1.6935500"><ele>140.5</ele></trkpt>
            <trkpt lat="53.2215500" lon="-1.6934000"><ele>140.2</ele></trkpt>
            <trkpt lat="53.2215300" lon="-1.6933400"><ele>139.9</ele></trkpt>
            <trkpt lat="53.2215600" lon="-1.6930000"><ele>140.3</ele></trkpt>
            <trkpt lat="53.2215600" lon="-1.6928800"><ele>141.2</ele></trkpt>
            <trkpt lat="53.2214900" lon="-1.6925400"><ele>143.4</ele></trkpt>
            <trkpt lat="53.2214400" lon="-1.6923800"><ele>144.2</ele></trkpt>
            <trkpt lat="53.2214200" lon="-1.6922200"><ele>144.5</ele></trkpt>
            <trkpt lat="53.2213800" lon="-1.6921000"><ele>144.4</ele></trkpt>
            <trkpt lat="53.2212500" lon="-1.6918500"><ele>145.1</ele></trkpt>
            <trkpt lat="53.2210000" lon="-1.6914300"><ele>146.5</ele></trkpt>
            <trkpt lat="53.2207100" lon="-1.6907400"><ele>144.1</ele></trkpt>
            <trkpt lat="53.2205900" lon="-1.6905500"><ele>142.5</ele></trkpt>
            <trkpt lat="53.2200700" lon="-1.6899200"><ele>139.8</ele></trkpt>
            <trkpt lat="53.2193800" lon="-1.6891800"><ele>139.5</ele></trkpt>
            <trkpt lat="53.2190300" lon="-1.6887500"><ele>140.6</ele></trkpt>
            <trkpt lat="53.2188900" lon="-1.6886100"><ele>141.2</ele></trkpt>
            <trkpt lat="53.2186400" lon="-1.6882700"><ele>143.3</ele></trkpt>
            <trkpt lat="53.2185400" lon="-1.6881700"><ele>144.2</ele></trkpt>
            <trkpt lat="53.2182800" lon="-1.6881400"><ele>144.4</ele></trkpt>
            <trkpt lat="53.2182200" lon="-1.6881100"><ele>144.1</ele></trkpt>
            <trkpt lat="53.2180700" lon="-1.6878000"><ele>141.3</ele></trkpt>
            <trkpt lat="53.2179000" lon="-1.6875000"><ele>139.4</ele></trkpt>
            <trkpt lat="53.2177700" lon="-1.6871800"><ele>138.6</ele></trkpt>
            <trkpt lat="53.2177100" lon="-1.6869900"><ele>138.8</ele></trkpt>
            <trkpt lat="53.2176600" lon="-1.6867300"><ele>139.8</ele></trkpt>
            <trkpt lat="53.2176600" lon="-1.6865900"><ele>139.5</ele></trkpt>
            <trkpt lat="53.2176800" lon="-1.6864700"><ele>138.7</ele></trkpt>
            <trkpt lat="53.2176600" lon="-1.6862700"><ele>138.8</ele></trkpt>
            <trkpt lat="53.2175700" lon="-1.6859900"><ele>140.3</ele></trkpt>
            <trkpt lat="53.2175400" lon="-1.6857700"><ele>140.1</ele></trkpt>
            <trkpt lat="53.2175300" lon="-1.6855400"><ele>138.7</ele></trkpt>
            <trkpt lat="53.2175400" lon="-1.6853500"><ele>138.2</ele></trkpt>
            <trkpt lat="53.2175200" lon="-1.6852400"><ele>138.8</ele></trkpt>
            <trkpt lat="53.2174800" lon="-1.6851200"><ele>139.6</ele></trkpt>
            <trkpt lat="53.2174500" lon="-1.6846200"><ele>140.7</ele></trkpt>
            <trkpt lat="53.2174700" lon="-1.6839000"><ele>138.6</ele></trkpt>
            <trkpt lat="53.2174600" lon="-1.6837200"><ele>139.9</ele></trkpt>
            <trkpt lat="53.2175100" lon="-1.6831700"><ele>140.3</ele></trkpt>
            <trkpt lat="53.2175100" lon="-1.6830700"><ele>140.8</ele></trkpt>
            <trkpt lat="53.2175600" lon="-1.6826600"><ele>141.1</ele></trkpt>
            <trkpt lat="53.2175700" lon="-1.6823900"><ele>142.6</ele></trkpt>
            <trkpt lat="53.2176100" lon="-1.6819900"><ele>141.8</ele></trkpt>
            <trkpt lat="53.2176100" lon="-1.6817300"><ele>141.4</ele></trkpt>
            <trkpt lat="53.2176400" lon="-1.6814600"><ele>140.0</ele></trkpt>
            <trkpt lat="53.2176400" lon="-1.6811400"><ele>140.0</ele></trkpt>
            <trkpt lat="53.2176300" lon="-1.6810600"><ele>140.0</ele></trkpt>
            <trkpt lat="53.2176300" lon="-1.6809000"><ele>139.4</ele></trkpt>
            <trkpt lat="53.2176400" lon="-1.6808600"><ele>139.2</ele></trkpt>
            <trkpt lat="53.2176300" lon="-1.6807500"><ele>138.8</ele></trkpt>
            <trkpt lat="53.2176400" lon="-1.6806800"><ele>138.2</ele></trkpt>
            <trkpt lat="53.2175900" lon="-1.6802900"><ele>137.0</ele></trkpt>
            <trkpt lat="53.2175300" lon="-1.6800400"><ele>135.9</ele></trkpt>
            <trkpt lat="53.2174200" lon="-1.6797700"><ele>136.2</ele></trkpt>
            <trkpt lat="53.2170900" lon="-1.6792300"><ele>135.2</ele></trkpt>
            <trkpt lat="53.2170700" lon="-1.6791600"><ele>135.1</ele></trkpt>
            <trkpt lat="53.2170800" lon="-1.6791100"><ele>134.6</ele></trkpt>
            <trkpt lat="53.2175300" lon="-1.6787700"><ele>128.6</ele></trkpt>
            <trkpt lat="53.2178100" lon="-1.6785900"><ele>129.5</ele></trkpt>
            <trkpt lat="53.2179200" lon="-1.6785900"><ele>130.2</ele></trkpt>
            <trkpt lat="53.2181100" lon="-1.6786700"><ele>131.9</ele></trkpt>
            <trkpt lat="53.2182200" lon="-1.6787800"><ele>133.3</ele></trkpt>
            <trkpt lat="53.2182700" lon="-1.6788500"><ele>133.9</ele></trkpt>
            <trkpt lat="53.2183400" lon="-1.6790500"><ele>134.9</ele></trkpt>
            <trkpt lat="53.2185100" lon="-1.6797000"><ele>138.7</ele></trkpt>
            <trkpt lat="53.2187400" lon="-1.6802200"><ele>144.2</ele></trkpt>
            <trkpt lat="53.2187800" lon="-1.6803700"><ele>145.8</ele></trkpt>
            <trkpt lat="53.2188700" lon="-1.6806100"><ele>148.6</ele></trkpt>
            <trkpt lat="53.2189900" lon="-1.6810500"><ele>153.7</ele></trkpt>
            <trkpt lat="53.2190400" lon="-1.6810900"><ele>154.9</ele></trkpt>
            <trkpt lat="53.2190700" lon="-1.6811600"><ele>155.7</ele></trkpt>
            <trkpt lat="53.2191500" lon="-1.6812300"><ele>158.0</ele></trkpt>
            <trkpt lat="53.2195100" lon="-1.6812600"><ele>165.0</ele></trkpt>
            <trkpt lat="53.2195900" lon="-1.6812500"><ele>166.1</ele></trkpt>
            <trkpt lat="53.2198500" lon="-1.6811300"><ele>169.3</ele></trkpt>
            <trkpt lat="53.2199100" lon="-1.6811300"><ele>169.8</ele></trkpt>
            <trkpt lat="53.2207300" lon="-1.6812600"><ele>177.4</ele></trkpt>
            <trkpt lat="53.2210800" lon="-1.6813500"><ele>180.1</ele></trkpt>
            <trkpt lat="53.2214100" lon="-1.6813900"><ele>183.0</ele></trkpt>
            <trkpt lat="53.2216900" lon="-1.6813900"><ele>184.9</ele></trkpt>
            <trkpt lat="53.2220100" lon="-1.6814600"><ele>186.6</ele></trkpt>
            <trkpt lat="53.2220700" lon="-1.6816600"><ele>186.8</ele></trkpt>
            <trkpt lat="53.2224400" lon="-1.6824600"><ele>192.6</ele></trkpt>
            <trkpt lat="53.2230200" lon="-1.6836200"><ele>197.5</ele></trkpt>
            <trkpt lat="53.2232600" lon="-1.6840100"><ele>198.1</ele></trkpt>
            <trkpt lat="53.2233600" lon="-1.6842300"><ele>200.1</ele></trkpt>
            <trkpt lat="53.2234200" lon="-1.6843300"><ele>201.1</ele></trkpt>
            <trkpt lat="53.2235400" lon="-1.6844600"><ele>203.7</ele></trkpt>
            <trkpt lat="53.2237000" lon="-1.6846000"><ele>204.4</ele></trkpt>
            <trkpt lat="53.2238200" lon="-1.6847500"><ele>205.1</ele></trkpt>
            <trkpt lat="53.2240300" lon="-1.6848800"><ele>206.2</ele></trkpt>
            <trkpt lat="53.2242600" lon="-1.6849500"><ele>206.0</ele></trkpt>
            <trkpt lat="53.2246500" lon="-1.6852000"><ele>204.0</ele></trkpt>
            <trkpt lat="53.2249100" lon="-1.6853100"><ele>204.0</ele></trkpt>
            <trkpt lat="53.2255400" lon="-1.6855100"><ele>201.3</ele></trkpt>
            <trkpt lat="53.2262800" lon="-1.6857900"><ele>197.1</ele></trkpt>
            <trkpt lat="53.2272000" lon="-1.6861900"><ele>192.4</ele></trkpt>
            <trkpt lat="53.2274500" lon="-1.6863200"><ele>192.8</ele></trkpt>
            <trkpt lat="53.2276900" lon="-1.6867700"><ele>194.0</ele></trkpt>
            <trkpt lat="53.2279300" lon="-1.6871400"><ele>196.7</ele></trkpt>
            <trkpt lat="53.2282900" lon="-1.6876400"><ele>196.8</ele></trkpt>
            <trkpt lat="53.2285900" lon="-1.6879900"><ele>194.9</ele></trkpt>
            <trkpt lat="53.2290000" lon="-1.6883900"><ele>195.2</ele></trkpt>
            <trkpt lat="53.2293000" lon="-1.6887100"><ele>197.5</ele></trkpt>
            <trkpt lat="53.2297600" lon="-1.6891000"><ele>195.6</ele></trkpt>
            <trkpt lat="53.2298500" lon="-1.6892700"><ele>193.8</ele></trkpt>
            <trkpt lat="53.2299500" lon="-1.6893500"><ele>192.7</ele></trkpt>
            <trkpt lat="53.2301900" lon="-1.6894700"><ele>188.2</ele></trkpt>
            <trkpt lat="53.2304000" lon="-1.6895400"><ele>184.9</ele></trkpt>
            <trkpt lat="53.2306300" lon="-1.6895600"><ele>185.4</ele></trkpt>
            <trkpt lat="53.2307900" lon="-1.6896100"><ele>184.1</ele></trkpt>
            <trkpt lat="53.2312100" lon="-1.6896400"><ele>181.3</ele></trkpt>
            <trkpt lat="53.2314200" lon="-1.6896200"><ele>181.4</ele></trkpt>
            <trkpt lat="53.2316700" lon="-1.6895600"><ele>178.9</ele></trkpt>
            <trkpt lat="53.2321100" lon="-1.6893500"><ele>172.0</ele></trkpt>
            <trkpt lat="53.2322400" lon="-1.6892100"><ele>170.2</ele></trkpt>
            <trkpt lat="53.2323200" lon="-1.6892000"><ele>167.1</ele></trkpt>
            <trkpt lat="53.2327500" lon="-1.6892700"><ele>162.3</ele></trkpt>
            <trkpt lat="53.2330500" lon="-1.6893700"><ele>163.7</ele></trkpt>
            <trkpt lat="53.2331900" lon="-1.6894700"><ele>164.8</ele></trkpt>
            <trkpt lat="53.2333800" lon="-1.6896400"><ele>165.6</ele></trkpt>
            <trkpt lat="53.2334800" lon="-1.6897000"><ele>165.3</ele></trkpt>
            <trkpt lat="53.2335400" lon="-1.6897100"><ele>165.2</ele></trkpt>
            <trkpt lat="53.2336900" lon="-1.6902200"><ele>165.8</ele></trkpt>
            <trkpt lat="53.2337900" lon="-1.6905000"><ele>165.6</ele></trkpt>
            <trkpt lat="53.2338500" lon="-1.6906300"><ele>165.7</ele></trkpt>
            <trkpt lat="53.2340700" lon="-1.6909900"><ele>166.6</ele></trkpt>
            <trkpt lat="53.2341100" lon="-1.6910900"><ele>166.8</ele></trkpt>
            <trkpt lat="53.2342300" lon="-1.6913000"><ele>167.9</ele></trkpt>
            <trkpt lat="53.2348500" lon="-1.6923300"><ele>171.3</ele></trkpt>
            <trkpt lat="53.2349100" lon="-1.6924500"><ele>171.7</ele></trkpt>
            <trkpt lat="53.2350500" lon="-1.6925500"><ele>173.0</ele></trkpt>
            <trkpt lat="53.2353700" lon="-1.6928800"><ele>174.9</ele></trkpt>
            <trkpt lat="53.2354200" lon="-1.6929100"><ele>175.0</ele></trkpt>
            <trkpt lat="53.2355400" lon="-1.6929200"><ele>175.5</ele></trkpt>
            <trkpt lat="53.2356800" lon="-1.6928900"><ele>176.3</ele></trkpt>
            <trkpt lat="53.2357400" lon="-1.6928500"><ele>176.8</ele></trkpt>
            <trkpt lat="53.2357800" lon="-1.6928500"><ele>176.8</ele></trkpt>
            <trkpt lat="53.2358600" lon="-1.6928100"><ele>177.1</ele></trkpt>
            <trkpt lat="53.2359000" lon="-1.6928100"><ele>177.0</ele></trkpt>
            <trkpt lat="53.2359600" lon="-1.6928600"><ele>176.7</ele></trkpt>
            <trkpt lat="53.2359600" lon="-1.6929000"><ele>176.5</ele></trkpt>
            <trkpt lat="53.2359800" lon="-1.6929600"><ele>176.3</ele></trkpt>
            <trkpt lat="53.2361700" lon="-1.6933500"><ele>175.4</ele></trkpt>
            <trkpt lat="53.2361800" lon="-1.6933500"><ele>175.2</ele></trkpt>
            <trkpt lat="53.2362600" lon="-1.6935500"><ele>175.4</ele></trkpt>
            <trkpt lat="53.2363000" lon="-1.6936600"><ele>175.7</ele></trkpt>
            <trkpt lat="53.2363400" lon="-1.6938700"><ele>176.3</ele></trkpt>
            <trkpt lat="53.2363900" lon="-1.6943600"><ele>177.3</ele></trkpt>
            <trkpt lat="53.2363800" lon="-1.6943800"><ele>177.3</ele></trkpt>
            <trkpt lat="53.2363300" lon="-1.6943900"><ele>177.8</ele></trkpt>
            <trkpt lat="53.2363100" lon="-1.6944300"><ele>177.8</ele></trkpt>
            <trkpt lat="53.2363400" lon="-1.6946200"><ele>177.9</ele></trkpt>
            <trkpt lat="53.2364200" lon="-1.6949300"><ele>178.0</ele></trkpt>
            <trkpt lat="53.2365800" lon="-1.6956700"><ele>178.1</ele></trkpt>
            <trkpt lat="53.2366400" lon="-1.6960100"><ele>178.2</ele></trkpt>
            <trkpt lat="53.2366600" lon="-1.6962300"><ele>178.7</ele></trkpt>
            <trkpt lat="53.2367400" lon="-1.6967400"><ele>179.2</ele></trkpt>
            <trkpt lat="53.2368500" lon="-1.6979600"><ele>177.7</ele></trkpt>
            <trkpt lat="53.2368800" lon="-1.6985600"><ele>176.9</ele></trkpt>
            <trkpt lat="53.2368800" lon="-1.6988900"><ele>177.3</ele></trkpt>
            <trkpt lat="53.2368900" lon="-1.6989500"><ele>177.4</ele></trkpt>
            <trkpt lat="53.2368800" lon="-1.6999100"><ele>179.1</ele></trkpt>
            <trkpt lat="53.2368400" lon="-1.7005600"><ele>181.7</ele></trkpt>
            <trkpt lat="53.2368200" lon="-1.7006800"><ele>182.5</ele></trkpt>
            <trkpt lat="53.2368100" lon="-1.7009000"><ele>183.6</ele></trkpt>
            <trkpt lat="53.2367800" lon="-1.7011600"><ele>184.7</ele></trkpt>
            <trkpt lat="53.2367700" lon="-1.7014200"><ele>185.6</ele></trkpt>
            <trkpt lat="53.2367500" lon="-1.7016000"><ele>186.3</ele></trkpt>
            <trkpt lat="53.2367500" lon="-1.7017600"><ele>187.0</ele></trkpt>
            <trkpt lat="53.2367300" lon="-1.7018600"><ele>187.7</ele></trkpt>
            <trkpt lat="53.2366600" lon="-1.7025500"><ele>190.5</ele></trkpt>
            <trkpt lat="53.2366600" lon="-1.7027200"><ele>190.7</ele></trkpt>
            <trkpt lat="53.2366300" lon="-1.7029200"><ele>190.9</ele></trkpt>
            <trkpt lat="53.2366200" lon="-1.7032300"><ele>191.2</ele></trkpt>
            <trkpt lat="53.2365900" lon="-1.7034800"><ele>191.6</ele></trkpt>
            <trkpt lat="53.2365900" lon="-1.7037300"><ele>191.9</ele></trkpt>
            <trkpt lat="53.2365800" lon="-1.7037900"><ele>191.9</ele></trkpt>
            <trkpt lat="53.2365900" lon="-1.7038500"><ele>191.9</ele></trkpt>
            <trkpt lat="53.2365900" lon="-1.7040500"><ele>191.9</ele></trkpt>
            <trkpt lat="53.2365700" lon="-1.7042200"><ele>191.8</ele></trkpt>
            <trkpt lat="53.2365800" lon="-1.7043400"><ele>191.7</ele></trkpt>
            <trkpt lat="53.2365700" lon="-1.7045000"><ele>191.4</ele></trkpt>
            <trkpt lat="53.2365700" lon="-1.7054700"><ele>191.2</ele></trkpt>
            <trkpt lat="53.2365900" lon="-1.7057600"><ele>191.3</ele></trkpt>
            <trkpt lat="53.2365900" lon="-1.7059600"><ele>191.4</ele></trkpt>
            <trkpt lat="53.2366800" lon="-1.7072400"><ele>194.1</ele></trkpt>
            <trkpt lat="53.2367200" lon="-1.7075200"><ele>194.2</ele></trkpt>
            <trkpt lat="53.2367200" lon="-1.7076200"><ele>194.2</ele></trkpt>
            <trkpt lat="53.2367400" lon="-1.7076900"><ele>194.0</ele></trkpt>
            <trkpt lat="53.2367400" lon="-1.7077800"><ele>194.0</ele></trkpt>
            <trkpt lat="53.2367800" lon="-1.7080100"><ele>193.8</ele></trkpt>
            <trkpt lat="53.2367800" lon="-1.7080900"><ele>193.8</ele></trkpt>
            <trkpt lat="53.2368100" lon="-1.7083400"><ele>193.6</ele></trkpt>
            <trkpt lat="53.2369200" lon="-1.7089500"><ele>192.6</ele></trkpt>
            <trkpt lat="53.2369200" lon="-1.7090200"><ele>192.3</ele></trkpt>
            <trkpt lat="53.2370800" lon="-1.7099000"><ele>191.1</ele></trkpt>
            <trkpt lat="53.2372800" lon="-1.7107500"><ele>187.3</ele></trkpt>
            <trkpt lat="53.2375700" lon="-1.7117700"><ele>185.7</ele></trkpt>
            <trkpt lat="53.2376400" lon="-1.7119500"><ele>185.7</ele></trkpt>
            <trkpt lat="53.2377500" lon="-1.7123100"><ele>186.5</ele></trkpt>
            <trkpt lat="53.2378400" lon="-1.7125200"><ele>187.0</ele></trkpt>
            <trkpt lat="53.2379100" lon="-1.7127500"><ele>187.1</ele></trkpt>
            <trkpt lat="53.2381200" lon="-1.7133300"><ele>189.5</ele></trkpt>
            <trkpt lat="53.2384000" lon="-1.7141900"><ele>193.2</ele></trkpt>
            <trkpt lat="53.2385400" lon="-1.7146600"><ele>195.0</ele></trkpt>
            <trkpt lat="53.2387000" lon="-1.7152400"><ele>198.2</ele></trkpt>
            <trkpt lat="53.2387900" lon="-1.7156300"><ele>199.9</ele></trkpt>
            <trkpt lat="53.2389200" lon="-1.7163300"><ele>201.6</ele></trkpt>
            <trkpt lat="53.2390000" lon="-1.7166800"><ele>202.0</ele></trkpt>
            <trkpt lat="53.2390400" lon="-1.7169900"><ele>203.1</ele></trkpt>
            <trkpt lat="53.2390900" lon="-1.7172200"><ele>203.7</ele></trkpt>
            <trkpt lat="53.2391800" lon="-1.7177900"><ele>205.8</ele></trkpt>
            <trkpt lat="53.2391900" lon="-1.7179200"><ele>206.6</ele></trkpt>
            <trkpt lat="53.2392200" lon="-1.7180600"><ele>207.0</ele></trkpt>
            <trkpt lat="53.2392300" lon="-1.7182100"><ele>207.6</ele></trkpt>
            <trkpt lat="53.2392800" lon="-1.7184900"><ele>208.8</ele></trkpt>
            <trkpt lat="53.2393300" lon="-1.7189700"><ele>210.6</ele></trkpt>
            <trkpt lat="53.2393100" lon="-1.7190100"><ele>210.8</ele></trkpt>
            <trkpt lat="53.2392900" lon="-1.7193900"><ele>212.1</ele></trkpt>
            <trkpt lat="53.2394300" lon="-1.7215300"><ele>221.0</ele></trkpt>
            <trkpt lat="53.2395200" lon="-1.7226800"><ele>227.1</ele></trkpt>
            <trkpt lat="53.2396900" lon="-1.7240200"><ele>233.9</ele></trkpt>
            <trkpt lat="53.2397200" lon="-1.7241900"><ele>234.7</ele></trkpt>
            <trkpt lat="53.2398700" lon="-1.7249500"><ele>237.9</ele></trkpt>
            <trkpt lat="53.2399600" lon="-1.7253400"><ele>236.4</ele></trkpt>
            <trkpt lat="53.2400900" lon="-1.7258200"><ele>228.4</ele></trkpt>
            <trkpt lat="53.2402900" lon="-1.7255500"><ele>226.9</ele></trkpt>
            <trkpt lat="53.2403500" lon="-1.7254300"><ele>227.5</ele></trkpt>
            <trkpt lat="53.2404400" lon="-1.7253600"><ele>225.1</ele></trkpt>
            <trkpt lat="53.2405300" lon="-1.7252500"><ele>224.0</ele></trkpt>
            <trkpt lat="53.2405800" lon="-1.7251500"><ele>225.0</ele></trkpt>
            <trkpt lat="53.2406200" lon="-1.7250000"><ele>226.4</ele></trkpt>
            <trkpt lat="53.2406500" lon="-1.7249800"><ele>226.7</ele></trkpt>
            <trkpt lat="53.2406400" lon="-1.7249800"><ele>227.3</ele></trkpt>
            <trkpt lat="53.2406200" lon="-1.7248000"><ele>228.9</ele></trkpt>
            <trkpt lat="53.2406300" lon="-1.7246600"><ele>230.0</ele></trkpt>
        </trkseg>
    </trk>
<!-- ele-hash:4f93c43f2437baf8 -->
</gpx>
