<?xml version="1.0" encoding="UTF-8" standalone="yes"?>
<gpx version="1.1" creator="OS Maps - Web" xmlns="http://www.topografix.com/GPX/1/1"
xmlns:xsi="http://www.w3.org/2001/XMLSchema-instance"
xsi:schemaLocation="http://www.topografix.com/GPX/1/1 http://www.topografix.com/GPX/1/1/gpx.xsd"
xmlns:gs="http://www.topografix.com/GPX/gpx_style/0/2"
xmlns:gh="https://graphhopper.com/public/schema/gpx/1.1"
xmlns:os="https://ordnancesurvey.co.uk/public/schema/route/0.1">
    <metadata>
        <name>Grindslow Knoll, Kinder Low (For Kinder Scout) &amp; Brown Knoll (Ethels) - Circular</name>
        <desc>www.thelostpeak.co.uk</desc>
        <bounds minlat="53.3431250" minlon="-1.8828650" maxlat="53.3848200" maxlon="-1.8122080"/>
        <extensions>
            <os:version>2.0</os:version>
            <os:point lat="53.3645450" lon="-1.8157490" type="start"/>
            <os:point lat="53.3645450" lon="-1.8157490" type="end"/>
            <os:activity>ON_FOOT_WALKING</os:activity>
            <os:difficulty>DIFFICULT</os:difficulty>
            <os:paths/>
            <os:distance>17612.9293748</os:distance>
            <os:elevation_ascent>607.7100000</os:elevation_ascent>
            <os:route_type>SINGLE</os:route_type>
        </extensions>
    </metadata>
    <wpt lat="53.3645450" lon="-1.8157490"/>
    <wpt lat="53.3642540" lon="-1.8153660"/>
    <wpt lat="53.3636970" lon="-1.8163150"/>
    <wpt lat="53.3634500" lon="-1.8163000"/>
    <wpt lat="53.3626320" lon="-1.8154570"/>
    <wpt lat="53.3615240" lon="-1.8152670"/>
    <wpt lat="53.3602080" lon="-1.8146080"/>
    <wpt lat="53.3588420" lon="-1.8151370"/>
    <wpt lat="53.3581500" lon="-1.8151080"/>
    <wpt lat="53.3576230" lon="-1.8130770"/>
    <wpt lat="53.3568240" lon="-1.8130340"/>
    <wpt lat="53.3564290" lon="-1.8134240"/>
    <wpt lat="53.3558160" lon="-1.8122080"/>
    <wpt lat="53.3556200" lon="-1.8125280"/>
    <wpt lat="53.3552920" lon="-1.8124520"/>
    <wpt lat="53.3547690" lon="-1.8134870"/>
    <wpt lat="53.3542380" lon="-1.8137860"/>
    <wpt lat="53.3539100" lon="-1.8132100"/>
    <wpt lat="53.3525390" lon="-1.8140260"/>
    <wpt lat="53.3517740" lon="-1.8137030"/>
    <wpt lat="53.3510790" lon="-1.8129870"/>
    <wpt lat="53.3500140" lon="-1.8129630"/>
    <wpt lat="53.3486800" lon="-1.8130380"/>
    <wpt lat="53.3480630" lon="-1.8138900"/>
    <wpt lat="53.3477370" lon="-1.8138080"/>
    <wpt lat="53.3477190" lon="-1.8163420"/>
    <wpt lat="53.3475890" lon="-1.8168820"/>
    <wpt lat="53.3478660" lon="-1.8198650"/>
    <wpt lat="53.3476130" lon="-1.8263350"/>
    <wpt lat="53.3478890" lon="-1.8319910"/>
    <wpt lat="53.3475200" lon="-1.8346810"/>
    <wpt lat="53.3464890" lon="-1.8389620"/>
    <wpt lat="53.3439190" lon="-1.8472640"/>
    <wpt lat="53.3432410" lon="-1.8490130"/>
    <wpt lat="53.3431430" lon="-1.8523870"/>
    <wpt lat="53.3435380" lon="-1.8528420"/>
    <wpt lat="53.3442880" lon="-1.8532270"/>
    <wpt lat="53.3454760" lon="-1.8535060"/>
    <wpt lat="53.3467780" lon="-1.8559150"/>
    <wpt lat="53.3525260" lon="-1.8631180"/>
    <wpt lat="53.3567530" lon="-1.8672550"/>
    <wpt lat="53.3597060" lon="-1.8694780"/>
    <wpt lat="53.3612570" lon="-1.8723130"/>
    <wpt lat="53.3618080" lon="-1.8740210"/>
    <wpt lat="53.3631460" lon="-1.8760790"/>
    <wpt lat="53.3639660" lon="-1.8770120"/>
    <wpt lat="53.3646270" lon="-1.8783710"/>
    <wpt lat="53.3650030" lon="-1.8787920"/>
    <wpt lat="53.3650210" lon="-1.8790720"/>
    <wpt lat="53.3662540" lon="-1.8777740"/>
    <wpt lat="53.3683440" lon="-1.8777970"/>
    <wpt lat="53.3687690" lon="-1.8782800"/>
    <wpt lat="53.3694440" lon="-1.8781520"/>
    <wpt lat="53.3698650" lon="-1.8785650"/>
    <wpt lat="53.3708810" lon="-1.8789330"/>
    <wpt lat="53.3716390" lon="-1.8800400"/>
    <wpt lat="53.3740410" lon="-1.8819880"/>
    <wpt lat="53.3753660" lon="-1.8817410"/>
    <wpt lat="53.3755620" lon="-1.8820880"/>
    <wpt lat="53.3759190" lon="-1.8821250"/>
    <wpt lat="53.3766830" lon="-1.8818110"/>
    <wpt lat="53.3781440" lon="-1.8824690"/>
    <wpt lat="53.3787050" lon="-1.8824010"/>
    <wpt lat="53.3792670" lon="-1.8828650"/>
    <wpt lat="53.3802700" lon="-1.8826800"/>
    <wpt lat="53.3847000" lon="-1.8738500"/>
    <wpt lat="53.3796300" lon="-1.8805200"/>
    <wpt lat="53.3793870" lon="-1.8774520"/>
    <wpt lat="53.3797960" lon="-1.8756880"/>
    <wpt lat="53.3796050" lon="-1.8746940"/>
    <wpt lat="53.3795720" lon="-1.8713900"/>
    <wpt lat="53.3793040" lon="-1.8689560"/>
    <wpt lat="53.3794480" lon="-1.8674930"/>
    <wpt lat="53.3797980" lon="-1.8660680"/>
    <wpt lat="53.3797480" lon="-1.8641630"/>
    <wpt lat="53.3795900" lon="-1.8639360"/>
    <wpt lat="53.3802460" lon="-1.8607610"/>
    <wpt lat="53.3808010" lon="-1.8597160"/>
    <wpt lat="53.3820150" lon="-1.8587410"/>
    <wpt lat="53.3818720" lon="-1.8564250"/>
    <wpt lat="53.3822390" lon="-1.8544140"/>
    <wpt lat="53.3820230" lon="-1.8528340"/>
    <wpt lat="53.3813450" lon="-1.8503140"/>
    <wpt lat="53.3811500" lon="-1.8490050"/>
    <wpt lat="53.3811100" lon="-1.8468040"/>
    <wpt lat="53.3808220" lon="-1.8459740"/>
    <wpt lat="53.3808490" lon="-1.8455820"/>
    <wpt lat="53.3798830" lon="-1.8440240"/>
    <wpt lat="53.3789530" lon="-1.8409650"/>
    <wpt lat="53.3788150" lon="-1.8394880"/>
    <wpt lat="53.3785880" lon="-1.8390050"/>
    <wpt lat="53.3783080" lon="-1.8373500"/>
    <wpt lat="53.3781920" lon="-1.8363230"/>
    <wpt lat="53.3783240" lon="-1.8355400"/>
    <wpt lat="53.3778710" lon="-1.8354470"/>
    <wpt lat="53.3761620" lon="-1.8314800"/>
    <wpt lat="53.3755280" lon="-1.8306980"/>
    <wpt lat="53.3751940" lon="-1.8305620"/>
    <wpt lat="53.3750830" lon="-1.8287490"/>
    <wpt lat="53.3748090" lon="-1.8278290"/>
    <wpt lat="53.3746850" lon="-1.8263060"/>
    <wpt lat="53.3743470" lon="-1.8261240"/>
    <wpt lat="53.3724840" lon="-1.8263950"/>
    <wpt lat="53.3719370" lon="-1.8261410"/>
    <wpt lat="53.3706280" lon="-1.8232050"/>
    <wpt lat="53.3701930" lon="-1.8218790"/>
    <wpt lat="53.3701790" lon="-1.8214330"/>
    <wpt lat="53.3704760" lon="-1.8168640"/>
    <wpt lat="53.3696580" lon="-1.8158890"/>
    <wpt lat="53.3685650" lon="-1.8154600"/>
    <wpt lat="53.3673920" lon="-1.8156770"/>
    <wpt lat="53.3666600" lon="-1.8165630"/>
    <wpt lat="53.3651080" lon="-1.8161950"/>
    <wpt lat="53.3645450" lon="-1.8157490"/>
    <trk>
        <name>Grindslow Knoll, Kinder Low (For Kinder Scout) &amp; Brown Knoll (Ethels) - Circular</name>
        <trkseg>
            <trkpt lat="53.3645450" lon="-1.8157490"><ele>243.5</ele></trkpt>
            <trkpt lat="53.3642540" lon="-1.8153660"><ele>240.8</ele></trkpt>
            <trkpt lat="53.3636970" lon="-1.8163150"><ele>239.5</ele></trkpt>
            <trkpt lat="53.3634500" lon="-1.8163000"><ele>238.1</ele></trkpt>
            <trkpt lat="53.3633020" lon="-1.8161850"><ele>237.1</ele></trkpt>
            <trkpt lat="53.3631690" lon="-1.8160050"><ele>237.0</ele></trkpt>
            <trkpt lat="53.3627860" lon="-1.8155620"><ele>238.1</ele></trkpt>
            <trkpt lat="53.3626320" lon="-1.8154570"><ele>238.5</ele></trkpt>
            <trkpt lat="53.3615240" lon="-1.8152670"><ele>244.6</ele></trkpt>
            <trkpt lat="53.3609400" lon="-1.8150260"><ele>248.9</ele></trkpt>
            <trkpt lat="53.3602080" lon="-1.8146080"><ele>256.9</ele></trkpt>
            <trkpt lat="53.3600980" lon="-1.8145990"><ele>258.3</ele></trkpt>
            <trkpt lat="53.3596150" lon="-1.8147570"><ele>261.2</ele></trkpt>
            <trkpt lat="53.3592570" lon="-1.8150140"><ele>263.9</ele></trkpt>
            <trkpt lat="53.3588420" lon="-1.8151370"><ele>267.4</ele></trkpt>
            <trkpt lat="53.3586520" lon="-1.8151520"><ele>268.9</ele></trkpt>
            <trkpt lat="53.3581500" lon="-1.8151080"><ele>273.8</ele></trkpt>
            <trkpt lat="53.3580500" lon="-1.8149940"><ele>275.8</ele></trkpt>
            <trkpt lat="53.3580050" lon="-1.8148610"><ele>277.1</ele></trkpt>
            <trkpt lat="53.3577560" lon="-1.8134010"><ele>279.9</ele></trkpt>
            <trkpt lat="53.3576820" lon="-1.8131680"><ele>282.1</ele></trkpt>
            <trkpt lat="53.3576230" lon="-1.8130770"><ele>283.5</ele></trkpt>
            <trkpt lat="53.3575390" lon="-1.8130190"><ele>285.9</ele></trkpt>
            <trkpt lat="53.3571480" lon="-1.8130480"><ele>293.8</ele></trkpt>
            <trkpt lat="53.3569060" lon="-1.8131070"><ele>297.0</ele></trkpt>
            <trkpt lat="53.3568650" lon="-1.8130240"><ele>298.1</ele></trkpt>
            <trkpt lat="53.3568240" lon="-1.8130340"><ele>298.6</ele></trkpt>
            <trkpt lat="53.3565390" lon="-1.8133860"><ele>299.9</ele></trkpt>
            <trkpt lat="53.3564840" lon="-1.8134350"><ele>299.9</ele></trkpt>
            <trkpt lat="53.3564290" lon="-1.8134240"><ele>300.8</ele></trkpt>
            <trkpt lat="53.3563270" lon="-1.8131610"><ele>303.6</ele></trkpt>
            <trkpt lat="53.3560810" lon="-1.8127720"><ele>309.7</ele></trkpt>
            <trkpt lat="53.3559010" lon="-1.8123090"><ele>317.7</ele></trkpt>
            <trkpt lat="53.3558160" lon="-1.8122080"><ele>320.3</ele></trkpt>
            <trkpt lat="53.3557710" lon="-1.8122240"><ele>321.3</ele></trkpt>
            <trkpt lat="53.3556800" lon="-1.8124620"><ele>319.8</ele></trkpt>
            <trkpt lat="53.3556200" lon="-1.8125280"><ele>320.5</ele></trkpt>
            <trkpt lat="53.3555730" lon="-1.8125380"><ele>320.4</ele></trkpt>
            <trkpt lat="53.3553650" lon="-1.8124340"><ele>325.3</ele></trkpt>
            <trkpt lat="53.3552920" lon="-1.8124520"><ele>325.5</ele></trkpt>
            <trkpt lat="53.3550780" lon="-1.8127170"><ele>325.5</ele></trkpt>
            <trkpt lat="53.3549740" lon="-1.8129290"><ele>325.0</ele></trkpt>
            <trkpt lat="53.3548590" lon="-1.8133590"><ele>323.9</ele></trkpt>
            <trkpt lat="53.3547690" lon="-1.8134870"><ele>324.7</ele></trkpt>
            <trkpt lat="53.3546490" lon="-1.8135630"><ele>326.9</ele></trkpt>
            <trkpt lat="53.3544850" lon="-1.8137260"><ele>329.5</ele></trkpt>
            <trkpt lat="53.3542380" lon="-1.8137860"><ele>334.1</ele></trkpt>
            <trkpt lat="53.3541140" lon="-1.8136350"><ele>337.5</ele></trkpt>
            <trkpt lat="53.3540250" lon="-1.8133370"><ele>344.1</ele></trkpt>
            <trkpt lat="53.3539100" lon="-1.8132100"><ele>348.5</ele></trkpt>
            <trkpt lat="53.3538630" lon="-1.8132260"><ele>349.3</ele></trkpt>
            <trkpt lat="53.3537780" lon="-1.8133700"><ele>350.4</ele></trkpt>
            <trkpt lat="53.3536420" lon="-1.8134990"><ele>352.9</ele></trkpt>
            <trkpt lat="53.3532320" lon="-1.8135570"><ele>363.8</ele></trkpt>
            <trkpt lat="53.3530090" lon="-1.8138160"><ele>367.2</ele></trkpt>
            <trkpt lat="53.3525390" lon="-1.8140260"><ele>375.7</ele></trkpt>
            <trkpt lat="53.3521140" lon="-1.8139370"><ele>388.3</ele></trkpt>
            <trkpt lat="53.3517740" lon="-1.8137030"><ele>395.3</ele></trkpt>
            <trkpt lat="53.3513580" lon="-1.8131650"><ele>408.3</ele></trkpt>
            <trkpt lat="53.3511910" lon="-1.8130840"><ele>414.1</ele></trkpt>
            <trkpt lat="53.3510790" lon="-1.8129870"><ele>417.7</ele></trkpt>
            <trkpt lat="53.3507420" lon="-1.8130540"><ele>421.1</ele></trkpt>
            <trkpt lat="53.3500140" lon="-1.8129630"><ele>426.5</ele></trkpt>
            <trkpt lat="53.3490590" lon="-1.8130600"><ele>446.7</ele></trkpt>
            <trkpt lat="53.3486800" lon="-1.8130380"><ele>452.0</ele></trkpt>
            <trkpt lat="53.3486380" lon="-1.8131090"><ele>451.2</ele></trkpt>
            <trkpt lat="53.3486430" lon="-1.8131740"><ele>450.4</ele></trkpt>
            <trkpt lat="53.3485220" lon="-1.8132580"><ele>452.3</ele></trkpt>
            <trkpt lat="53.3481390" lon="-1.8136530"><ele>457.4</ele></trkpt>
            <trkpt lat="53.3481170" lon="-1.8137840"><ele>457.1</ele></trkpt>
            <trkpt lat="53.3480630" lon="-1.8138900"><ele>457.6</ele></trkpt>
            <trkpt lat="53.3477370" lon="-1.8138080"><ele>462.8</ele></trkpt>
            <trkpt lat="53.3476850" lon="-1.8140240"><ele>463.1</ele></trkpt>
            <trkpt lat="53.3477100" lon="-1.8141190"><ele>463.5</ele></trkpt>
            <trkpt lat="53.3477340" lon="-1.8146310"><ele>464.1</ele></trkpt>
            <trkpt lat="53.3477080" lon="-1.8154260"><ele>469.6</ele></trkpt>
            <trkpt lat="53.3477190" lon="-1.8163420"><ele>474.4</ele></trkpt>
            <trkpt lat="53.3476310" lon="-1.8166330"><ele>476.6</ele></trkpt>
            <trkpt lat="53.3475890" lon="-1.8168820"><ele>478.0</ele></trkpt>
            <trkpt lat="53.3476120" lon="-1.8171970"><ele>479.2</ele></trkpt>
            <trkpt lat="53.3476090" lon="-1.8176310"><ele>482.8</ele></trkpt>
            <trkpt lat="53.3478040" lon="-1.8188340"><ele>490.5</ele></trkpt>
            <trkpt lat="53.3478660" lon="-1.8198650"><ele>495.9</ele></trkpt>
            <trkpt lat="53.3477960" lon="-1.8211430"><ele>495.5</ele></trkpt>
            <trkpt lat="53.3477100" lon="-1.8220800"><ele>490.9</ele></trkpt>
            <trkpt lat="53.3476610" lon="-1.8234790"><ele>494.1</ele></trkpt>
            <trkpt lat="53.3476760" lon="-1.8241330"><ele>495.0</ele></trkpt>
            <trkpt lat="53.3476620" lon="-1.8251900"><ele>501.5</ele></trkpt>
            <trkpt lat="53.3476170" lon="-1.8257990"><ele>502.8</ele></trkpt>
            <trkpt lat="53.3476130" lon="-1.8263350"><ele>504.5</ele></trkpt>
            <trkpt lat="53.3476640" lon="-1.8270390"><ele>509.1</ele></trkpt>
            <trkpt lat="53.3476620" lon="-1.8280120"><ele>514.1</ele></trkpt>
            <trkpt lat="53.3476940" lon="-1.8281960"><ele>514.8</ele></trkpt>
            <trkpt lat="53.3476770" lon="-1.8285120"><ele>517.0</ele></trkpt>
            <trkpt lat="53.3477120" lon="-1.8290760"><ele>521.1</ele></trkpt>
            <trkpt lat="53.3477120" lon="-1.8296100"><ele>525.5</ele></trkpt>
            <trkpt lat="53.3478560" lon="-1.8310370"><ele>536.8</ele></trkpt>
            <trkpt lat="53.3478890" lon="-1.8319910"><ele>545.4</ele></trkpt>
            <trkpt lat="53.3476600" lon="-1.8338960"><ele>552.1</ele></trkpt>
            <trkpt lat="53.3475200" lon="-1.8346810"><ele>549.6</ele></trkpt>
            <trkpt lat="53.3473410" lon="-1.8353870"><ele>545.1</ele></trkpt>
            <trkpt lat="53.3471310" lon="-1.8364210"><ele>544.9</ele></trkpt>
            <trkpt lat="53.3470020" lon="-1.8368790"><ele>544.3</ele></trkpt>
            <trkpt lat="53.3469140" lon="-1.8373550"><ele>543.5</ele></trkpt>
            <trkpt lat="53.3464890" lon="-1.8389620"><ele>542.8</ele></trkpt>
            <trkpt lat="53.3455230" lon="-1.8420300"><ele>530.5</ele></trkpt>
            <trkpt lat="53.3451760" lon="-1.8432360"><ele>527.8</ele></trkpt>
            <trkpt lat="53.3451260" lon="-1.8433380"><ele>527.3</ele></trkpt>
            <trkpt lat="53.3446870" lon="-1.8447620"><ele>523.4</ele></trkpt>
            <trkpt lat="53.3443980" lon="-1.8455010"><ele>522.1</ele></trkpt>
            <trkpt lat="53.3442380" lon="-1.8460150"><ele>519.1</ele></trkpt>
            <trkpt lat="53.3440690" lon="-1.8467540"><ele>516.1</ele></trkpt>
            <trkpt lat="53.3439190" lon="-1.8472640"><ele>514.7</ele></trkpt>
            <trkpt lat="53.3437990" lon="-1.8475780"><ele>513.1</ele></trkpt>
            <trkpt lat="53.3436300" lon="-1.8478950"><ele>511.5</ele></trkpt>
            <trkpt lat="53.3433370" lon="-1.8486310"><ele>505.5</ele></trkpt>
            <trkpt lat="53.3432410" lon="-1.8490130"><ele>502.9</ele></trkpt>
            <trkpt lat="53.3432020" lon="-1.8500820"><ele>497.5</ele></trkpt>
            <trkpt lat="53.3431650" lon="-1.8502850"><ele>496.6</ele></trkpt>
            <trkpt lat="53.3431250" lon="-1.8509090"><ele>495.1</ele></trkpt>
            <trkpt lat="53.3431620" lon="-1.8519120"><ele>491.3</ele></trkpt>
            <trkpt lat="53.3431390" lon="-1.8522210"><ele>490.0</ele></trkpt>
            <trkpt lat="53.3431430" lon="-1.8523870"><ele>489.5</ele></trkpt>
            <trkpt lat="53.3431870" lon="-1.8524810"><ele>490.0</ele></trkpt>
            <trkpt lat="53.3433110" lon="-1.8525510"><ele>491.2</ele></trkpt>
            <trkpt lat="53.3435380" lon="-1.8528420"><ele>491.4</ele></trkpt>
            <trkpt lat="53.3436130" lon="-1.8528950"><ele>491.3</ele></trkpt>
            <trkpt lat="53.3438030" lon="-1.8529310"><ele>491.2</ele></trkpt>
            <trkpt lat="53.3441650" lon="-1.8530890"><ele>491.5</ele></trkpt>
            <trkpt lat="53.3442880" lon="-1.8532270"><ele>491.4</ele></trkpt>
            <trkpt lat="53.3451150" lon="-1.8534700"><ele>489.0</ele></trkpt>
            <trkpt lat="53.3452710" lon="-1.8534880"><ele>489.3</ele></trkpt>
            <trkpt lat="53.3453800" lon="-1.8534300"><ele>490.0</ele></trkpt>
            <trkpt lat="53.3454760" lon="-1.8535060"><ele>490.0</ele></trkpt>
            <trkpt lat="53.3456690" lon="-1.8538110"><ele>488.3</ele></trkpt>
            <trkpt lat="53.3457690" lon="-1.8540920"><ele>486.9</ele></trkpt>
            <trkpt lat="53.3459100" lon="-1.8542270"><ele>487.0</ele></trkpt>
            <trkpt lat="53.3459700" lon="-1.8544230"><ele>487.2</ele></trkpt>
            <trkpt lat="53.3460870" lon="-1.8545700"><ele>488.0</ele></trkpt>
            <trkpt lat="53.3461640" lon="-1.8547930"><ele>488.2</ele></trkpt>
            <trkpt lat="53.3463030" lon="-1.8549810"><ele>488.8</ele></trkpt>
            <trkpt lat="53.3463450" lon="-1.8551150"><ele>488.9</ele></trkpt>
            <trkpt lat="53.3467780" lon="-1.8559150"><ele>490.5</ele></trkpt>
            <trkpt lat="53.3469800" lon="-1.8560670"><ele>490.4</ele></trkpt>
            <trkpt lat="53.3471830" lon="-1.8563150"><ele>490.1</ele></trkpt>
            <trkpt lat="53.3472690" lon="-1.8565320"><ele>490.3</ele></trkpt>
            <trkpt lat="53.3475750" lon="-1.8567970"><ele>491.0</ele></trkpt>
            <trkpt lat="53.3476660" lon="-1.8570140"><ele>491.0</ele></trkpt>
            <trkpt lat="53.3479800" lon="-1.8573430"><ele>491.2</ele></trkpt>
            <trkpt lat="53.3480840" lon="-1.8575960"><ele>491.4</ele></trkpt>
            <trkpt lat="53.3483390" lon="-1.8579370"><ele>493.2</ele></trkpt>
            <trkpt lat="53.3486300" lon="-1.8581890"><ele>495.0</ele></trkpt>
            <trkpt lat="53.3486920" lon="-1.8583180"><ele>495.5</ele></trkpt>
            <trkpt lat="53.3488710" lon="-1.8585100"><ele>496.8</ele></trkpt>
            <trkpt lat="53.3489460" lon="-1.8586570"><ele>497.2</ele></trkpt>
            <trkpt lat="53.3493500" lon="-1.8590970"><ele>499.7</ele></trkpt>
            <trkpt lat="53.3499260" lon="-1.8598360"><ele>502.8</ele></trkpt>
            <trkpt lat="53.3500930" lon="-1.8599890"><ele>503.5</ele></trkpt>
            <trkpt lat="53.3504470" lon="-1.8605700"><ele>505.7</ele></trkpt>
            <trkpt lat="53.3505390" lon="-1.8606140"><ele>506.5</ele></trkpt>
            <trkpt lat="53.3509220" lon="-1.8611000"><ele>508.3</ele></trkpt>
            <trkpt lat="53.3511470" lon="-1.8612810"><ele>509.4</ele></trkpt>
            <trkpt lat="53.3514110" lon="-1.8616760"><ele>511.4</ele></trkpt>
            <trkpt lat="53.3515950" lon="-1.8618450"><ele>512.7</ele></trkpt>
            <trkpt lat="53.3520080" lon="-1.8623570"><ele>516.1</ele></trkpt>
            <trkpt lat="53.3522840" lon="-1.8626390"><ele>517.5</ele></trkpt>
            <trkpt lat="53.3523240" lon="-1.8627780"><ele>517.9</ele></trkpt>
            <trkpt lat="53.3525260" lon="-1.8631180"><ele>519.9</ele></trkpt>
            <trkpt lat="53.3526760" lon="-1.8631560"><ele>520.6</ele></trkpt>
            <trkpt lat="53.3530680" lon="-1.8636550"><ele>521.7</ele></trkpt>
            <trkpt lat="53.3534610" lon="-1.8640930"><ele>521.3</ele></trkpt>
            <trkpt lat="53.3537130" lon="-1.8642750"><ele>521.0</ele></trkpt>
            <trkpt lat="53.3538720" lon="-1.8644620"><ele>520.4</ele></trkpt>
            <trkpt lat="53.3540160" lon="-1.8644870"><ele>520.1</ele></trkpt>
            <trkpt lat="53.3543110" lon="-1.8648580"><ele>520.0</ele></trkpt>
            <trkpt lat="53.3544090" lon="-1.8649250"><ele>520.2</ele></trkpt>
            <trkpt lat="53.3545480" lon="-1.8652340"><ele>521.7</ele></trkpt>
            <trkpt lat="53.3547700" lon="-1.8654120"><ele>523.2</ele></trkpt>
            <trkpt lat="53.3548610" lon="-1.8655420"><ele>523.5</ele></trkpt>
            <trkpt lat="53.3554030" lon="-1.8659890"><ele>527.0</ele></trkpt>
            <trkpt lat="53.3555480" lon="-1.8661480"><ele>527.9</ele></trkpt>
            <trkpt lat="53.3557630" lon="-1.8662690"><ele>529.5</ele></trkpt>
            <trkpt lat="53.3559490" lon="-1.8664410"><ele>530.0</ele></trkpt>
            <trkpt lat="53.3561920" lon="-1.8665730"><ele>530.6</ele></trkpt>
            <trkpt lat="53.3567530" lon="-1.8672550"><ele>533.5</ele></trkpt>
            <trkpt lat="53.3569570" lon="-1.8672900"><ele>534.0</ele></trkpt>
            <trkpt lat="53.3572500" lon="-1.8675550"><ele>534.0</ele></trkpt>
            <trkpt lat="53.3574330" lon="-1.8676070"><ele>534.3</ele></trkpt>
            <trkpt lat="53.3576520" lon="-1.8677820"><ele>535.0</ele></trkpt>
            <trkpt lat="53.3577030" lon="-1.8678710"><ele>535.0</ele></trkpt>
            <trkpt lat="53.3578880" lon="-1.8680510"><ele>535.0</ele></trkpt>
            <trkpt lat="53.3580740" lon="-1.8681220"><ele>535.0</ele></trkpt>
            <trkpt lat="53.3583230" lon="-1.8683570"><ele>534.6</ele></trkpt>
            <trkpt lat="53.3585600" lon="-1.8684660"><ele>534.9</ele></trkpt>
            <trkpt lat="53.3587080" lon="-1.8686580"><ele>535.0</ele></trkpt>
            <trkpt lat="53.3590060" lon="-1.8689620"><ele>533.7</ele></trkpt>
            <trkpt lat="53.3592800" lon="-1.8690490"><ele>533.1</ele></trkpt>
            <trkpt lat="53.3593450" lon="-1.8691660"><ele>532.6</ele></trkpt>
            <trkpt lat="53.3594450" lon="-1.8692220"><ele>532.7</ele></trkpt>
            <trkpt lat="53.3595580" lon="-1.8693940"><ele>533.0</ele></trkpt>
            <trkpt lat="53.3597060" lon="-1.8694780"><ele>534.4</ele></trkpt>
            <trkpt lat="53.3598260" lon="-1.8696420"><ele>535.7</ele></trkpt>
            <trkpt lat="53.3599510" lon="-1.8699760"><ele>536.2</ele></trkpt>
            <trkpt lat="53.3603630" lon="-1.8706800"><ele>537.6</ele></trkpt>
            <trkpt lat="53.3604900" lon="-1.8707400"><ele>538.9</ele></trkpt>
            <trkpt lat="53.3605570" lon="-1.8708270"><ele>539.5</ele></trkpt>
            <trkpt lat="53.3607430" lon="-1.8712930"><ele>541.4</ele></trkpt>
            <trkpt lat="53.3610360" lon="-1.8718520"><ele>545.6</ele></trkpt>
            <trkpt lat="53.3611270" lon="-1.8722210"><ele>548.0</ele></trkpt>
            <trkpt lat="53.3612570" lon="-1.8723130"><ele>549.3</ele></trkpt>
            <trkpt lat="53.3613250" lon="-1.8724910"><ele>550.3</ele></trkpt>
            <trkpt lat="53.3613230" lon="-1.8727390"><ele>551.4</ele></trkpt>
            <trkpt lat="53.3614970" lon="-1.8730930"><ele>554.3</ele></trkpt>
            <trkpt lat="53.3615870" lon="-1.8734280"><ele>556.6</ele></trkpt>
            <trkpt lat="53.3618080" lon="-1.8740210"><ele>561.1</ele></trkpt>
            <trkpt lat="53.3621850" lon="-1.8746240"><ele>566.1</ele></trkpt>
            <trkpt lat="53.3623230" lon="-1.8747020"><ele>567.1</ele></trkpt>
            <trkpt lat="53.3625200" lon="-1.8751880"><ele>568.2</ele></trkpt>
            <trkpt lat="53.3628370" lon="-1.8756400"><ele>568.9</ele></trkpt>
            <trkpt lat="53.3630030" lon="-1.8757430"><ele>569.8</ele></trkpt>
            <trkpt lat="53.3631460" lon="-1.8760790"><ele>569.9</ele></trkpt>
            <trkpt lat="53.3633360" lon="-1.8761610"><ele>570.0</ele></trkpt>
            <trkpt lat="53.3634990" lon="-1.8763890"><ele>569.4</ele></trkpt>
            <trkpt lat="53.3636310" lon="-1.8764940"><ele>568.5</ele></trkpt>
            <trkpt lat="53.3639660" lon="-1.8770120"><ele>565.3</ele></trkpt>
            <trkpt lat="53.3641050" lon="-1.8773920"><ele>563.0</ele></trkpt>
            <trkpt lat="53.3642350" lon="-1.8775380"><ele>562.0</ele></trkpt>
            <trkpt lat="53.3643940" lon="-1.8779460"><ele>559.9</ele></trkpt>
            <trkpt lat="53.3645570" lon="-1.8781730"><ele>559.1</ele></trkpt>
            <trkpt lat="53.3646270" lon="-1.8783710"><ele>558.4</ele></trkpt>
            <trkpt lat="53.3647750" lon="-1.8784260"><ele>558.2</ele></trkpt>
            <trkpt lat="53.3648250" lon="-1.8785900"><ele>557.6</ele></trkpt>
            <trkpt lat="53.3649660" lon="-1.8787760"><ele>556.6</ele></trkpt>
            <trkpt lat="53.3650030" lon="-1.8787920"><ele>556.3</ele></trkpt>
            <trkpt lat="53.3650210" lon="-1.8790720"><ele>553.8</ele></trkpt>
            <trkpt lat="53.3650910" lon="-1.8789160"><ele>555.6</ele></trkpt>
            <trkpt lat="53.3652900" lon="-1.8787250"><ele>556.2</ele></trkpt>
            <trkpt lat="53.3654900" lon="-1.8784380"><ele>557.0</ele></trkpt>
            <trkpt lat="53.3656460" lon="-1.8783450"><ele>556.8</ele></trkpt>
            <trkpt lat="53.3657680" lon="-1.8781390"><ele>557.3</ele></trkpt>
            <trkpt lat="53.3659720" lon="-1.8779500"><ele>557.9</ele></trkpt>
            <trkpt lat="53.3662540" lon="-1.8777740"><ele>558.5</ele></trkpt>
            <trkpt lat="53.3663760" lon="-1.8777540"><ele>558.7</ele></trkpt>
            <trkpt lat="53.3664410" lon="-1.8777750"><ele>559.0</ele></trkpt>
            <trkpt lat="53.3667480" lon="-1.8777350"><ele>560.1</ele></trkpt>
            <trkpt lat="53.3669840" lon="-1.8777880"><ele>558.6</ele></trkpt>
            <trkpt lat="53.3670880" lon="-1.8777730"><ele>557.2</ele></trkpt>
            <trkpt lat="53.3672100" lon="-1.8778330"><ele>555.6</ele></trkpt>
            <trkpt lat="53.3675370" lon="-1.8779060"><ele>553.4</ele></trkpt>
            <trkpt lat="53.3676710" lon="-1.8778270"><ele>553.8</ele></trkpt>
            <trkpt lat="53.3681360" lon="-1.8778600"><ele>553.8</ele></trkpt>
            <trkpt lat="53.3683440" lon="-1.8777970"><ele>554.5</ele></trkpt>
            <trkpt lat="53.3684800" lon="-1.8779570"><ele>553.1</ele></trkpt>
            <trkpt lat="53.3685540" lon="-1.8781240"><ele>551.6</ele></trkpt>
            <trkpt lat="53.3686500" lon="-1.8781110"><ele>551.3</ele></trkpt>
            <trkpt lat="53.3687250" lon="-1.8782500"><ele>549.9</ele></trkpt>
            <trkpt lat="53.3687690" lon="-1.8782800"><ele>549.3</ele></trkpt>
            <trkpt lat="53.3689020" lon="-1.8781650"><ele>550.3</ele></trkpt>
            <trkpt lat="53.3692050" lon="-1.8782200"><ele>550.4</ele></trkpt>
            <trkpt lat="53.3693490" lon="-1.8781430"><ele>550.7</ele></trkpt>
            <trkpt lat="53.3694440" lon="-1.8781520"><ele>549.9</ele></trkpt>
            <trkpt lat="53.3696280" lon="-1.8783840"><ele>546.8</ele></trkpt>
            <trkpt lat="53.3698650" lon="-1.8785650"><ele>543.9</ele></trkpt>
            <trkpt lat="53.3701360" lon="-1.8786500"><ele>542.9</ele></trkpt>
            <trkpt lat="53.3703340" lon="-1.8786730"><ele>541.6</ele></trkpt>
            <trkpt lat="53.3706480" lon="-1.8788100"><ele>540.0</ele></trkpt>
            <trkpt lat="53.3707950" lon="-1.8789580"><ele>539.4</ele></trkpt>
            <trkpt lat="53.3708810" lon="-1.8789330"><ele>539.3</ele></trkpt>
            <trkpt lat="53.3709390" lon="-1.8789930"><ele>538.7</ele></trkpt>
            <trkpt lat="53.3709900" lon="-1.8792040"><ele>537.5</ele></trkpt>
            <trkpt lat="53.3712990" lon="-1.8796450"><ele>536.8</ele></trkpt>
            <trkpt lat="53.3716390" lon="-1.8800400"><ele>536.3</ele></trkpt>
            <trkpt lat="53.3717870" lon="-1.8801570"><ele>536.6</ele></trkpt>
            <trkpt lat="53.3718000" lon="-1.8800570"><ele>536.5</ele></trkpt>
            <trkpt lat="53.3718470" lon="-1.8800600"><ele>536.6</ele></trkpt>
            <trkpt lat="53.3721800" lon="-1.8803260"><ele>538.4</ele></trkpt>
            <trkpt lat="53.3723840" lon="-1.8805640"><ele>540.6</ele></trkpt>
            <trkpt lat="53.3728040" lon="-1.8808750"><ele>546.5</ele></trkpt>
            <trkpt lat="53.3728140" lon="-1.8809380"><ele>547.8</ele></trkpt>
            <trkpt lat="53.3729370" lon="-1.8811270"><ele>551.5</ele></trkpt>
            <trkpt lat="53.3731030" lon="-1.8812440"><ele>555.4</ele></trkpt>
            <trkpt lat="53.3731560" lon="-1.8813450"><ele>557.4</ele></trkpt>
            <trkpt lat="53.3732670" lon="-1.8814610"><ele>561.0</ele></trkpt>
            <trkpt lat="53.3733850" lon="-1.8814370"><ele>562.4</ele></trkpt>
            <trkpt lat="53.3736740" lon="-1.8816710"><ele>571.0</ele></trkpt>
            <trkpt lat="53.3737730" lon="-1.8817020"><ele>572.1</ele></trkpt>
            <trkpt lat="53.3738830" lon="-1.8818410"><ele>576.6</ele></trkpt>
            <trkpt lat="53.3740410" lon="-1.8819880"><ele>579.4</ele></trkpt>
            <trkpt lat="53.3744550" lon="-1.8818920"><ele>580.5</ele></trkpt>
            <trkpt lat="53.3748020" lon="-1.8819260"><ele>580.1</ele></trkpt>
            <trkpt lat="53.3753660" lon="-1.8817410"><ele>577.2</ele></trkpt>
            <trkpt lat="53.3755290" lon="-1.8819720"><ele>579.1</ele></trkpt>
            <trkpt lat="53.3755620" lon="-1.8820880"><ele>579.7</ele></trkpt>
            <trkpt lat="53.3756320" lon="-1.8821270"><ele>580.1</ele></trkpt>
            <trkpt lat="53.3757710" lon="-1.8821050"><ele>580.4</ele></trkpt>
            <trkpt lat="53.3759190" lon="-1.8821250"><ele>581.2</ele></trkpt>
            <trkpt lat="53.3760500" lon="-1.8819700"><ele>581.6</ele></trkpt>
            <trkpt lat="53.3762550" lon="-1.8818740"><ele>583.5</ele></trkpt>
            <trkpt lat="53.3766020" lon="-1.8818790"><ele>589.8</ele></trkpt>
            <trkpt lat="53.3766830" lon="-1.8818110"><ele>591.3</ele></trkpt>
            <trkpt lat="53.3767760" lon="-1.8818940"><ele>593.9</ele></trkpt>
            <trkpt lat="53.3768640" lon="-1.8818870"><ele>595.6</ele></trkpt>
            <trkpt lat="53.3771230" lon="-1.8820660"><ele>602.9</ele></trkpt>
            <trkpt lat="53.3772380" lon="-1.8821960"><ele>606.8</ele></trkpt>
            <trkpt lat="53.3777300" lon="-1.8821810"><ele>614.3</ele></trkpt>
            <trkpt lat="53.3777940" lon="-1.8822580"><ele>615.0</ele></trkpt>
            <trkpt lat="53.3778580" lon="-1.8822560"><ele>615.9</ele></trkpt>
            <trkpt lat="53.3779580" lon="-1.8823620"><ele>617.2</ele></trkpt>
            <trkpt lat="53.3781440" lon="-1.8824690"><ele>619.0</ele></trkpt>
            <trkpt lat="53.3782660" lon="-1.8824680"><ele>620.1</ele></trkpt>
            <trkpt lat="53.3783640" lon="-1.8824120"><ele>620.7</ele></trkpt>
            <trkpt lat="53.3784640" lon="-1.8824030"><ele>621.2</ele></trkpt>
            <trkpt lat="53.3785490" lon="-1.8824410"><ele>622.3</ele></trkpt>
            <trkpt lat="53.3787050" lon="-1.8824010"><ele>623.6</ele></trkpt>
            <trkpt lat="53.3788740" lon="-1.8825650"><ele>625.6</ele></trkpt>
            <trkpt lat="53.3789840" lon="-1.8825990"><ele>626.8</ele></trkpt>
            <trkpt lat="53.3791690" lon="-1.8828130"><ele>628.8</ele></trkpt>
            <trkpt lat="53.3792670" lon="-1.8828650"><ele>629.6</ele></trkpt>
            <trkpt lat="53.3795080" lon="-1.8828340"><ele>631.6</ele></trkpt>
            <trkpt lat="53.3799360" lon="-1.8827060"><ele>634.7</ele></trkpt>
            <trkpt lat="53.3802700" lon="-1.8826800"><ele>634.9</ele></trkpt>
            <trkpt lat="53.3803200" lon="-1.8826800"><ele>634.9</ele></trkpt>
            <trkpt lat="53.3806200" lon="-1.8824600"><ele>634.5</ele></trkpt>
            <trkpt lat="53.3808000" lon="-1.8821700"><ele>634.6</ele></trkpt>
            <trkpt lat="53.3810900" lon="-1.8818100"><ele>634.6</ele></trkpt>
            <trkpt lat="53.3813400" lon="-1.8815600"><ele>633.8</ele></trkpt>
            <trkpt lat="53.3818300" lon="-1.8810200"><ele>633.6</ele></trkpt>
            <trkpt lat="53.3819100" lon="-1.8808600"><ele>633.9</ele></trkpt>
            <trkpt lat="53.3819200" lon="-1.8806700"><ele>633.7</ele></trkpt>
            <trkpt lat="53.3819600" lon="-1.8804900"><ele>633.3</ele></trkpt>
            <trkpt lat="53.3820700" lon="-1.8803400"><ele>633.5</ele></trkpt>
            <trkpt lat="53.3821300" lon="-1.8801600"><ele>633.8</ele></trkpt>
            <trkpt lat="53.3822500" lon="-1.8799600"><ele>634.2</ele></trkpt>
            <trkpt lat="53.3822800" lon="-1.8797100"><ele>634.4</ele></trkpt>
            <trkpt lat="53.3823500" lon="-1.8795300"><ele>634.6</ele></trkpt>
            <trkpt lat="53.3824700" lon="-1.8792900"><ele>634.9</ele></trkpt>
            <trkpt lat="53.3826700" lon="-1.8786900"><ele>634.1</ele></trkpt>
            <trkpt lat="53.3827500" lon="-1.8785800"><ele>634.1</ele></trkpt>
            <trkpt lat="53.3829200" lon="-1.8784400"><ele>634.7</ele></trkpt>
            <trkpt lat="53.3830400" lon="-1.8782800"><ele>634.9</ele></trkpt>
            <trkpt lat="53.3831300" lon="-1.8780200"><ele>635.3</ele></trkpt>
            <trkpt lat="53.3833900" lon="-1.8775300"><ele>637.0</ele></trkpt>
            <trkpt lat="53.3835100" lon="-1.8774600"><ele>636.9</ele></trkpt>
            <trkpt lat="53.3836900" lon="-1.8767600"><ele>636.3</ele></trkpt>
            <trkpt lat="53.3837700" lon="-1.8766200"><ele>636.0</ele></trkpt>
            <trkpt lat="53.3838100" lon="-1.8763100"><ele>635.9</ele></trkpt>
            <trkpt lat="53.3839000" lon="-1.8762500"><ele>635.8</ele></trkpt>
            <trkpt lat="53.3840300" lon="-1.8762100"><ele>635.9</ele></trkpt>
            <trkpt lat="53.3842200" lon="-1.8759700"><ele>636.3</ele></trkpt>
            <trkpt lat="53.3842900" lon="-1.8757100"><ele>636.6</ele></trkpt>
            <trkpt lat="53.3844000" lon="-1.8754300"><ele>636.8</ele></trkpt>
            <trkpt lat="53.3844300" lon="-1.8752800"><ele>636.7</ele></trkpt>
            <trkpt lat="53.3845600" lon="-1.8751200"><ele>636.2</ele></trkpt>
            <trkpt lat="53.3846200" lon="-1.8749000"><ele>636.0</ele></trkpt>
            <trkpt lat="53.3847200" lon="-1.8747600"><ele>636.0</ele></trkpt>
            <trkpt lat="53.3847900" lon="-1.8746000"><ele>636.1</ele></trkpt>
            <trkpt lat="53.3848200" lon="-1.8739600"><ele>636.9</ele></trkpt>
            <trkpt lat="53.3847000" lon="-1.8738500"><ele>636.7</ele></trkpt>
            <trkpt lat="53.3848200" lon="-1.8739600"><ele>636.9</ele></trkpt>
            <trkpt lat="53.3847900" lon="-1.8746000"><ele>636.1</ele></trkpt>
            <trkpt lat="53.3847200" lon="-1.8747600"><ele>636.0</ele></trkpt>
            <trkpt lat="53.3846200" lon="-1.8749000"><ele>636.0</ele></trkpt>
            <trkpt lat="53.3845600" lon="-1.8751200"><ele>636.2</ele></trkpt>
            <trkpt lat="53.3844300" lon="-1.8752800"><ele>636.7</ele></trkpt>
            <trkpt lat="53.3844000" lon="-1.8754300"><ele>636.8</ele></trkpt>
            <trkpt lat="53.3842900" lon="-1.8757100"><ele>636.6</ele></trkpt>
            <trkpt lat="53.3842200" lon="-1.8759700"><ele>636.3</ele></trkpt>
            <trkpt lat="53.3840300" lon="-1.8762100"><ele>635.9</ele></trkpt>
            <trkpt lat="53.3839000" lon="-1.8762500"><ele>635.8</ele></trkpt>
            <trkpt lat="53.3838100" lon="-1.8763100"><ele>635.9</ele></trkpt>
            <trkpt lat="53.3837700" lon="-1.8766200"><ele>636.0</ele></trkpt>
            <trkpt lat="53.3836900" lon="-1.8767600"><ele>636.3</ele></trkpt>
            <trkpt lat="53.3835100" lon="-1.8774600"><ele>636.9</ele></trkpt>
            <trkpt lat="53.3833900" lon="-1.8775300"><ele>637.0</ele></trkpt>
            <trkpt lat="53.3831300" lon="-1.8780200"><ele>635.3</ele></trkpt>
            <trkpt lat="53.3830400" lon="-1.8782800"><ele>634.9</ele></trkpt>
            <trkpt lat="53.3829200" lon="-1.8784400"><ele>634.7</ele></trkpt>
            <trkpt lat="53.3827500" lon="-1.8785800"><ele>634.1</ele></trkpt>
            <trkpt lat="53.3826700" lon="-1.8786900"><ele>634.1</ele></trkpt>
            <trkpt lat="53.3824700" lon="-1.8792900"><ele>634.9</ele></trkpt>
            <trkpt lat="53.3823500" lon="-1.8795300"><ele>634.6</ele></trkpt>
            <trkpt lat="53.3822800" lon="-1.8797100"><ele>634.4</ele></trkpt>
            <trkpt lat="53.3822500" lon="-1.8799600"><ele>634.2</ele></trkpt>
            <trkpt lat="53.3821300" lon="-1.8801600"><ele>633.8</ele></trkpt>
            <trkpt lat="53.3820700" lon="-1.8803400"><ele>633.5</ele></trkpt>
            <trkpt lat="53.3819600" lon="-1.8804900"><ele>633.3</ele></trkpt>
            <trkpt lat="53.3819200" lon="-1.8806700"><ele>633.7</ele></trkpt>
            <trkpt lat="53.3819100" lon="-1.8808600"><ele>633.9</ele></trkpt>
            <trkpt lat="53.3818300" lon="-1.8810200"><ele>633.6</ele></trkpt>
            <trkpt lat="53.3813400" lon="-1.8815600"><ele>633.8</ele></trkpt>
            <trkpt lat="53.3810900" lon="-1.8818100"><ele>634.6</ele></trkpt>
            <trkpt lat="53.3808000" lon="-1.8821700"><ele>634.6</ele></trkpt>
            <trkpt lat="53.3806200" lon="-1.8824600"><ele>634.5</ele></trkpt>
            <trkpt lat="53.3803200" lon="-1.8826800"><ele>634.9</ele></trkpt>
            <trkpt lat="53.3802800" lon="-1.8826800"><ele>634.9</ele></trkpt>
            <trkpt lat="53.3803000" lon="-1.8823600"><ele>634.9</ele></trkpt>
            <trkpt lat="53.3802800" lon="-1.8821400"><ele>634.7</ele></trkpt>
            <trkpt lat="53.3802300" lon="-1.8818400"><ele>633.8</ele></trkpt>
            <trkpt lat="53.3800800" lon="-1.8814900"><ele>631.2</ele></trkpt>
            <trkpt lat="53.3800500" lon="-1.8812200"><ele>629.9</ele></trkpt>
            <trkpt lat="53.3800100" lon="-1.8811000"><ele>629.1</ele></trkpt>
            <trkpt lat="53.3799700" lon="-1.8810900"><ele>628.7</ele></trkpt>
            <trkpt lat="53.3798100" lon="-1.8809400"><ele>627.0</ele></trkpt>
            <trkpt lat="53.3796700" lon="-1.8807100"><ele>626.0</ele></trkpt>
            <trkpt lat="53.3796300" lon="-1.8805200"><ele>625.2</ele></trkpt>
            <trkpt lat="53.3796530" lon="-1.8800570"><ele>624.3</ele></trkpt>
            <trkpt lat="53.3796300" lon="-1.8798800"><ele>623.6</ele></trkpt>
            <trkpt lat="53.3795310" lon="-1.8795400"><ele>622.2</ele></trkpt>
            <trkpt lat="53.3795210" lon="-1.8788420"><ele>619.4</ele></trkpt>
            <trkpt lat="53.3794120" lon="-1.8780180"><ele>615.2</ele></trkpt>
            <trkpt lat="53.3793870" lon="-1.8774520"><ele>613.2</ele></trkpt>
            <trkpt lat="53.3797860" lon="-1.8759460"><ele>607.1</ele></trkpt>
            <trkpt lat="53.3797960" lon="-1.8756880"><ele>605.5</ele></trkpt>
            <trkpt lat="53.3797420" lon="-1.8753680"><ele>601.9</ele></trkpt>
            <trkpt lat="53.3796840" lon="-1.8753090"><ele>600.5</ele></trkpt>
            <trkpt lat="53.3796620" lon="-1.8752420"><ele>599.9</ele></trkpt>
            <trkpt lat="53.3796690" lon="-1.8749630"><ele>599.3</ele></trkpt>
            <trkpt lat="53.3796050" lon="-1.8746940"><ele>597.7</ele></trkpt>
            <trkpt lat="53.3795970" lon="-1.8745010"><ele>597.8</ele></trkpt>
            <trkpt lat="53.3796430" lon="-1.8740580"><ele>598.9</ele></trkpt>
            <trkpt lat="53.3795380" lon="-1.8736010"><ele>597.9</ele></trkpt>
            <trkpt lat="53.3795200" lon="-1.8731390"><ele>600.0</ele></trkpt>
            <trkpt lat="53.3795490" lon="-1.8725910"><ele>602.8</ele></trkpt>
            <trkpt lat="53.3795450" lon="-1.8724320"><ele>602.8</ele></trkpt>
            <trkpt lat="53.3795200" lon="-1.8723480"><ele>602.5</ele></trkpt>
            <trkpt lat="53.3795270" lon="-1.8720500"><ele>603.4</ele></trkpt>
            <trkpt lat="53.3795600" lon="-1.8717980"><ele>604.3</ele></trkpt>
            <trkpt lat="53.3795510" lon="-1.8714880"><ele>605.3</ele></trkpt>
            <trkpt lat="53.3795720" lon="-1.8713900"><ele>605.8</ele></trkpt>
            <trkpt lat="53.3795180" lon="-1.8709820"><ele>605.8</ele></trkpt>
            <trkpt lat="53.3795050" lon="-1.8704100"><ele>606.1</ele></trkpt>
            <trkpt lat="53.3794530" lon="-1.8700070"><ele>607.6</ele></trkpt>
            <trkpt lat="53.3794170" lon="-1.8693480"><ele>615.5</ele></trkpt>
            <trkpt lat="53.3793960" lon="-1.8692560"><ele>615.7</ele></trkpt>
            <trkpt lat="53.3793480" lon="-1.8691930"><ele>613.8</ele></trkpt>
            <trkpt lat="53.3793040" lon="-1.8689560"><ele>611.8</ele></trkpt>
            <trkpt lat="53.3793470" lon="-1.8686660"><ele>613.3</ele></trkpt>
            <trkpt lat="53.3794020" lon="-1.8685330"><ele>613.9</ele></trkpt>
            <trkpt lat="53.3794030" lon="-1.8684580"><ele>613.6</ele></trkpt>
            <trkpt lat="53.3793520" lon="-1.8683340"><ele>611.2</ele></trkpt>
            <trkpt lat="53.3793560" lon="-1.8682200"><ele>610.4</ele></trkpt>
            <trkpt lat="53.3794580" lon="-1.8677650"><ele>611.0</ele></trkpt>
            <trkpt lat="53.3794480" lon="-1.8674930"><ele>610.5</ele></trkpt>
            <trkpt lat="53.3795230" lon="-1.8673310"><ele>611.2</ele></trkpt>
            <trkpt lat="53.3795490" lon="-1.8669690"><ele>610.7</ele></trkpt>
            <trkpt lat="53.3796540" lon="-1.8666180"><ele>610.2</ele></trkpt>
            <trkpt lat="53.3797080" lon="-1.8665880"><ele>610.6</ele></trkpt>
            <trkpt lat="53.3797140" lon="-1.8665290"><ele>610.4</ele></trkpt>
            <trkpt lat="53.3796890" lon="-1.8664690"><ele>609.7</ele></trkpt>
            <trkpt lat="53.3797260" lon="-1.8662370"><ele>609.1</ele></trkpt>
            <trkpt lat="53.3797500" lon="-1.8661100"><ele>608.7</ele></trkpt>
            <trkpt lat="53.3797980" lon="-1.8660680"><ele>609.1</ele></trkpt>
            <trkpt lat="53.3798040" lon="-1.8657270"><ele>608.3</ele></trkpt>
            <trkpt lat="53.3797360" lon="-1.8653410"><ele>606.8</ele></trkpt>
            <trkpt lat="53.3797590" lon="-1.8652020"><ele>607.0</ele></trkpt>
            <trkpt lat="53.3797310" lon="-1.8650120"><ele>606.2</ele></trkpt>
            <trkpt lat="53.3797820" lon="-1.8646380"><ele>606.5</ele></trkpt>
            <trkpt lat="53.3797390" lon="-1.8644260"><ele>605.8</ele></trkpt>
            <trkpt lat="53.3797480" lon="-1.8641630"><ele>606.7</ele></trkpt>
            <trkpt lat="53.3796820" lon="-1.8641110"><ele>606.1</ele></trkpt>
            <trkpt lat="53.3795900" lon="-1.8639360"><ele>606.1</ele></trkpt>
            <trkpt lat="53.3796360" lon="-1.8637810"><ele>607.4</ele></trkpt>
            <trkpt lat="53.3796510" lon="-1.8636070"><ele>607.8</ele></trkpt>
            <trkpt lat="53.3797560" lon="-1.8630920"><ele>609.3</ele></trkpt>
            <trkpt lat="53.3799370" lon="-1.8626430"><ele>611.0</ele></trkpt>
            <trkpt lat="53.3799900" lon="-1.8622270"><ele>611.0</ele></trkpt>
            <trkpt lat="53.3799620" lon="-1.8620460"><ele>610.3</ele></trkpt>
            <trkpt lat="53.3800170" lon="-1.8618780"><ele>610.8</ele></trkpt>
            <trkpt lat="53.3800800" lon="-1.8615460"><ele>611.3</ele></trkpt>
            <trkpt lat="53.3800760" lon="-1.8614570"><ele>610.8</ele></trkpt>
            <trkpt lat="53.3802040" lon="-1.8610830"><ele>610.3</ele></trkpt>
            <trkpt lat="53.3802460" lon="-1.8607610"><ele>609.0</ele></trkpt>
            <trkpt lat="53.3806810" lon="-1.8601520"><ele>605.8</ele></trkpt>
            <trkpt lat="53.3807470" lon="-1.8600050"><ele>604.5</ele></trkpt>
            <trkpt lat="53.3808010" lon="-1.8597160"><ele>601.8</ele></trkpt>
            <trkpt lat="53.3810760" lon="-1.8595190"><ele>601.3</ele></trkpt>
            <trkpt lat="53.3814340" lon="-1.8591460"><ele>595.8</ele></trkpt>
            <trkpt lat="53.3814620" lon="-1.8590790"><ele>593.4</ele></trkpt>
            <trkpt lat="53.3817760" lon="-1.8588660"><ele>586.6</ele></trkpt>
            <trkpt lat="53.3818420" lon="-1.8588910"><ele>587.7</ele></trkpt>
            <trkpt lat="53.3818560" lon="-1.8588600"><ele>586.7</ele></trkpt>
            <trkpt lat="53.3819690" lon="-1.8588410"><ele>587.5</ele></trkpt>
            <trkpt lat="53.3820150" lon="-1.8587410"><ele>586.8</ele></trkpt>
            <trkpt lat="53.3820480" lon="-1.8586190"><ele>586.0</ele></trkpt>
            <trkpt lat="53.3819490" lon="-1.8584140"><ele>583.3</ele></trkpt>
            <trkpt lat="53.3819130" lon="-1.8580490"><ele>579.6</ele></trkpt>
            <trkpt lat="53.3818440" lon="-1.8569980"><ele>583.8</ele></trkpt>
            <trkpt lat="53.3818840" lon="-1.8566020"><ele>589.9</ele></trkpt>
            <trkpt lat="53.3818720" lon="-1.8564250"><ele>591.4</ele></trkpt>
            <trkpt lat="53.3819710" lon="-1.8559920"><ele>595.5</ele></trkpt>
            <trkpt lat="53.3820190" lon="-1.8555570"><ele>595.8</ele></trkpt>
            <trkpt lat="53.3821440" lon="-1.8550950"><ele>594.3</ele></trkpt>
            <trkpt lat="53.3822390" lon="-1.8544140"><ele>594.8</ele></trkpt>
            <trkpt lat="53.3821920" lon="-1.8540730"><ele>594.9</ele></trkpt>
            <trkpt lat="53.3822360" lon="-1.8538840"><ele>596.5</ele></trkpt>
            <trkpt lat="53.3821430" lon="-1.8535920"><ele>595.4</ele></trkpt>
            <trkpt lat="53.3820230" lon="-1.8528340"><ele>596.3</ele></trkpt>
            <trkpt lat="53.3818160" lon="-1.8518960"><ele>594.5</ele></trkpt>
            <trkpt lat="53.3814070" lon="-1.8506220"><ele>594.0</ele></trkpt>
            <trkpt lat="53.3813450" lon="-1.8503140"><ele>594.0</ele></trkpt>
            <trkpt lat="53.3813110" lon="-1.8498620"><ele>595.6</ele></trkpt>
            <trkpt lat="53.3812510" lon="-1.8496260"><ele>595.3</ele></trkpt>
            <trkpt lat="53.3811500" lon="-1.8490050"><ele>595.8</ele></trkpt>
            <trkpt lat="53.3811720" lon="-1.8476240"><ele>595.3</ele></trkpt>
            <trkpt lat="53.3811100" lon="-1.8468040"><ele>593.3</ele></trkpt>
            <trkpt lat="53.3810510" lon="-1.8465530"><ele>592.8</ele></trkpt>
            <trkpt lat="53.3809340" lon="-1.8463450"><ele>592.5</ele></trkpt>
            <trkpt lat="53.3808220" lon="-1.8459740"><ele>593.3</ele></trkpt>
            <trkpt lat="53.3808020" lon="-1.8458720"><ele>593.4</ele></trkpt>
            <trkpt lat="53.3808490" lon="-1.8455820"><ele>591.6</ele></trkpt>
            <trkpt lat="53.3807580" lon="-1.8452490"><ele>589.1</ele></trkpt>
            <trkpt lat="53.3807060" lon="-1.8451630"><ele>588.2</ele></trkpt>
            <trkpt lat="53.3806320" lon="-1.8450530"><ele>587.0</ele></trkpt>
            <trkpt lat="53.3804700" lon="-1.8449560"><ele>585.6</ele></trkpt>
            <trkpt lat="53.3803120" lon="-1.8447960"><ele>585.1</ele></trkpt>
            <trkpt lat="53.3802170" lon="-1.8445030"><ele>585.6</ele></trkpt>
            <trkpt lat="53.3800780" lon="-1.8444250"><ele>585.8</ele></trkpt>
            <trkpt lat="53.3799560" lon="-1.8441120"><ele>586.5</ele></trkpt>
            <trkpt lat="53.3798830" lon="-1.8440240"><ele>586.9</ele></trkpt>
            <trkpt lat="53.3798450" lon="-1.8439000"><ele>587.4</ele></trkpt>
            <trkpt lat="53.3798110" lon="-1.8434970"><ele>588.3</ele></trkpt>
            <trkpt lat="53.3797430" lon="-1.8433620"><ele>588.6</ele></trkpt>
            <trkpt lat="53.3796770" lon="-1.8433510"><ele>588.5</ele></trkpt>
            <trkpt lat="53.3795850" lon="-1.8430670"><ele>588.4</ele></trkpt>
            <trkpt lat="53.3792670" lon="-1.8416870"><ele>583.6</ele></trkpt>
            <trkpt lat="53.3791670" lon="-1.8415490"><ele>581.8</ele></trkpt>
            <trkpt lat="53.3790730" lon="-1.8411680"><ele>580.4</ele></trkpt>
            <trkpt lat="53.3789960" lon="-1.8410950"><ele>579.1</ele></trkpt>
            <trkpt lat="53.3789530" lon="-1.8409650"><ele>578.8</ele></trkpt>
            <trkpt lat="53.3788940" lon="-1.8406850"><ele>577.8</ele></trkpt>
            <trkpt lat="53.3789010" lon="-1.8402740"><ele>578.8</ele></trkpt>
            <trkpt lat="53.3788550" lon="-1.8400400"><ele>577.9</ele></trkpt>
            <trkpt lat="53.3788150" lon="-1.8394880"><ele>577.9</ele></trkpt>
            <trkpt lat="53.3787910" lon="-1.8393740"><ele>577.7</ele></trkpt>
            <trkpt lat="53.3786730" lon="-1.8392150"><ele>576.1</ele></trkpt>
            <trkpt lat="53.3785880" lon="-1.8390050"><ele>575.2</ele></trkpt>
            <trkpt lat="53.3785270" lon="-1.8384590"><ele>575.2</ele></trkpt>
            <trkpt lat="53.3784200" lon="-1.8382450"><ele>574.5</ele></trkpt>
            <trkpt lat="53.3784430" lon="-1.8381300"><ele>575.4</ele></trkpt>
            <trkpt lat="53.3784210" lon="-1.8379000"><ele>576.6</ele></trkpt>
            <trkpt lat="53.3783080" lon="-1.8373500"><ele>582.0</ele></trkpt>
            <trkpt lat="53.3783130" lon="-1.8368180"><ele>591.7</ele></trkpt>
            <trkpt lat="53.3781920" lon="-1.8363230"><ele>594.6</ele></trkpt>
            <trkpt lat="53.3782380" lon="-1.8362040"><ele>595.4</ele></trkpt>
            <trkpt lat="53.3783240" lon="-1.8355400"><ele>587.3</ele></trkpt>
            <trkpt lat="53.3778710" lon="-1.8354470"><ele>578.0</ele></trkpt>
            <trkpt lat="53.3776260" lon="-1.8348880"><ele>560.2</ele></trkpt>
            <trkpt lat="53.3774440" lon="-1.8346720"><ele>551.7</ele></trkpt>
            <trkpt lat="53.3772880" lon="-1.8343230"><ele>542.2</ele></trkpt>
            <trkpt lat="53.3770740" lon="-1.8335460"><ele>528.5</ele></trkpt>
            <trkpt lat="53.3769100" lon="-1.8332660"><ele>524.9</ele></trkpt>
            <trkpt lat="53.3767420" lon="-1.8329010"><ele>518.9</ele></trkpt>
            <trkpt lat="53.3766350" lon="-1.8325740"><ele>514.7</ele></trkpt>
            <trkpt lat="53.3764660" lon="-1.8322680"><ele>510.7</ele></trkpt>
            <trkpt lat="53.3763630" lon="-1.8318960"><ele>508.3</ele></trkpt>
            <trkpt lat="53.3761620" lon="-1.8314800"><ele>502.7</ele></trkpt>
            <trkpt lat="53.3759990" lon="-1.8313050"><ele>500.7</ele></trkpt>
            <trkpt lat="53.3755280" lon="-1.8306980"><ele>493.3</ele></trkpt>
            <trkpt lat="53.3753850" lon="-1.8305940"><ele>490.9</ele></trkpt>
            <trkpt lat="53.3751940" lon="-1.8305620"><ele>491.2</ele></trkpt>
            <trkpt lat="53.3750800" lon="-1.8300280"><ele>484.8</ele></trkpt>
            <trkpt lat="53.3750880" lon="-1.8297400"><ele>480.6</ele></trkpt>
            <trkpt lat="53.3750430" lon="-1.8294100"><ele>476.0</ele></trkpt>
            <trkpt lat="53.3750960" lon="-1.8289930"><ele>468.1</ele></trkpt>
            <trkpt lat="53.3750830" lon="-1.8287490"><ele>463.8</ele></trkpt>
            <trkpt lat="53.3749760" lon="-1.8282680"><ele>456.3</ele></trkpt>
            <trkpt lat="53.3748730" lon="-1.8280530"><ele>454.9</ele></trkpt>
            <trkpt lat="53.3748680" lon="-1.8279070"><ele>452.2</ele></trkpt>
            <trkpt lat="53.3748090" lon="-1.8278290"><ele>451.4</ele></trkpt>
            <trkpt lat="53.3748010" lon="-1.8277140"><ele>449.4</ele></trkpt>
            <trkpt lat="53.3748490" lon="-1.8273110"><ele>442.3</ele></trkpt>
            <trkpt lat="53.3747210" lon="-1.8267030"><ele>428.1</ele></trkpt>
            <trkpt lat="53.3746850" lon="-1.8263060"><ele>418.5</ele></trkpt>
            <trkpt lat="53.3745560" lon="-1.8261640"><ele>412.4</ele></trkpt>
            <trkpt lat="53.3743470" lon="-1.8261240"><ele>407.0</ele></trkpt>
            <trkpt lat="53.3741570" lon="-1.8261410"><ele>403.4</ele></trkpt>
            <trkpt lat="53.3738970" lon="-1.8262790"><ele>399.7</ele></trkpt>
            <trkpt lat="53.3737050" lon="-1.8263280"><ele>396.0</ele></trkpt>
            <trkpt lat="53.3735310" lon="-1.8263060"><ele>391.5</ele></trkpt>
            <trkpt lat="53.3728410" lon="-1.8263990"><ele>375.2</ele></trkpt>
            <trkpt lat="53.3724840" lon="-1.8263950"><ele>366.1</ele></trkpt>
            <trkpt lat="53.3719370" lon="-1.8261410"><ele>351.0</ele></trkpt>
            <trkpt lat="53.3714180" lon="-1.8251890"><ele>326.5</ele></trkpt>
            <trkpt lat="53.3706280" lon="-1.8232050"><ele>301.2</ele></trkpt>
            <trkpt lat="53.3703900" lon="-1.8222330"><ele>292.0</ele></trkpt>
            <trkpt lat="53.3703270" lon="-1.8220540"><ele>290.1</ele></trkpt>
            <trkpt lat="53.3701930" lon="-1.8218790"><ele>288.7</ele></trkpt>
            <trkpt lat="53.3701790" lon="-1.8214330"><ele>285.9</ele></trkpt>
            <trkpt lat="53.3703330" lon="-1.8185180"><ele>269.0</ele></trkpt>
            <trkpt lat="53.3703510" lon="-1.8174400"><ele>263.1</ele></trkpt>
            <trkpt lat="53.3703670" lon="-1.8172310"><ele>262.1</ele></trkpt>
            <trkpt lat="53.3704760" lon="-1.8168640"><ele>260.8</ele></trkpt>
            <trkpt lat="53.3701860" lon="-1.8165540"><ele>260.1</ele></trkpt>
            <trkpt lat="53.3698510" lon="-1.8160840"><ele>258.6</ele></trkpt>
            <trkpt lat="53.3696580" lon="-1.8158890"><ele>257.0</ele></trkpt>
            <trkpt lat="53.3689100" lon="-1.8156490"><ele>255.9</ele></trkpt>
            <trkpt lat="53.3685650" lon="-1.8154600"><ele>256.0</ele></trkpt>
            <trkpt lat="53.3684190" lon="-1.8154360"><ele>255.4</ele></trkpt>
            <trkpt lat="53.3680100" lon="-1.8154170"><ele>252.9</ele></trkpt>
            <trkpt lat="53.3673920" lon="-1.8156770"><ele>250.6</ele></trkpt>
            <trkpt lat="53.3672590" lon="-1.8157780"><ele>250.4</ele></trkpt>
            <trkpt lat="53.3670400" lon="-1.8162510"><ele>251.3</ele></trkpt>
            <trkpt lat="53.3669480" lon="-1.8163710"><ele>251.5</ele></trkpt>
            <trkpt lat="53.3669030" lon="-1.8164190"><ele>251.5</ele></trkpt>
            <trkpt lat="53.3666600" lon="-1.8165630"><ele>250.9</ele></trkpt>
            <trkpt lat="53.3661600" lon="-1.8165340"><ele>247.4</ele></trkpt>
            <trkpt lat="53.3659840" lon="-1.8165000"><ele>246.8</ele></trkpt>
            <trkpt lat="53.3656660" lon="-1.8163670"><ele>246.3</ele></trkpt>
            <trkpt lat="53.3651080" lon="-1.8161950"><ele>246.1</ele></trkpt>
            <trkpt lat="53.3648010" lon="-1.8159950"><ele>244.9</ele></trkpt>
            <trkpt lat="53.3647920" lon="-1.8159520"><ele>244.8</ele></trkpt>
            <trkpt lat="53.3645450" lon="-1.8157490"><ele>243.5</ele></trkpt>
        </trkseg>
    </trk>
<!-- ele-hash:86f90c75e3e9952e -->
</gpx>
