<?xml version="1.0"?>
<gpx xmlns="http://www.topografix.com/GPX/1/1" xmlns:xsi="http://www.w3.org/2001/XMLSchema-instance" version="1.1" creator="AllTrails.com" xsi:schemaLocation="http://www.topografix.com/GPX/1/1 http://www.topografix.com/GPX/1/1/gpx.xsd">
  <metadata>
    <name><![CDATA[Grin Low & Corbar Hill (Ethels) - Circular (www.thelostpeak.co.uk)]]></name>
    <desc><![CDATA[www.thelostpeak.co.uk]]></desc>
    <link href="http://www.alltrails.com">
      <text>AllTrails, LLC</text>
    </link>
    <bounds minlat="53.24271" minlon="-1.93907" maxlat="53.26887" maxlon="-1.91081"/>
  </metadata>
  <trk>
    <name><![CDATA[Grin Low & Corbar Hill (Ethels) - Circular (www.thelostpeak.co.uk)]]></name>
    <src>AllTrails</src>
    <trkseg>
      <trkpt lat="53.26005" lon="-1.9131">
        <ele>305.16</ele>
      </trkpt>
      <trkpt lat="53.26004" lon="-1.91307">
        <ele>305.55</ele>
      </trkpt>
      <trkpt lat="53.25999" lon="-1.9132">
        <ele>301.31</ele>
      </trkpt>
      <trkpt lat="53.25987" lon="-1.9131">
        <ele>301.43</ele>
      </trkpt>
      <trkpt lat="53.25987" lon="-1.91307">
        <ele>301.63</ele>
      </trkpt>
      <trkpt lat="53.25983" lon="-1.91304">
        <ele>300.62</ele>
      </trkpt>
      <trkpt lat="53.25979" lon="-1.91301">
        <ele>299.46</ele>
      </trkpt>
      <trkpt lat="53.25979" lon="-1.91301">
        <ele>299.46</ele>
      </trkpt>
      <trkpt lat="53.25976" lon="-1.913">
        <ele>298.7</ele>
      </trkpt>
      <trkpt lat="53.25969" lon="-1.91295">
        <ele>297.98</ele>
      </trkpt>
      <trkpt lat="53.25963" lon="-1.91296">
        <ele>298.66</ele>
      </trkpt>
      <trkpt lat="53.25958" lon="-1.91298">
        <ele>299.17</ele>
      </trkpt>
      <trkpt lat="53.25954" lon="-1.913">
        <ele>299.51</ele>
      </trkpt>
      <trkpt lat="53.2595" lon="-1.91303">
        <ele>299.73</ele>
      </trkpt>
      <trkpt lat="53.25946" lon="-1.91306">
        <ele>299.91</ele>
      </trkpt>
      <trkpt lat="53.2594" lon="-1.91312">
        <ele>299.79</ele>
      </trkpt>
      <trkpt lat="53.25935" lon="-1.91317">
        <ele>299.53</ele>
      </trkpt>
      <trkpt lat="53.2593" lon="-1.9132">
        <ele>299.23</ele>
      </trkpt>
      <trkpt lat="53.25928" lon="-1.9132">
        <ele>299.05</ele>
      </trkpt>
      <trkpt lat="53.25928" lon="-1.9132">
        <ele>299.05</ele>
      </trkpt>
      <trkpt lat="53.25928" lon="-1.9132">
        <ele>299.05</ele>
      </trkpt>
      <trkpt lat="53.25925" lon="-1.91321">
        <ele>298.85</ele>
      </trkpt>
      <trkpt lat="53.25919" lon="-1.91319">
        <ele>298.18</ele>
      </trkpt>
      <trkpt lat="53.25913" lon="-1.91315">
        <ele>298.08</ele>
      </trkpt>
      <trkpt lat="53.25907" lon="-1.91311">
        <ele>298.44</ele>
      </trkpt>
      <trkpt lat="53.25899" lon="-1.91305">
        <ele>298.89</ele>
      </trkpt>
      <trkpt lat="53.25893" lon="-1.91301">
        <ele>299.3</ele>
      </trkpt>
      <trkpt lat="53.25886" lon="-1.91297">
        <ele>299.89</ele>
      </trkpt>
      <trkpt lat="53.25874" lon="-1.9129">
        <ele>300.53</ele>
      </trkpt>
      <trkpt lat="53.25861" lon="-1.91282">
        <ele>299.37</ele>
      </trkpt>
      <trkpt lat="53.25858" lon="-1.9128">
        <ele>298.81</ele>
      </trkpt>
      <trkpt lat="53.25856" lon="-1.91278">
        <ele>298.25</ele>
      </trkpt>
      <trkpt lat="53.25832" lon="-1.9127">
        <ele>300.15</ele>
      </trkpt>
      <trkpt lat="53.25832" lon="-1.91268">
        <ele>300.36</ele>
      </trkpt>
      <trkpt lat="53.25828" lon="-1.91268">
        <ele>301.26</ele>
      </trkpt>
      <trkpt lat="53.25822" lon="-1.91269">
        <ele>302.55</ele>
      </trkpt>
      <trkpt lat="53.2582" lon="-1.91273">
        <ele>302.71</ele>
      </trkpt>
      <trkpt lat="53.25803" lon="-1.91276">
        <ele>305.97</ele>
      </trkpt>
      <trkpt lat="53.25803" lon="-1.91276">
        <ele>305.97</ele>
      </trkpt>
      <trkpt lat="53.25797" lon="-1.91277">
        <ele>305.72</ele>
      </trkpt>
      <trkpt lat="53.25788" lon="-1.91279">
        <ele>305.66</ele>
      </trkpt>
      <trkpt lat="53.2577" lon="-1.91282">
        <ele>305.71</ele>
      </trkpt>
      <trkpt lat="53.25763" lon="-1.91284">
        <ele>305.36</ele>
      </trkpt>
      <trkpt lat="53.25749" lon="-1.91286">
        <ele>303.9</ele>
      </trkpt>
      <trkpt lat="53.25733" lon="-1.91291">
        <ele>304.61</ele>
      </trkpt>
      <trkpt lat="53.25724" lon="-1.91294">
        <ele>305.08</ele>
      </trkpt>
      <trkpt lat="53.25715" lon="-1.91299">
        <ele>307.57</ele>
      </trkpt>
      <trkpt lat="53.25709" lon="-1.91304">
        <ele>309.4</ele>
      </trkpt>
      <trkpt lat="53.25706" lon="-1.91307">
        <ele>310.33</ele>
      </trkpt>
      <trkpt lat="53.25687" lon="-1.91328">
        <ele>314.18</ele>
      </trkpt>
      <trkpt lat="53.25682" lon="-1.91334">
        <ele>314.68</ele>
      </trkpt>
      <trkpt lat="53.25682" lon="-1.91334">
        <ele>314.68</ele>
      </trkpt>
      <trkpt lat="53.25675" lon="-1.91342">
        <ele>315.98</ele>
      </trkpt>
      <trkpt lat="53.25664" lon="-1.91355">
        <ele>317.6</ele>
      </trkpt>
      <trkpt lat="53.25657" lon="-1.91366">
        <ele>318.09</ele>
      </trkpt>
      <trkpt lat="53.25655" lon="-1.91362">
        <ele>318.62</ele>
      </trkpt>
      <trkpt lat="53.25629" lon="-1.914">
        <ele>320.03</ele>
      </trkpt>
      <trkpt lat="53.25626" lon="-1.91399">
        <ele>321.23</ele>
      </trkpt>
      <trkpt lat="53.25623" lon="-1.91398">
        <ele>322.4</ele>
      </trkpt>
      <trkpt lat="53.25621" lon="-1.91401">
        <ele>322.89</ele>
      </trkpt>
      <trkpt lat="53.25619" lon="-1.91404">
        <ele>323.44</ele>
      </trkpt>
      <trkpt lat="53.25616" lon="-1.91408">
        <ele>324.36</ele>
      </trkpt>
      <trkpt lat="53.25619" lon="-1.91412">
        <ele>322.9</ele>
      </trkpt>
      <trkpt lat="53.25619" lon="-1.91418">
        <ele>322.56</ele>
      </trkpt>
      <trkpt lat="53.25616" lon="-1.91422">
        <ele>323.73</ele>
      </trkpt>
      <trkpt lat="53.25611" lon="-1.91423">
        <ele>325.8</ele>
      </trkpt>
      <trkpt lat="53.25601" lon="-1.91435">
        <ele>327.41</ele>
      </trkpt>
      <trkpt lat="53.25594" lon="-1.91445">
        <ele>328.04</ele>
      </trkpt>
      <trkpt lat="53.25591" lon="-1.91455">
        <ele>327.86</ele>
      </trkpt>
      <trkpt lat="53.25581" lon="-1.91467">
        <ele>328.32</ele>
      </trkpt>
      <trkpt lat="53.25569" lon="-1.91476">
        <ele>326.73</ele>
      </trkpt>
      <trkpt lat="53.25569" lon="-1.91477">
        <ele>326.54</ele>
      </trkpt>
      <trkpt lat="53.25566" lon="-1.91479">
        <ele>326.0</ele>
      </trkpt>
      <trkpt lat="53.25559" lon="-1.91485">
        <ele>324.42</ele>
      </trkpt>
      <trkpt lat="53.25545" lon="-1.91495">
        <ele>322.05</ele>
      </trkpt>
      <trkpt lat="53.25543" lon="-1.91497">
        <ele>321.81</ele>
      </trkpt>
      <trkpt lat="53.2554" lon="-1.91499">
        <ele>321.66</ele>
      </trkpt>
      <trkpt lat="53.25522" lon="-1.91512">
        <ele>319.47</ele>
      </trkpt>
      <trkpt lat="53.25508" lon="-1.91521">
        <ele>317.4</ele>
      </trkpt>
      <trkpt lat="53.25503" lon="-1.91524">
        <ele>317.05</ele>
      </trkpt>
      <trkpt lat="53.25497" lon="-1.91528">
        <ele>317.23</ele>
      </trkpt>
      <trkpt lat="53.25492" lon="-1.91531">
        <ele>317.79</ele>
      </trkpt>
      <trkpt lat="53.25487" lon="-1.91532">
        <ele>318.3</ele>
      </trkpt>
      <trkpt lat="53.25481" lon="-1.91533">
        <ele>318.94</ele>
      </trkpt>
      <trkpt lat="53.25457" lon="-1.91535">
        <ele>321.68</ele>
      </trkpt>
      <trkpt lat="53.25457" lon="-1.9154">
        <ele>322.4</ele>
      </trkpt>
      <trkpt lat="53.25452" lon="-1.9154">
        <ele>322.94</ele>
      </trkpt>
      <trkpt lat="53.25447" lon="-1.9154">
        <ele>323.48</ele>
      </trkpt>
      <trkpt lat="53.25444" lon="-1.9154">
        <ele>323.7</ele>
      </trkpt>
      <trkpt lat="53.25443" lon="-1.9154">
        <ele>323.56</ele>
      </trkpt>
      <trkpt lat="53.25439" lon="-1.9154">
        <ele>323.0</ele>
      </trkpt>
      <trkpt lat="53.25435" lon="-1.9154">
        <ele>322.44</ele>
      </trkpt>
      <trkpt lat="53.25432" lon="-1.91539">
        <ele>321.91</ele>
      </trkpt>
      <trkpt lat="53.25428" lon="-1.91539">
        <ele>321.36</ele>
      </trkpt>
      <trkpt lat="53.25426" lon="-1.91538">
        <ele>320.99</ele>
      </trkpt>
      <trkpt lat="53.25423" lon="-1.91537">
        <ele>320.5</ele>
      </trkpt>
      <trkpt lat="53.2542" lon="-1.91536">
        <ele>320.02</ele>
      </trkpt>
      <trkpt lat="53.25417" lon="-1.91533">
        <ele>319.42</ele>
      </trkpt>
      <trkpt lat="53.25412" lon="-1.91528">
        <ele>318.69</ele>
      </trkpt>
      <trkpt lat="53.25408" lon="-1.91524">
        <ele>317.65</ele>
      </trkpt>
      <trkpt lat="53.25403" lon="-1.91519">
        <ele>316.28</ele>
      </trkpt>
      <trkpt lat="53.25401" lon="-1.91517">
        <ele>315.71</ele>
      </trkpt>
      <trkpt lat="53.25398" lon="-1.91515">
        <ele>315.05</ele>
      </trkpt>
      <trkpt lat="53.25395" lon="-1.91512">
        <ele>314.16</ele>
      </trkpt>
      <trkpt lat="53.25392" lon="-1.9151">
        <ele>313.46</ele>
      </trkpt>
      <trkpt lat="53.2539" lon="-1.91509">
        <ele>313.05</ele>
      </trkpt>
      <trkpt lat="53.25388" lon="-1.91507">
        <ele>312.58</ele>
      </trkpt>
      <trkpt lat="53.25375" lon="-1.91499">
        <ele>311.82</ele>
      </trkpt>
      <trkpt lat="53.25342" lon="-1.9148">
        <ele>312.26</ele>
      </trkpt>
      <trkpt lat="53.25333" lon="-1.91475">
        <ele>313.22</ele>
      </trkpt>
      <trkpt lat="53.25319" lon="-1.9146">
        <ele>314.97</ele>
      </trkpt>
      <trkpt lat="53.25315" lon="-1.91454">
        <ele>316.47</ele>
      </trkpt>
      <trkpt lat="53.25309" lon="-1.91445">
        <ele>319.66</ele>
      </trkpt>
      <trkpt lat="53.25304" lon="-1.91435">
        <ele>319.79</ele>
      </trkpt>
      <trkpt lat="53.25303" lon="-1.91433">
        <ele>319.45</ele>
      </trkpt>
      <trkpt lat="53.25303" lon="-1.91433">
        <ele>319.45</ele>
      </trkpt>
      <trkpt lat="53.253" lon="-1.91427">
        <ele>318.39</ele>
      </trkpt>
      <trkpt lat="53.25291" lon="-1.91407">
        <ele>314.66</ele>
      </trkpt>
      <trkpt lat="53.25286" lon="-1.91397">
        <ele>312.27</ele>
      </trkpt>
      <trkpt lat="53.25262" lon="-1.91342">
        <ele>305.89</ele>
      </trkpt>
      <trkpt lat="53.25255" lon="-1.91326">
        <ele>305.79</ele>
      </trkpt>
      <trkpt lat="53.25248" lon="-1.91312">
        <ele>306.28</ele>
      </trkpt>
      <trkpt lat="53.25231" lon="-1.91279">
        <ele>310.74</ele>
      </trkpt>
      <trkpt lat="53.25212" lon="-1.91245">
        <ele>310.65</ele>
      </trkpt>
      <trkpt lat="53.25207" lon="-1.91237">
        <ele>308.25</ele>
      </trkpt>
      <trkpt lat="53.25202" lon="-1.9123">
        <ele>304.7</ele>
      </trkpt>
      <trkpt lat="53.25193" lon="-1.91217">
        <ele>297.75</ele>
      </trkpt>
      <trkpt lat="53.25188" lon="-1.9121">
        <ele>297.23</ele>
      </trkpt>
      <trkpt lat="53.25184" lon="-1.91205">
        <ele>296.77</ele>
      </trkpt>
      <trkpt lat="53.25178" lon="-1.91196">
        <ele>295.91</ele>
      </trkpt>
      <trkpt lat="53.25174" lon="-1.91192">
        <ele>296.23</ele>
      </trkpt>
      <trkpt lat="53.25164" lon="-1.91182">
        <ele>300.25</ele>
      </trkpt>
      <trkpt lat="53.25155" lon="-1.91173">
        <ele>305.39</ele>
      </trkpt>
      <trkpt lat="53.25146" lon="-1.91165">
        <ele>307.54</ele>
      </trkpt>
      <trkpt lat="53.25135" lon="-1.91157">
        <ele>308.84</ele>
      </trkpt>
      <trkpt lat="53.25124" lon="-1.91149">
        <ele>310.16</ele>
      </trkpt>
      <trkpt lat="53.25111" lon="-1.91142">
        <ele>311.57</ele>
      </trkpt>
      <trkpt lat="53.25095" lon="-1.91134">
        <ele>312.11</ele>
      </trkpt>
      <trkpt lat="53.25087" lon="-1.91131">
        <ele>312.51</ele>
      </trkpt>
      <trkpt lat="53.25078" lon="-1.91127">
        <ele>315.17</ele>
      </trkpt>
      <trkpt lat="53.2506" lon="-1.91121">
        <ele>324.02</ele>
      </trkpt>
      <trkpt lat="53.25036" lon="-1.91113">
        <ele>323.02</ele>
      </trkpt>
      <trkpt lat="53.25005" lon="-1.91102">
        <ele>321.9</ele>
      </trkpt>
      <trkpt lat="53.24997" lon="-1.91099">
        <ele>321.44</ele>
      </trkpt>
      <trkpt lat="53.24978" lon="-1.91093">
        <ele>318.7</ele>
      </trkpt>
      <trkpt lat="53.24965" lon="-1.91088">
        <ele>316.62</ele>
      </trkpt>
      <trkpt lat="53.24951" lon="-1.91081">
        <ele>314.71</ele>
      </trkpt>
      <trkpt lat="53.24944" lon="-1.91096">
        <ele>316.45</ele>
      </trkpt>
      <trkpt lat="53.24916" lon="-1.91134">
        <ele>322.2</ele>
      </trkpt>
      <trkpt lat="53.24908" lon="-1.91143">
        <ele>324.3</ele>
      </trkpt>
      <trkpt lat="53.24896" lon="-1.91154">
        <ele>327.0</ele>
      </trkpt>
      <trkpt lat="53.24894" lon="-1.91168">
        <ele>326.58</ele>
      </trkpt>
      <trkpt lat="53.24884" lon="-1.91194">
        <ele>326.29</ele>
      </trkpt>
      <trkpt lat="53.24877" lon="-1.91219">
        <ele>326.23</ele>
      </trkpt>
      <trkpt lat="53.24874" lon="-1.91231">
        <ele>325.93</ele>
      </trkpt>
      <trkpt lat="53.24872" lon="-1.91245">
        <ele>324.94</ele>
      </trkpt>
      <trkpt lat="53.24871" lon="-1.91255">
        <ele>324.0</ele>
      </trkpt>
      <trkpt lat="53.24871" lon="-1.91292">
        <ele>319.49</ele>
      </trkpt>
      <trkpt lat="53.24871" lon="-1.91309">
        <ele>317.54</ele>
      </trkpt>
      <trkpt lat="53.2487" lon="-1.91333">
        <ele>316.34</ele>
      </trkpt>
      <trkpt lat="53.2487" lon="-1.91333">
        <ele>316.34</ele>
      </trkpt>
      <trkpt lat="53.24869" lon="-1.91341">
        <ele>316.16</ele>
      </trkpt>
      <trkpt lat="53.24869" lon="-1.91355">
        <ele>315.95</ele>
      </trkpt>
      <trkpt lat="53.2487" lon="-1.91382">
        <ele>316.44</ele>
      </trkpt>
      <trkpt lat="53.24869" lon="-1.91397">
        <ele>317.46</ele>
      </trkpt>
      <trkpt lat="53.24853" lon="-1.91531">
        <ele>325.08</ele>
      </trkpt>
      <trkpt lat="53.24853" lon="-1.91539">
        <ele>323.92</ele>
      </trkpt>
      <trkpt lat="53.24852" lon="-1.91562">
        <ele>320.51</ele>
      </trkpt>
      <trkpt lat="53.24854" lon="-1.9157">
        <ele>319.77</ele>
      </trkpt>
      <trkpt lat="53.24856" lon="-1.91581">
        <ele>318.58</ele>
      </trkpt>
      <trkpt lat="53.24861" lon="-1.91605">
        <ele>315.87</ele>
      </trkpt>
      <trkpt lat="53.24806" lon="-1.91638">
        <ele>316.89</ele>
      </trkpt>
      <trkpt lat="53.24803" lon="-1.91641">
        <ele>318.75</ele>
      </trkpt>
      <trkpt lat="53.24798" lon="-1.91645">
        <ele>321.82</ele>
      </trkpt>
      <trkpt lat="53.24796" lon="-1.91649">
        <ele>323.38</ele>
      </trkpt>
      <trkpt lat="53.24794" lon="-1.91654">
        <ele>324.95</ele>
      </trkpt>
      <trkpt lat="53.24794" lon="-1.91659">
        <ele>325.79</ele>
      </trkpt>
      <trkpt lat="53.24794" lon="-1.91663">
        <ele>326.46</ele>
      </trkpt>
      <trkpt lat="53.24794" lon="-1.91668">
        <ele>326.95</ele>
      </trkpt>
      <trkpt lat="53.24795" lon="-1.91678">
        <ele>325.73</ele>
      </trkpt>
      <trkpt lat="53.24796" lon="-1.91682">
        <ele>325.08</ele>
      </trkpt>
      <trkpt lat="53.24795" lon="-1.91686">
        <ele>324.91</ele>
      </trkpt>
      <trkpt lat="53.24793" lon="-1.91694">
        <ele>324.66</ele>
      </trkpt>
      <trkpt lat="53.24777" lon="-1.91729">
        <ele>327.88</ele>
      </trkpt>
      <trkpt lat="53.2476" lon="-1.91765">
        <ele>339.43</ele>
      </trkpt>
      <trkpt lat="53.2476" lon="-1.91764">
        <ele>339.33</ele>
      </trkpt>
      <trkpt lat="53.24751" lon="-1.91781">
        <ele>344.81</ele>
      </trkpt>
      <trkpt lat="53.24749" lon="-1.91783">
        <ele>345.63</ele>
      </trkpt>
      <trkpt lat="53.24747" lon="-1.91784">
        <ele>346.2</ele>
      </trkpt>
      <trkpt lat="53.24743" lon="-1.91785">
        <ele>347.28</ele>
      </trkpt>
      <trkpt lat="53.24732" lon="-1.91814">
        <ele>352.05</ele>
      </trkpt>
      <trkpt lat="53.24715" lon="-1.91845">
        <ele>356.89</ele>
      </trkpt>
      <trkpt lat="53.24705" lon="-1.91855">
        <ele>361.28</ele>
      </trkpt>
      <trkpt lat="53.24702" lon="-1.91858">
        <ele>362.85</ele>
      </trkpt>
      <trkpt lat="53.24684" lon="-1.91871">
        <ele>372.42</ele>
      </trkpt>
      <trkpt lat="53.24675" lon="-1.91869">
        <ele>377.41</ele>
      </trkpt>
      <trkpt lat="53.24596" lon="-1.91894">
        <ele>398.79</ele>
      </trkpt>
      <trkpt lat="53.24589" lon="-1.91902">
        <ele>399.43</ele>
      </trkpt>
      <trkpt lat="53.24585" lon="-1.91909">
        <ele>399.67</ele>
      </trkpt>
      <trkpt lat="53.24576" lon="-1.91915">
        <ele>399.37</ele>
      </trkpt>
      <trkpt lat="53.2457" lon="-1.91918">
        <ele>399.18</ele>
      </trkpt>
      <trkpt lat="53.24559" lon="-1.91917">
        <ele>398.29</ele>
      </trkpt>
      <trkpt lat="53.24541" lon="-1.9191">
        <ele>398.81</ele>
      </trkpt>
      <trkpt lat="53.24488" lon="-1.91945">
        <ele>403.11</ele>
      </trkpt>
      <trkpt lat="53.24484" lon="-1.91946">
        <ele>404.29</ele>
      </trkpt>
      <trkpt lat="53.24482" lon="-1.91948">
        <ele>405.13</ele>
      </trkpt>
      <trkpt lat="53.24478" lon="-1.91952">
        <ele>406.85</ele>
      </trkpt>
      <trkpt lat="53.24474" lon="-1.9196">
        <ele>409.32</ele>
      </trkpt>
      <trkpt lat="53.24457" lon="-1.91991">
        <ele>413.24</ele>
      </trkpt>
      <trkpt lat="53.24439" lon="-1.91997">
        <ele>414.79</ele>
      </trkpt>
      <trkpt lat="53.24432" lon="-1.92001">
        <ele>415.52</ele>
      </trkpt>
      <trkpt lat="53.24421" lon="-1.92001">
        <ele>415.89</ele>
      </trkpt>
      <trkpt lat="53.24416" lon="-1.92001">
        <ele>416.06</ele>
      </trkpt>
      <trkpt lat="53.24408" lon="-1.92007">
        <ele>416.56</ele>
      </trkpt>
      <trkpt lat="53.24376" lon="-1.92024">
        <ele>419.53</ele>
      </trkpt>
      <trkpt lat="53.24372" lon="-1.92025">
        <ele>420.15</ele>
      </trkpt>
      <trkpt lat="53.24369" lon="-1.92027">
        <ele>420.78</ele>
      </trkpt>
      <trkpt lat="53.2436" lon="-1.92029">
        <ele>422.13</ele>
      </trkpt>
      <trkpt lat="53.24345" lon="-1.92036">
        <ele>423.63</ele>
      </trkpt>
      <trkpt lat="53.24344" lon="-1.92037">
        <ele>423.77</ele>
      </trkpt>
      <trkpt lat="53.24342" lon="-1.92036">
        <ele>423.88</ele>
      </trkpt>
      <trkpt lat="53.2434" lon="-1.92032">
        <ele>423.79</ele>
      </trkpt>
      <trkpt lat="53.24337" lon="-1.92029">
        <ele>423.82</ele>
      </trkpt>
      <trkpt lat="53.24334" lon="-1.92029">
        <ele>424.04</ele>
      </trkpt>
      <trkpt lat="53.24331" lon="-1.9203">
        <ele>424.01</ele>
      </trkpt>
      <trkpt lat="53.24327" lon="-1.92032">
        <ele>423.95</ele>
      </trkpt>
      <trkpt lat="53.24315" lon="-1.92039">
        <ele>424.29</ele>
      </trkpt>
      <trkpt lat="53.24307" lon="-1.92043">
        <ele>424.76</ele>
      </trkpt>
      <trkpt lat="53.24307" lon="-1.92043">
        <ele>424.76</ele>
      </trkpt>
      <trkpt lat="53.24307" lon="-1.92043">
        <ele>424.76</ele>
      </trkpt>
      <trkpt lat="53.243" lon="-1.92047">
        <ele>426.06</ele>
      </trkpt>
      <trkpt lat="53.24285" lon="-1.92051">
        <ele>428.4</ele>
      </trkpt>
      <trkpt lat="53.24282" lon="-1.92053">
        <ele>429.08</ele>
      </trkpt>
      <trkpt lat="53.24277" lon="-1.92056">
        <ele>430.0</ele>
      </trkpt>
      <trkpt lat="53.24274" lon="-1.92057">
        <ele>429.98</ele>
      </trkpt>
      <trkpt lat="53.24274" lon="-1.92057">
        <ele>429.98</ele>
      </trkpt>
      <trkpt lat="53.24273" lon="-1.92063">
        <ele>429.86</ele>
      </trkpt>
      <trkpt lat="53.24273" lon="-1.92069">
        <ele>429.75</ele>
      </trkpt>
      <trkpt lat="53.24272" lon="-1.92075">
        <ele>429.56</ele>
      </trkpt>
      <trkpt lat="53.24271" lon="-1.92084">
        <ele>429.2</ele>
      </trkpt>
      <trkpt lat="53.24272" lon="-1.92097">
        <ele>427.98</ele>
      </trkpt>
      <trkpt lat="53.24274" lon="-1.92117">
        <ele>425.93</ele>
      </trkpt>
      <trkpt lat="53.24278" lon="-1.92178">
        <ele>419.85</ele>
      </trkpt>
      <trkpt lat="53.24282" lon="-1.92207">
        <ele>420.48</ele>
      </trkpt>
      <trkpt lat="53.24281" lon="-1.92242">
        <ele>416.71</ele>
      </trkpt>
      <trkpt lat="53.24281" lon="-1.92248">
        <ele>415.95</ele>
      </trkpt>
      <trkpt lat="53.24282" lon="-1.92283">
        <ele>414.55</ele>
      </trkpt>
      <trkpt lat="53.24282" lon="-1.92298">
        <ele>414.39</ele>
      </trkpt>
      <trkpt lat="53.24288" lon="-1.92324">
        <ele>412.74</ele>
      </trkpt>
      <trkpt lat="53.24289" lon="-1.92329">
        <ele>412.28</ele>
      </trkpt>
      <trkpt lat="53.24289" lon="-1.92329">
        <ele>412.28</ele>
      </trkpt>
      <trkpt lat="53.24294" lon="-1.92351">
        <ele>412.01</ele>
      </trkpt>
      <trkpt lat="53.24299" lon="-1.92375">
        <ele>413.2</ele>
      </trkpt>
      <trkpt lat="53.24301" lon="-1.92393">
        <ele>413.7</ele>
      </trkpt>
      <trkpt lat="53.24304" lon="-1.92421">
        <ele>412.13</ele>
      </trkpt>
      <trkpt lat="53.24302" lon="-1.9245">
        <ele>408.6</ele>
      </trkpt>
      <trkpt lat="53.24302" lon="-1.9246">
        <ele>407.93</ele>
      </trkpt>
      <trkpt lat="53.24302" lon="-1.92467">
        <ele>407.46</ele>
      </trkpt>
      <trkpt lat="53.24302" lon="-1.92471">
        <ele>407.19</ele>
      </trkpt>
      <trkpt lat="53.24302" lon="-1.92478">
        <ele>407.52</ele>
      </trkpt>
      <trkpt lat="53.24304" lon="-1.92489">
        <ele>408.82</ele>
      </trkpt>
      <trkpt lat="53.24304" lon="-1.92495">
        <ele>409.25</ele>
      </trkpt>
      <trkpt lat="53.24307" lon="-1.92516">
        <ele>411.38</ele>
      </trkpt>
      <trkpt lat="53.24308" lon="-1.92526">
        <ele>412.23</ele>
      </trkpt>
      <trkpt lat="53.2431" lon="-1.92549">
        <ele>412.0</ele>
      </trkpt>
      <trkpt lat="53.24312" lon="-1.9258">
        <ele>410.46</ele>
      </trkpt>
      <trkpt lat="53.24314" lon="-1.92597">
        <ele>410.05</ele>
      </trkpt>
      <trkpt lat="53.24316" lon="-1.92611">
        <ele>409.5</ele>
      </trkpt>
      <trkpt lat="53.24322" lon="-1.92641">
        <ele>408.71</ele>
      </trkpt>
      <trkpt lat="53.24324" lon="-1.92655">
        <ele>408.92</ele>
      </trkpt>
      <trkpt lat="53.24325" lon="-1.92678">
        <ele>408.3</ele>
      </trkpt>
      <trkpt lat="53.24328" lon="-1.92689">
        <ele>407.35</ele>
      </trkpt>
      <trkpt lat="53.24336" lon="-1.92706">
        <ele>405.8</ele>
      </trkpt>
      <trkpt lat="53.24342" lon="-1.92727">
        <ele>404.34</ele>
      </trkpt>
      <trkpt lat="53.24352" lon="-1.92769">
        <ele>404.14</ele>
      </trkpt>
      <trkpt lat="53.24352" lon="-1.92769">
        <ele>404.14</ele>
      </trkpt>
      <trkpt lat="53.24354" lon="-1.92777">
        <ele>404.48</ele>
      </trkpt>
      <trkpt lat="53.24381" lon="-1.9282">
        <ele>405.45</ele>
      </trkpt>
      <trkpt lat="53.24385" lon="-1.92832">
        <ele>404.27</ele>
      </trkpt>
      <trkpt lat="53.24386" lon="-1.92838">
        <ele>403.45</ele>
      </trkpt>
      <trkpt lat="53.24385" lon="-1.92847">
        <ele>402.24</ele>
      </trkpt>
      <trkpt lat="53.24387" lon="-1.92851">
        <ele>401.57</ele>
      </trkpt>
      <trkpt lat="53.24388" lon="-1.92871">
        <ele>398.63</ele>
      </trkpt>
      <trkpt lat="53.24391" lon="-1.92893">
        <ele>394.65</ele>
      </trkpt>
      <trkpt lat="53.244" lon="-1.92919">
        <ele>388.83</ele>
      </trkpt>
      <trkpt lat="53.24402" lon="-1.92929">
        <ele>388.07</ele>
      </trkpt>
      <trkpt lat="53.24402" lon="-1.92939">
        <ele>388.24</ele>
      </trkpt>
      <trkpt lat="53.24402" lon="-1.92948">
        <ele>388.57</ele>
      </trkpt>
      <trkpt lat="53.24403" lon="-1.92954">
        <ele>388.61</ele>
      </trkpt>
      <trkpt lat="53.24407" lon="-1.92961">
        <ele>387.91</ele>
      </trkpt>
      <trkpt lat="53.24431" lon="-1.9304">
        <ele>398.35</ele>
      </trkpt>
      <trkpt lat="53.24455" lon="-1.9312">
        <ele>399.84</ele>
      </trkpt>
      <trkpt lat="53.24478" lon="-1.93199">
        <ele>397.77</ele>
      </trkpt>
      <trkpt lat="53.24502" lon="-1.93279">
        <ele>399.73</ele>
      </trkpt>
      <trkpt lat="53.24526" lon="-1.93358">
        <ele>415.76</ele>
      </trkpt>
      <trkpt lat="53.24549" lon="-1.93432">
        <ele>421.55</ele>
      </trkpt>
      <trkpt lat="53.24572" lon="-1.93505">
        <ele>395.41</ele>
      </trkpt>
      <trkpt lat="53.24581" lon="-1.93598">
        <ele>379.31</ele>
      </trkpt>
      <trkpt lat="53.24611" lon="-1.93669">
        <ele>360.45</ele>
      </trkpt>
      <trkpt lat="53.2464" lon="-1.9374">
        <ele>367.66</ele>
      </trkpt>
      <trkpt lat="53.2467" lon="-1.93811">
        <ele>364.87</ele>
      </trkpt>
      <trkpt lat="53.24669" lon="-1.93824">
        <ele>365.13</ele>
      </trkpt>
      <trkpt lat="53.24681" lon="-1.93825">
        <ele>360.63</ele>
      </trkpt>
      <trkpt lat="53.24691" lon="-1.93829">
        <ele>356.64</ele>
      </trkpt>
      <trkpt lat="53.24697" lon="-1.93833">
        <ele>354.38</ele>
      </trkpt>
      <trkpt lat="53.24704" lon="-1.9384">
        <ele>353.18</ele>
      </trkpt>
      <trkpt lat="53.24709" lon="-1.93843">
        <ele>352.81</ele>
      </trkpt>
      <trkpt lat="53.24713" lon="-1.93848">
        <ele>353.32</ele>
      </trkpt>
      <trkpt lat="53.24718" lon="-1.93849">
        <ele>353.28</ele>
      </trkpt>
      <trkpt lat="53.24727" lon="-1.93853">
        <ele>354.31</ele>
      </trkpt>
      <trkpt lat="53.24732" lon="-1.93857">
        <ele>355.08</ele>
      </trkpt>
      <trkpt lat="53.24736" lon="-1.93857">
        <ele>354.84</ele>
      </trkpt>
      <trkpt lat="53.2474" lon="-1.93857">
        <ele>354.6</ele>
      </trkpt>
      <trkpt lat="53.24752" lon="-1.93854">
        <ele>354.13</ele>
      </trkpt>
      <trkpt lat="53.24752" lon="-1.93867">
        <ele>354.95</ele>
      </trkpt>
      <trkpt lat="53.24755" lon="-1.93906">
        <ele>357.82</ele>
      </trkpt>
      <trkpt lat="53.24755" lon="-1.93906">
        <ele>357.82</ele>
      </trkpt>
      <trkpt lat="53.24755" lon="-1.93906">
        <ele>357.82</ele>
      </trkpt>
      <trkpt lat="53.24761" lon="-1.93905">
        <ele>357.6</ele>
      </trkpt>
      <trkpt lat="53.24767" lon="-1.93904">
        <ele>357.39</ele>
      </trkpt>
      <trkpt lat="53.24775" lon="-1.93903">
        <ele>357.1</ele>
      </trkpt>
      <trkpt lat="53.24789" lon="-1.93903">
        <ele>356.19</ele>
      </trkpt>
      <trkpt lat="53.24801" lon="-1.93903">
        <ele>355.33</ele>
      </trkpt>
      <trkpt lat="53.24855" lon="-1.93907">
        <ele>360.92</ele>
      </trkpt>
      <trkpt lat="53.24878" lon="-1.93905">
        <ele>362.14</ele>
      </trkpt>
      <trkpt lat="53.24926" lon="-1.93893">
        <ele>370.04</ele>
      </trkpt>
      <trkpt lat="53.24937" lon="-1.9389">
        <ele>369.06</ele>
      </trkpt>
      <trkpt lat="53.24964" lon="-1.93881">
        <ele>363.61</ele>
      </trkpt>
      <trkpt lat="53.24964" lon="-1.93881">
        <ele>363.61</ele>
      </trkpt>
      <trkpt lat="53.24966" lon="-1.9388">
        <ele>363.1</ele>
      </trkpt>
      <trkpt lat="53.25001" lon="-1.93862">
        <ele>355.4</ele>
      </trkpt>
      <trkpt lat="53.25039" lon="-1.93834">
        <ele>352.21</ele>
      </trkpt>
      <trkpt lat="53.25061" lon="-1.9381">
        <ele>358.71</ele>
      </trkpt>
      <trkpt lat="53.2508" lon="-1.93787">
        <ele>363.78</ele>
      </trkpt>
      <trkpt lat="53.25119" lon="-1.93735">
        <ele>360.25</ele>
      </trkpt>
      <trkpt lat="53.25146" lon="-1.93699">
        <ele>354.32</ele>
      </trkpt>
      <trkpt lat="53.2519" lon="-1.93643">
        <ele>359.07</ele>
      </trkpt>
      <trkpt lat="53.25208" lon="-1.93622">
        <ele>356.93</ele>
      </trkpt>
      <trkpt lat="53.25219" lon="-1.93608">
        <ele>354.2</ele>
      </trkpt>
      <trkpt lat="53.2524" lon="-1.93582">
        <ele>343.28</ele>
      </trkpt>
      <trkpt lat="53.25267" lon="-1.93549">
        <ele>348.57</ele>
      </trkpt>
      <trkpt lat="53.2528" lon="-1.93531">
        <ele>351.19</ele>
      </trkpt>
      <trkpt lat="53.25299" lon="-1.93506">
        <ele>351.63</ele>
      </trkpt>
      <trkpt lat="53.25333" lon="-1.93459">
        <ele>340.67</ele>
      </trkpt>
      <trkpt lat="53.25338" lon="-1.93453">
        <ele>338.36</ele>
      </trkpt>
      <trkpt lat="53.25375" lon="-1.93402">
        <ele>327.32</ele>
      </trkpt>
      <trkpt lat="53.25399" lon="-1.93369">
        <ele>334.76</ele>
      </trkpt>
      <trkpt lat="53.25399" lon="-1.93369">
        <ele>334.76</ele>
      </trkpt>
      <trkpt lat="53.25441" lon="-1.93313">
        <ele>343.91</ele>
      </trkpt>
      <trkpt lat="53.25466" lon="-1.93279">
        <ele>340.58</ele>
      </trkpt>
      <trkpt lat="53.2548" lon="-1.93254">
        <ele>338.22</ele>
      </trkpt>
      <trkpt lat="53.25503" lon="-1.93201">
        <ele>333.19</ele>
      </trkpt>
      <trkpt lat="53.2554" lon="-1.93089">
        <ele>317.6</ele>
      </trkpt>
      <trkpt lat="53.25552" lon="-1.93053">
        <ele>311.56</ele>
      </trkpt>
      <trkpt lat="53.25607" lon="-1.92886">
        <ele>315.18</ele>
      </trkpt>
      <trkpt lat="53.25612" lon="-1.92886">
        <ele>314.08</ele>
      </trkpt>
      <trkpt lat="53.25616" lon="-1.92886">
        <ele>313.49</ele>
      </trkpt>
      <trkpt lat="53.25619" lon="-1.92887">
        <ele>312.98</ele>
      </trkpt>
      <trkpt lat="53.25622" lon="-1.92887">
        <ele>312.54</ele>
      </trkpt>
      <trkpt lat="53.25626" lon="-1.92887">
        <ele>311.96</ele>
      </trkpt>
      <trkpt lat="53.25632" lon="-1.92887">
        <ele>311.08</ele>
      </trkpt>
      <trkpt lat="53.25635" lon="-1.92887">
        <ele>310.64</ele>
      </trkpt>
      <trkpt lat="53.2564" lon="-1.92889">
        <ele>310.09</ele>
      </trkpt>
      <trkpt lat="53.25643" lon="-1.9289">
        <ele>310.4</ele>
      </trkpt>
      <trkpt lat="53.25657" lon="-1.92897">
        <ele>311.61</ele>
      </trkpt>
      <trkpt lat="53.25664" lon="-1.929">
        <ele>311.92</ele>
      </trkpt>
      <trkpt lat="53.25668" lon="-1.92902">
        <ele>312.05</ele>
      </trkpt>
      <trkpt lat="53.25673" lon="-1.92904">
        <ele>312.23</ele>
      </trkpt>
      <trkpt lat="53.25678" lon="-1.92905">
        <ele>312.41</ele>
      </trkpt>
      <trkpt lat="53.25687" lon="-1.92904">
        <ele>312.73</ele>
      </trkpt>
      <trkpt lat="53.25692" lon="-1.92904">
        <ele>312.91</ele>
      </trkpt>
      <trkpt lat="53.25698" lon="-1.92906">
        <ele>312.65</ele>
      </trkpt>
      <trkpt lat="53.25702" lon="-1.92906">
        <ele>312.25</ele>
      </trkpt>
      <trkpt lat="53.25708" lon="-1.92908">
        <ele>311.72</ele>
      </trkpt>
      <trkpt lat="53.25711" lon="-1.92909">
        <ele>311.48</ele>
      </trkpt>
      <trkpt lat="53.25711" lon="-1.92909">
        <ele>311.48</ele>
      </trkpt>
      <trkpt lat="53.25713" lon="-1.9291">
        <ele>311.34</ele>
      </trkpt>
      <trkpt lat="53.25717" lon="-1.92911">
        <ele>311.04</ele>
      </trkpt>
      <trkpt lat="53.2572" lon="-1.92913">
        <ele>310.92</ele>
      </trkpt>
      <trkpt lat="53.25722" lon="-1.92915">
        <ele>310.9</ele>
      </trkpt>
      <trkpt lat="53.25725" lon="-1.92914">
        <ele>311.3</ele>
      </trkpt>
      <trkpt lat="53.25738" lon="-1.92917">
        <ele>313.89</ele>
      </trkpt>
      <trkpt lat="53.25749" lon="-1.92923">
        <ele>316.74</ele>
      </trkpt>
      <trkpt lat="53.25764" lon="-1.9292">
        <ele>311.26</ele>
      </trkpt>
      <trkpt lat="53.2578" lon="-1.92926">
        <ele>306.07</ele>
      </trkpt>
      <trkpt lat="53.25796" lon="-1.92932">
        <ele>304.22</ele>
      </trkpt>
      <trkpt lat="53.25811" lon="-1.92937">
        <ele>303.11</ele>
      </trkpt>
      <trkpt lat="53.25825" lon="-1.92944">
        <ele>303.02</ele>
      </trkpt>
      <trkpt lat="53.25837" lon="-1.92951">
        <ele>303.64</ele>
      </trkpt>
      <trkpt lat="53.25852" lon="-1.92955">
        <ele>305.05</ele>
      </trkpt>
      <trkpt lat="53.25863" lon="-1.92957">
        <ele>306.19</ele>
      </trkpt>
      <trkpt lat="53.2588" lon="-1.92958">
        <ele>311.23</ele>
      </trkpt>
      <trkpt lat="53.25898" lon="-1.92958">
        <ele>315.58</ele>
      </trkpt>
      <trkpt lat="53.25924" lon="-1.92955">
        <ele>316.89</ele>
      </trkpt>
      <trkpt lat="53.25951" lon="-1.9295">
        <ele>311.0</ele>
      </trkpt>
      <trkpt lat="53.2596" lon="-1.92953">
        <ele>311.0</ele>
      </trkpt>
      <trkpt lat="53.25967" lon="-1.92954">
        <ele>311.0</ele>
      </trkpt>
      <trkpt lat="53.25984" lon="-1.92957">
        <ele>309.03</ele>
      </trkpt>
      <trkpt lat="53.25991" lon="-1.92956">
        <ele>307.79</ele>
      </trkpt>
      <trkpt lat="53.25998" lon="-1.92956">
        <ele>306.59</ele>
      </trkpt>
      <trkpt lat="53.26" lon="-1.92956">
        <ele>306.25</ele>
      </trkpt>
      <trkpt lat="53.26" lon="-1.92956">
        <ele>306.25</ele>
      </trkpt>
      <trkpt lat="53.26006" lon="-1.92955">
        <ele>306.46</ele>
      </trkpt>
      <trkpt lat="53.26013" lon="-1.92952">
        <ele>306.71</ele>
      </trkpt>
      <trkpt lat="53.26026" lon="-1.92948">
        <ele>307.71</ele>
      </trkpt>
      <trkpt lat="53.26037" lon="-1.92942">
        <ele>307.73</ele>
      </trkpt>
      <trkpt lat="53.26045" lon="-1.92938">
        <ele>307.9</ele>
      </trkpt>
      <trkpt lat="53.26062" lon="-1.92928">
        <ele>313.49</ele>
      </trkpt>
      <trkpt lat="53.2607" lon="-1.92925">
        <ele>318.42</ele>
      </trkpt>
      <trkpt lat="53.26075" lon="-1.92922">
        <ele>321.62</ele>
      </trkpt>
      <trkpt lat="53.26085" lon="-1.92919">
        <ele>326.97</ele>
      </trkpt>
      <trkpt lat="53.2611" lon="-1.92904">
        <ele>332.63</ele>
      </trkpt>
      <trkpt lat="53.26111" lon="-1.92904">
        <ele>332.8</ele>
      </trkpt>
      <trkpt lat="53.26155" lon="-1.92887">
        <ele>331.87</ele>
      </trkpt>
      <trkpt lat="53.26174" lon="-1.9288">
        <ele>330.97</ele>
      </trkpt>
      <trkpt lat="53.26209" lon="-1.92866">
        <ele>330.91</ele>
      </trkpt>
      <trkpt lat="53.26241" lon="-1.92856">
        <ele>338.71</ele>
      </trkpt>
      <trkpt lat="53.26275" lon="-1.92844">
        <ele>345.5</ele>
      </trkpt>
      <trkpt lat="53.26279" lon="-1.92842">
        <ele>345.99</ele>
      </trkpt>
      <trkpt lat="53.26279" lon="-1.92842">
        <ele>345.99</ele>
      </trkpt>
      <trkpt lat="53.2628" lon="-1.92842">
        <ele>345.98</ele>
      </trkpt>
      <trkpt lat="53.26283" lon="-1.92838">
        <ele>345.97</ele>
      </trkpt>
      <trkpt lat="53.26288" lon="-1.92829">
        <ele>345.02</ele>
      </trkpt>
      <trkpt lat="53.26294" lon="-1.92821">
        <ele>343.41</ele>
      </trkpt>
      <trkpt lat="53.26291" lon="-1.92816">
        <ele>342.23</ele>
      </trkpt>
      <trkpt lat="53.26278" lon="-1.92788">
        <ele>337.15</ele>
      </trkpt>
      <trkpt lat="53.26267" lon="-1.92761">
        <ele>338.04</ele>
      </trkpt>
      <trkpt lat="53.26257" lon="-1.92733">
        <ele>340.09</ele>
      </trkpt>
      <trkpt lat="53.26247" lon="-1.92701">
        <ele>344.3</ele>
      </trkpt>
      <trkpt lat="53.26241" lon="-1.92678">
        <ele>347.49</ele>
      </trkpt>
      <trkpt lat="53.26235" lon="-1.92657">
        <ele>346.13</ele>
      </trkpt>
      <trkpt lat="53.26227" lon="-1.92624">
        <ele>342.46</ele>
      </trkpt>
      <trkpt lat="53.26219" lon="-1.92587">
        <ele>344.25</ele>
      </trkpt>
      <trkpt lat="53.26216" lon="-1.92574">
        <ele>345.86</ele>
      </trkpt>
      <trkpt lat="53.26214" lon="-1.92555">
        <ele>347.19</ele>
      </trkpt>
      <trkpt lat="53.26211" lon="-1.92537">
        <ele>349.46</ele>
      </trkpt>
      <trkpt lat="53.2621" lon="-1.9252">
        <ele>351.92</ele>
      </trkpt>
      <trkpt lat="53.26207" lon="-1.9249">
        <ele>356.11</ele>
      </trkpt>
      <trkpt lat="53.26205" lon="-1.92443">
        <ele>359.38</ele>
      </trkpt>
      <trkpt lat="53.262" lon="-1.92374">
        <ele>353.54</ele>
      </trkpt>
      <trkpt lat="53.26195" lon="-1.92306">
        <ele>351.12</ele>
      </trkpt>
      <trkpt lat="53.26195" lon="-1.92299">
        <ele>352.31</ele>
      </trkpt>
      <trkpt lat="53.26192" lon="-1.92269">
        <ele>355.18</ele>
      </trkpt>
      <trkpt lat="53.26192" lon="-1.92269">
        <ele>355.18</ele>
      </trkpt>
      <trkpt lat="53.2619" lon="-1.92242">
        <ele>354.31</ele>
      </trkpt>
      <trkpt lat="53.26184" lon="-1.92155">
        <ele>347.33</ele>
      </trkpt>
      <trkpt lat="53.26181" lon="-1.92125">
        <ele>343.72</ele>
      </trkpt>
      <trkpt lat="53.2618" lon="-1.92098">
        <ele>338.37</ele>
      </trkpt>
      <trkpt lat="53.26179" lon="-1.92083">
        <ele>334.63</ele>
      </trkpt>
      <trkpt lat="53.26179" lon="-1.92071">
        <ele>333.62</ele>
      </trkpt>
      <trkpt lat="53.26178" lon="-1.92063">
        <ele>332.49</ele>
      </trkpt>
      <trkpt lat="53.26178" lon="-1.92053">
        <ele>332.08</ele>
      </trkpt>
      <trkpt lat="53.26178" lon="-1.9204">
        <ele>332.99</ele>
      </trkpt>
      <trkpt lat="53.26178" lon="-1.92035">
        <ele>333.35</ele>
      </trkpt>
      <trkpt lat="53.26178" lon="-1.92021">
        <ele>334.43</ele>
      </trkpt>
      <trkpt lat="53.26178" lon="-1.92015">
        <ele>334.95</ele>
      </trkpt>
      <trkpt lat="53.26177" lon="-1.92008">
        <ele>335.39</ele>
      </trkpt>
      <trkpt lat="53.26176" lon="-1.92001">
        <ele>335.91</ele>
      </trkpt>
      <trkpt lat="53.26175" lon="-1.91996">
        <ele>336.33</ele>
      </trkpt>
      <trkpt lat="53.26172" lon="-1.91986">
        <ele>337.09</ele>
      </trkpt>
      <trkpt lat="53.2617" lon="-1.91977">
        <ele>337.84</ele>
      </trkpt>
      <trkpt lat="53.26167" lon="-1.91971">
        <ele>338.04</ele>
      </trkpt>
      <trkpt lat="53.26171" lon="-1.91959">
        <ele>338.47</ele>
      </trkpt>
      <trkpt lat="53.26178" lon="-1.91958">
        <ele>339.22</ele>
      </trkpt>
      <trkpt lat="53.26179" lon="-1.91967">
        <ele>339.33</ele>
      </trkpt>
      <trkpt lat="53.26192" lon="-1.91961">
        <ele>340.74</ele>
      </trkpt>
      <trkpt lat="53.26207" lon="-1.91958">
        <ele>344.61</ele>
      </trkpt>
      <trkpt lat="53.26215" lon="-1.91955">
        <ele>346.74</ele>
      </trkpt>
      <trkpt lat="53.26219" lon="-1.91953">
        <ele>347.73</ele>
      </trkpt>
      <trkpt lat="53.2623" lon="-1.91947">
        <ele>349.28</ele>
      </trkpt>
      <trkpt lat="53.26242" lon="-1.91938">
        <ele>350.95</ele>
      </trkpt>
      <trkpt lat="53.26266" lon="-1.91917">
        <ele>352.46</ele>
      </trkpt>
      <trkpt lat="53.26272" lon="-1.9191">
        <ele>351.88</ele>
      </trkpt>
      <trkpt lat="53.26343" lon="-1.91826">
        <ele>352.59</ele>
      </trkpt>
      <trkpt lat="53.26348" lon="-1.91828">
        <ele>352.8</ele>
      </trkpt>
      <trkpt lat="53.26352" lon="-1.91828">
        <ele>352.68</ele>
      </trkpt>
      <trkpt lat="53.26356" lon="-1.9183">
        <ele>352.55</ele>
      </trkpt>
      <trkpt lat="53.26361" lon="-1.91832">
        <ele>352.11</ele>
      </trkpt>
      <trkpt lat="53.26364" lon="-1.91833">
        <ele>352.54</ele>
      </trkpt>
      <trkpt lat="53.26367" lon="-1.91836">
        <ele>353.79</ele>
      </trkpt>
      <trkpt lat="53.26369" lon="-1.91839">
        <ele>354.94</ele>
      </trkpt>
      <trkpt lat="53.26373" lon="-1.91845">
        <ele>357.14</ele>
      </trkpt>
      <trkpt lat="53.26376" lon="-1.91852">
        <ele>359.34</ele>
      </trkpt>
      <trkpt lat="53.26379" lon="-1.91861">
        <ele>361.91</ele>
      </trkpt>
      <trkpt lat="53.26386" lon="-1.91866">
        <ele>362.69</ele>
      </trkpt>
      <trkpt lat="53.26391" lon="-1.91868">
        <ele>363.09</ele>
      </trkpt>
      <trkpt lat="53.26394" lon="-1.91871">
        <ele>363.33</ele>
      </trkpt>
      <trkpt lat="53.26394" lon="-1.91871">
        <ele>363.33</ele>
      </trkpt>
      <trkpt lat="53.26394" lon="-1.91871">
        <ele>363.33</ele>
      </trkpt>
      <trkpt lat="53.264" lon="-1.91878">
        <ele>364.22</ele>
      </trkpt>
      <trkpt lat="53.26404" lon="-1.91889">
        <ele>365.73</ele>
      </trkpt>
      <trkpt lat="53.26411" lon="-1.919">
        <ele>367.71</ele>
      </trkpt>
      <trkpt lat="53.26418" lon="-1.9191">
        <ele>368.81</ele>
      </trkpt>
      <trkpt lat="53.26426" lon="-1.91925">
        <ele>370.37</ele>
      </trkpt>
      <trkpt lat="53.26427" lon="-1.91931">
        <ele>370.91</ele>
      </trkpt>
      <trkpt lat="53.26427" lon="-1.91938">
        <ele>371.48</ele>
      </trkpt>
      <trkpt lat="53.26425" lon="-1.9195">
        <ele>373.64</ele>
      </trkpt>
      <trkpt lat="53.26425" lon="-1.9196">
        <ele>376.59</ele>
      </trkpt>
      <trkpt lat="53.26425" lon="-1.91973">
        <ele>380.33</ele>
      </trkpt>
      <trkpt lat="53.26423" lon="-1.91982">
        <ele>381.45</ele>
      </trkpt>
      <trkpt lat="53.26421" lon="-1.9199">
        <ele>382.14</ele>
      </trkpt>
      <trkpt lat="53.26416" lon="-1.91998">
        <ele>381.78</ele>
      </trkpt>
      <trkpt lat="53.26407" lon="-1.9201">
        <ele>384.05</ele>
      </trkpt>
      <trkpt lat="53.26401" lon="-1.92014">
        <ele>385.09</ele>
      </trkpt>
      <trkpt lat="53.26389" lon="-1.92021">
        <ele>387.29</ele>
      </trkpt>
      <trkpt lat="53.26382" lon="-1.92028">
        <ele>385.27</ele>
      </trkpt>
      <trkpt lat="53.26377" lon="-1.92039">
        <ele>382.58</ele>
      </trkpt>
      <trkpt lat="53.26376" lon="-1.92046">
        <ele>382.2</ele>
      </trkpt>
      <trkpt lat="53.26376" lon="-1.92061">
        <ele>383.42</ele>
      </trkpt>
      <trkpt lat="53.26374" lon="-1.92075">
        <ele>386.06</ele>
      </trkpt>
      <trkpt lat="53.2637" lon="-1.92086">
        <ele>387.23</ele>
      </trkpt>
      <trkpt lat="53.2637" lon="-1.92086">
        <ele>387.23</ele>
      </trkpt>
      <trkpt lat="53.2637" lon="-1.92087">
        <ele>387.07</ele>
      </trkpt>
      <trkpt lat="53.26361" lon="-1.92099">
        <ele>384.68</ele>
      </trkpt>
      <trkpt lat="53.26351" lon="-1.92105">
        <ele>378.92</ele>
      </trkpt>
      <trkpt lat="53.26345" lon="-1.9211">
        <ele>376.5</ele>
      </trkpt>
      <trkpt lat="53.26343" lon="-1.92115">
        <ele>376.61</ele>
      </trkpt>
      <trkpt lat="53.26343" lon="-1.92124">
        <ele>378.43</ele>
      </trkpt>
      <trkpt lat="53.2635" lon="-1.92144">
        <ele>383.49</ele>
      </trkpt>
      <trkpt lat="53.2635" lon="-1.92149">
        <ele>383.78</ele>
      </trkpt>
      <trkpt lat="53.26349" lon="-1.92159">
        <ele>384.08</ele>
      </trkpt>
      <trkpt lat="53.26349" lon="-1.92174">
        <ele>384.81</ele>
      </trkpt>
      <trkpt lat="53.26349" lon="-1.92176">
        <ele>384.89</ele>
      </trkpt>
      <trkpt lat="53.26347" lon="-1.92188">
        <ele>384.69</ele>
      </trkpt>
      <trkpt lat="53.26345" lon="-1.92207">
        <ele>383.94</ele>
      </trkpt>
      <trkpt lat="53.26346" lon="-1.92229">
        <ele>384.15</ele>
      </trkpt>
      <trkpt lat="53.26349" lon="-1.9224">
        <ele>385.48</ele>
      </trkpt>
      <trkpt lat="53.26358" lon="-1.92252">
        <ele>389.42</ele>
      </trkpt>
      <trkpt lat="53.26374" lon="-1.9226">
        <ele>395.29</ele>
      </trkpt>
      <trkpt lat="53.26398" lon="-1.92273">
        <ele>406.85</ele>
      </trkpt>
      <trkpt lat="53.26422" lon="-1.92283">
        <ele>424.44</ele>
      </trkpt>
      <trkpt lat="53.26426" lon="-1.92286">
        <ele>424.99</ele>
      </trkpt>
      <trkpt lat="53.26426" lon="-1.92286">
        <ele>424.99</ele>
      </trkpt>
      <trkpt lat="53.26437" lon="-1.92293">
        <ele>427.36</ele>
      </trkpt>
      <trkpt lat="53.26455" lon="-1.92305">
        <ele>431.89</ele>
      </trkpt>
      <trkpt lat="53.26469" lon="-1.92312">
        <ele>432.0</ele>
      </trkpt>
      <trkpt lat="53.26483" lon="-1.92321">
        <ele>430.02</ele>
      </trkpt>
      <trkpt lat="53.26516" lon="-1.92345">
        <ele>429.13</ele>
      </trkpt>
      <trkpt lat="53.26529" lon="-1.92359">
        <ele>430.4</ele>
      </trkpt>
      <trkpt lat="53.26529" lon="-1.92359">
        <ele>430.4</ele>
      </trkpt>
      <trkpt lat="53.26529" lon="-1.92359">
        <ele>430.4</ele>
      </trkpt>
      <trkpt lat="53.26533" lon="-1.92363">
        <ele>430.52</ele>
      </trkpt>
      <trkpt lat="53.26544" lon="-1.92377">
        <ele>429.95</ele>
      </trkpt>
      <trkpt lat="53.26553" lon="-1.92388">
        <ele>428.97</ele>
      </trkpt>
      <trkpt lat="53.2656" lon="-1.92394">
        <ele>428.51</ele>
      </trkpt>
      <trkpt lat="53.26572" lon="-1.92399">
        <ele>428.34</ele>
      </trkpt>
      <trkpt lat="53.2658" lon="-1.92402">
        <ele>428.41</ele>
      </trkpt>
      <trkpt lat="53.26582" lon="-1.92386">
        <ele>429.32</ele>
      </trkpt>
      <trkpt lat="53.26587" lon="-1.92346">
        <ele>433.02</ele>
      </trkpt>
      <trkpt lat="53.26611" lon="-1.92298">
        <ele>432.27</ele>
      </trkpt>
      <trkpt lat="53.26625" lon="-1.92269">
        <ele>428.39</ele>
      </trkpt>
      <trkpt lat="53.26629" lon="-1.92261">
        <ele>426.64</ele>
      </trkpt>
      <trkpt lat="53.26628" lon="-1.92258">
        <ele>426.48</ele>
      </trkpt>
      <trkpt lat="53.26628" lon="-1.92258">
        <ele>426.48</ele>
      </trkpt>
      <trkpt lat="53.26671" lon="-1.92223">
        <ele>419.19</ele>
      </trkpt>
      <trkpt lat="53.26714" lon="-1.92188">
        <ele>413.38</ele>
      </trkpt>
      <trkpt lat="53.26756" lon="-1.92153">
        <ele>407.58</ele>
      </trkpt>
      <trkpt lat="53.26799" lon="-1.92118">
        <ele>389.99</ele>
      </trkpt>
      <trkpt lat="53.26799" lon="-1.92118">
        <ele>389.99</ele>
      </trkpt>
      <trkpt lat="53.26778" lon="-1.92056">
        <ele>378.07</ele>
      </trkpt>
      <trkpt lat="53.26813" lon="-1.91987">
        <ele>371.47</ele>
      </trkpt>
      <trkpt lat="53.26849" lon="-1.91918">
        <ele>358.05</ele>
      </trkpt>
      <trkpt lat="53.26884" lon="-1.91849">
        <ele>335.65</ele>
      </trkpt>
      <trkpt lat="53.26887" lon="-1.91841">
        <ele>335.15</ele>
      </trkpt>
      <trkpt lat="53.26859" lon="-1.91815">
        <ele>330.32</ele>
      </trkpt>
      <trkpt lat="53.26806" lon="-1.91724">
        <ele>319.13</ele>
      </trkpt>
      <trkpt lat="53.26757" lon="-1.91641">
        <ele>317.7</ele>
      </trkpt>
      <trkpt lat="53.26703" lon="-1.91563">
        <ele>309.56</ele>
      </trkpt>
      <trkpt lat="53.26692" lon="-1.91551">
        <ele>307.68</ele>
      </trkpt>
      <trkpt lat="53.26695" lon="-1.91545">
        <ele>307.72</ele>
      </trkpt>
      <trkpt lat="53.26685" lon="-1.91534">
        <ele>305.56</ele>
      </trkpt>
      <trkpt lat="53.26685" lon="-1.91534">
        <ele>305.56</ele>
      </trkpt>
      <trkpt lat="53.26671" lon="-1.91517">
        <ele>301.55</ele>
      </trkpt>
      <trkpt lat="53.26655" lon="-1.915">
        <ele>304.2</ele>
      </trkpt>
      <trkpt lat="53.26637" lon="-1.9148">
        <ele>311.19</ele>
      </trkpt>
      <trkpt lat="53.26625" lon="-1.91467">
        <ele>317.12</ele>
      </trkpt>
      <trkpt lat="53.26622" lon="-1.91473">
        <ele>319.27</ele>
      </trkpt>
      <trkpt lat="53.26602" lon="-1.91453">
        <ele>322.98</ele>
      </trkpt>
      <trkpt lat="53.26574" lon="-1.9142">
        <ele>314.79</ele>
      </trkpt>
      <trkpt lat="53.26555" lon="-1.91395">
        <ele>304.34</ele>
      </trkpt>
      <trkpt lat="53.26527" lon="-1.91353">
        <ele>295.67</ele>
      </trkpt>
      <trkpt lat="53.265" lon="-1.91311">
        <ele>290.59</ele>
      </trkpt>
      <trkpt lat="53.26479" lon="-1.91278">
        <ele>285.0</ele>
      </trkpt>
      <trkpt lat="53.26458" lon="-1.91248">
        <ele>287.65</ele>
      </trkpt>
      <trkpt lat="53.26448" lon="-1.91234">
        <ele>289.82</ele>
      </trkpt>
      <trkpt lat="53.26422" lon="-1.91205">
        <ele>294.59</ele>
      </trkpt>
      <trkpt lat="53.26416" lon="-1.912">
        <ele>295.43</ele>
      </trkpt>
      <trkpt lat="53.26386" lon="-1.91176">
        <ele>298.92</ele>
      </trkpt>
      <trkpt lat="53.26365" lon="-1.91158">
        <ele>309.26</ele>
      </trkpt>
      <trkpt lat="53.2635" lon="-1.91143">
        <ele>312.81</ele>
      </trkpt>
      <trkpt lat="53.26348" lon="-1.91149">
        <ele>313.42</ele>
      </trkpt>
      <trkpt lat="53.26346" lon="-1.91155">
        <ele>314.07</ele>
      </trkpt>
      <trkpt lat="53.26324" lon="-1.91229">
        <ele>316.92</ele>
      </trkpt>
      <trkpt lat="53.26317" lon="-1.91238">
        <ele>316.23</ele>
      </trkpt>
      <trkpt lat="53.2631" lon="-1.91249">
        <ele>314.72</ele>
      </trkpt>
      <trkpt lat="53.26262" lon="-1.9132">
        <ele>315.18</ele>
      </trkpt>
      <trkpt lat="53.26231" lon="-1.91273">
        <ele>315.02</ele>
      </trkpt>
      <trkpt lat="53.2621" lon="-1.91304">
        <ele>322.72</ele>
      </trkpt>
      <trkpt lat="53.26204" lon="-1.91313">
        <ele>323.14</ele>
      </trkpt>
      <trkpt lat="53.262" lon="-1.91318">
        <ele>323.06</ele>
      </trkpt>
      <trkpt lat="53.26198" lon="-1.91314">
        <ele>323.29</ele>
      </trkpt>
      <trkpt lat="53.26192" lon="-1.91323">
        <ele>323.1</ele>
      </trkpt>
      <trkpt lat="53.26189" lon="-1.91326">
        <ele>323.31</ele>
      </trkpt>
      <trkpt lat="53.26187" lon="-1.91329">
        <ele>323.38</ele>
      </trkpt>
      <trkpt lat="53.26184" lon="-1.91332">
        <ele>323.6</ele>
      </trkpt>
      <trkpt lat="53.26183" lon="-1.91334">
        <ele>323.69</ele>
      </trkpt>
      <trkpt lat="53.26181" lon="-1.91335">
        <ele>324.05</ele>
      </trkpt>
      <trkpt lat="53.26178" lon="-1.91337">
        <ele>324.68</ele>
      </trkpt>
      <trkpt lat="53.26164" lon="-1.91348">
        <ele>328.01</ele>
      </trkpt>
      <trkpt lat="53.26162" lon="-1.9135">
        <ele>328.2</ele>
      </trkpt>
      <trkpt lat="53.2616" lon="-1.91352">
        <ele>328.37</ele>
      </trkpt>
      <trkpt lat="53.2615" lon="-1.91363">
        <ele>328.69</ele>
      </trkpt>
      <trkpt lat="53.26146" lon="-1.91368">
        <ele>328.08</ele>
      </trkpt>
      <trkpt lat="53.26137" lon="-1.91379">
        <ele>326.51</ele>
      </trkpt>
      <trkpt lat="53.26137" lon="-1.91379">
        <ele>326.51</ele>
      </trkpt>
      <trkpt lat="53.26132" lon="-1.91385">
        <ele>325.39</ele>
      </trkpt>
      <trkpt lat="53.26129" lon="-1.91388">
        <ele>324.67</ele>
      </trkpt>
      <trkpt lat="53.26123" lon="-1.91396">
        <ele>323.97</ele>
      </trkpt>
      <trkpt lat="53.26106" lon="-1.91415">
        <ele>320.58</ele>
      </trkpt>
      <trkpt lat="53.26098" lon="-1.91424">
        <ele>317.27</ele>
      </trkpt>
      <trkpt lat="53.26092" lon="-1.91428">
        <ele>314.59</ele>
      </trkpt>
      <trkpt lat="53.26085" lon="-1.91431">
        <ele>311.33</ele>
      </trkpt>
      <trkpt lat="53.26076" lon="-1.9143">
        <ele>309.02</ele>
      </trkpt>
      <trkpt lat="53.26071" lon="-1.91426">
        <ele>307.82</ele>
      </trkpt>
      <trkpt lat="53.26065" lon="-1.91421">
        <ele>306.3</ele>
      </trkpt>
      <trkpt lat="53.26057" lon="-1.91413">
        <ele>304.83</ele>
      </trkpt>
      <trkpt lat="53.2605" lon="-1.91408">
        <ele>305.92</ele>
      </trkpt>
      <trkpt lat="53.26047" lon="-1.91406">
        <ele>306.53</ele>
      </trkpt>
      <trkpt lat="53.26043" lon="-1.91402">
        <ele>307.44</ele>
      </trkpt>
      <trkpt lat="53.26039" lon="-1.914">
        <ele>308.07</ele>
      </trkpt>
      <trkpt lat="53.26037" lon="-1.91398">
        <ele>308.46</ele>
      </trkpt>
      <trkpt lat="53.26033" lon="-1.91396">
        <ele>309.02</ele>
      </trkpt>
      <trkpt lat="53.26034" lon="-1.91384">
        <ele>309.93</ele>
      </trkpt>
      <trkpt lat="53.26034" lon="-1.91371">
        <ele>310.92</ele>
      </trkpt>
      <trkpt lat="53.26036" lon="-1.91345">
        <ele>312.57</ele>
      </trkpt>
      <trkpt lat="53.2603" lon="-1.91344">
        <ele>311.44</ele>
      </trkpt>
      <trkpt lat="53.26023" lon="-1.91343">
        <ele>309.3</ele>
      </trkpt>
      <trkpt lat="53.26021" lon="-1.91343">
        <ele>308.59</ele>
      </trkpt>
      <trkpt lat="53.26021" lon="-1.91343">
        <ele>308.59</ele>
      </trkpt>
      <trkpt lat="53.25999" lon="-1.9132">
        <ele>301.31</ele>
      </trkpt>
      <trkpt lat="53.26004" lon="-1.91307">
        <ele>305.55</ele>
      </trkpt>
      <trkpt lat="53.26005" lon="-1.9131">
        <ele>305.16</ele>
      </trkpt>
    </trkseg>
  </trk>
</gpx>
