<?xml version="1.0" encoding="UTF-8" standalone="yes"?>
<gpx version="1.1" creator="OS Maps - Web" xmlns="http://www.topografix.com/GPX/1/1"
xmlns:xsi="http://www.w3.org/2001/XMLSchema-instance"
xsi:schemaLocation="http://www.topografix.com/GPX/1/1 http://www.topografix.com/GPX/1/1/gpx.xsd"
xmlns:gs="http://www.topografix.com/GPX/gpx_style/0/2"
xmlns:gh="https://graphhopper.com/public/schema/gpx/1.1"
xmlns:os="https://ordnancesurvey.co.uk/public/schema/route/0.1">
    <metadata>
        <name>Gun (Ethel) - Circular (www.thelostpeak.co.uk)</name>
        <desc>www.thelostpeak.co.uk</desc>
        <bounds minlat="53.1108500" minlon="-2.0497800" maxlat="53.1561700" maxlon="-2.0164800"/>
        <extensions>
            <os:version>2.0</os:version>
            <os:point lat="53.1108800" lon="-2.0342000" type="start"/>
            <os:point lat="53.1108500" lon="-2.0341400" type="end"/>
            <os:activity>ON_FOOT_WALKING</os:activity>
            <os:difficulty>MODERATE</os:difficulty>
            <os:paths/>
            <os:distance>12792.8537798</os:distance>
            <os:elevation_ascent>325.7500000</os:elevation_ascent>
        </extensions>
    </metadata>
    <wpt lat="53.1108800" lon="-2.0342000"/>
    <wpt lat="53.1120100" lon="-2.0326700"/>
    <wpt lat="53.1125700" lon="-2.0329600"/>
    <wpt lat="53.1141000" lon="-2.0316700"/>
    <wpt lat="53.1157300" lon="-2.0310900"/>
    <wpt lat="53.1169400" lon="-2.0322200"/>
    <wpt lat="53.1178500" lon="-2.0347000"/>
    <wpt lat="53.1210900" lon="-2.0382800"/>
    <wpt lat="53.1222200" lon="-2.0389000"/>
    <wpt lat="53.1238000" lon="-2.0387500"/>
    <wpt lat="53.1241100" lon="-2.0385400"/>
    <wpt lat="53.1243000" lon="-2.0376500"/>
    <wpt lat="53.1251800" lon="-2.0359200"/>
    <wpt lat="53.1259100" lon="-2.0356000"/>
    <wpt lat="53.1283000" lon="-2.0366500"/>
    <wpt lat="53.1311600" lon="-2.0408500"/>
    <wpt lat="53.1353900" lon="-2.0421500"/>
    <wpt lat="53.1453100" lon="-2.0494900"/>
    <wpt lat="53.1506500" lon="-2.0463000"/>
    <wpt lat="53.1524000" lon="-2.0467700"/>
    <wpt lat="53.1556300" lon="-2.0433400"/>
    <wpt lat="53.1537900" lon="-2.0333900"/>
    <wpt lat="53.1454900" lon="-2.0173300"/>
    <wpt lat="53.1442200" lon="-2.0165100"/>
    <wpt lat="53.1441500" lon="-2.0175800"/>
    <wpt lat="53.1418700" lon="-2.0183900"/>
    <wpt lat="53.1374000" lon="-2.0185100"/>
    <wpt lat="53.1350700" lon="-2.0212700"/>
    <wpt lat="53.1345500" lon="-2.0214800"/>
    <wpt lat="53.1321600" lon="-2.0204500"/>
    <wpt lat="53.1294900" lon="-2.0214100"/>
    <wpt lat="53.1281400" lon="-2.0229100"/>
    <wpt lat="53.1274400" lon="-2.0240800"/>
    <wpt lat="53.1248600" lon="-2.0259700"/>
    <wpt lat="53.1245200" lon="-2.0265800"/>
    <wpt lat="53.1230700" lon="-2.0280500"/>
    <wpt lat="53.1226000" lon="-2.0281100"/>
    <wpt lat="53.1192700" lon="-2.0305100"/>
    <wpt lat="53.1176400" lon="-2.0313500"/>
    <wpt lat="53.1171300" lon="-2.0324300"/>
    <wpt lat="53.1157600" lon="-2.0310800"/>
    <wpt lat="53.1141200" lon="-2.0316800"/>
    <wpt lat="53.1125700" lon="-2.0328500"/>
    <wpt lat="53.1119900" lon="-2.0326700"/>
    <wpt lat="53.1108500" lon="-2.0341400"/>
    <trk>
        <name>Gun (Ethel) - Circular (www.thelostpeak.co.uk)</name>
        <trkseg>
            <trkpt lat="53.1108800" lon="-2.0342000"><ele>158.2</ele></trkpt>
            <trkpt lat="53.1120100" lon="-2.0326700"><ele>160.5</ele></trkpt>
            <trkpt lat="53.1125700" lon="-2.0329600"><ele>157.7</ele></trkpt>
            <trkpt lat="53.1141000" lon="-2.0316700"><ele>159.3</ele></trkpt>
            <trkpt lat="53.1157300" lon="-2.0310900"><ele>160.6</ele></trkpt>
            <trkpt lat="53.1164200" lon="-2.0318000"><ele>164.9</ele></trkpt>
            <trkpt lat="53.1169400" lon="-2.0322200"><ele>171.3</ele></trkpt>
            <trkpt lat="53.1170600" lon="-2.0324700"><ele>173.0</ele></trkpt>
            <trkpt lat="53.1171200" lon="-2.0325600"><ele>173.9</ele></trkpt>
            <trkpt lat="53.1171500" lon="-2.0327700"><ele>174.8</ele></trkpt>
            <trkpt lat="53.1172800" lon="-2.0332300"><ele>178.5</ele></trkpt>
            <trkpt lat="53.1174300" lon="-2.0336400"><ele>184.6</ele></trkpt>
            <trkpt lat="53.1175200" lon="-2.0340000"><ele>188.3</ele></trkpt>
            <trkpt lat="53.1175800" lon="-2.0343400"><ele>191.9</ele></trkpt>
            <trkpt lat="53.1176600" lon="-2.0345200"><ele>193.6</ele></trkpt>
            <trkpt lat="53.1178500" lon="-2.0347000"><ele>195.7</ele></trkpt>
            <trkpt lat="53.1180100" lon="-2.0348300"><ele>196.8</ele></trkpt>
            <trkpt lat="53.1181500" lon="-2.0350000"><ele>196.4</ele></trkpt>
            <trkpt lat="53.1183700" lon="-2.0353800"><ele>195.1</ele></trkpt>
            <trkpt lat="53.1188100" lon="-2.0358500"><ele>193.5</ele></trkpt>
            <trkpt lat="53.1189800" lon="-2.0360600"><ele>193.2</ele></trkpt>
            <trkpt lat="53.1210900" lon="-2.0382800"><ele>189.5</ele></trkpt>
            <trkpt lat="53.1222200" lon="-2.0389000"><ele>187.5</ele></trkpt>
            <trkpt lat="53.1238000" lon="-2.0387500"><ele>189.5</ele></trkpt>
            <trkpt lat="53.1241100" lon="-2.0385400"><ele>186.8</ele></trkpt>
            <trkpt lat="53.1243000" lon="-2.0376500"><ele>191.5</ele></trkpt>
            <trkpt lat="53.1247400" lon="-2.0367000"><ele>188.2</ele></trkpt>
            <trkpt lat="53.1251800" lon="-2.0359200"><ele>183.0</ele></trkpt>
            <trkpt lat="53.1259100" lon="-2.0356000"><ele>189.6</ele></trkpt>
            <trkpt lat="53.1265700" lon="-2.0359200"><ele>195.4</ele></trkpt>
            <trkpt lat="53.1283000" lon="-2.0366500"><ele>218.9</ele></trkpt>
            <trkpt lat="53.1297400" lon="-2.0387000"><ele>240.3</ele></trkpt>
            <trkpt lat="53.1311600" lon="-2.0408500"><ele>263.7</ele></trkpt>
            <trkpt lat="53.1353900" lon="-2.0421500"><ele>321.8</ele></trkpt>
            <trkpt lat="53.1357900" lon="-2.0423300"><ele>324.2</ele></trkpt>
            <trkpt lat="53.1364700" lon="-2.0427900"><ele>326.3</ele></trkpt>
            <trkpt lat="53.1366900" lon="-2.0430300"><ele>328.3</ele></trkpt>
            <trkpt lat="53.1367300" lon="-2.0431700"><ele>328.6</ele></trkpt>
            <trkpt lat="53.1369800" lon="-2.0433600"><ele>329.5</ele></trkpt>
            <trkpt lat="53.1447700" lon="-2.0491500"><ele>351.7</ele></trkpt>
            <trkpt lat="53.1452100" lon="-2.0493900"><ele>354.5</ele></trkpt>
            <trkpt lat="53.1453100" lon="-2.0494900"><ele>354.7</ele></trkpt>
            <trkpt lat="53.1455100" lon="-2.0496900"><ele>354.7</ele></trkpt>
            <trkpt lat="53.1456700" lon="-2.0497800"><ele>355.8</ele></trkpt>
            <trkpt lat="53.1453800" lon="-2.0491700"><ele>355.4</ele></trkpt>
            <trkpt lat="53.1454300" lon="-2.0491200"><ele>355.8</ele></trkpt>
            <trkpt lat="53.1463300" lon="-2.0486700"><ele>360.7</ele></trkpt>
            <trkpt lat="53.1466300" lon="-2.0484700"><ele>362.3</ele></trkpt>
            <trkpt lat="53.1469900" lon="-2.0483300"><ele>364.2</ele></trkpt>
            <trkpt lat="53.1473700" lon="-2.0481400"><ele>366.6</ele></trkpt>
            <trkpt lat="53.1477900" lon="-2.0478200"><ele>367.9</ele></trkpt>
            <trkpt lat="53.1481100" lon="-2.0476400"><ele>370.6</ele></trkpt>
            <trkpt lat="53.1493400" lon="-2.0471200"><ele>374.7</ele></trkpt>
            <trkpt lat="53.1499400" lon="-2.0467400"><ele>381.1</ele></trkpt>
            <trkpt lat="53.1503000" lon="-2.0466100"><ele>383.0</ele></trkpt>
            <trkpt lat="53.1505400" lon="-2.0463200"><ele>383.9</ele></trkpt>
            <trkpt lat="53.1506500" lon="-2.0463000"><ele>383.9</ele></trkpt>
            <trkpt lat="53.1507600" lon="-2.0462600"><ele>383.9</ele></trkpt>
            <trkpt lat="53.1509100" lon="-2.0463800"><ele>383.5</ele></trkpt>
            <trkpt lat="53.1512400" lon="-2.0466900"><ele>381.5</ele></trkpt>
            <trkpt lat="53.1513200" lon="-2.0467300"><ele>380.9</ele></trkpt>
            <trkpt lat="53.1516300" lon="-2.0469800"><ele>379.4</ele></trkpt>
            <trkpt lat="53.1524000" lon="-2.0467700"><ele>381.1</ele></trkpt>
            <trkpt lat="53.1522400" lon="-2.0468100"><ele>381.0</ele></trkpt>
            <trkpt lat="53.1522600" lon="-2.0464200"><ele>381.9</ele></trkpt>
            <trkpt lat="53.1521900" lon="-2.0462500"><ele>381.8</ele></trkpt>
            <trkpt lat="53.1522000" lon="-2.0458500"><ele>379.8</ele></trkpt>
            <trkpt lat="53.1521400" lon="-2.0453500"><ele>376.7</ele></trkpt>
            <trkpt lat="53.1521000" lon="-2.0452000"><ele>376.0</ele></trkpt>
            <trkpt lat="53.1519000" lon="-2.0446800"><ele>372.6</ele></trkpt>
            <trkpt lat="53.1518900" lon="-2.0443600"><ele>368.4</ele></trkpt>
            <trkpt lat="53.1519500" lon="-2.0440200"><ele>363.9</ele></trkpt>
            <trkpt lat="53.1521100" lon="-2.0436000"><ele>359.4</ele></trkpt>
            <trkpt lat="53.1521500" lon="-2.0434600"><ele>358.5</ele></trkpt>
            <trkpt lat="53.1523800" lon="-2.0432900"><ele>356.9</ele></trkpt>
            <trkpt lat="53.1530900" lon="-2.0433700"><ele>353.9</ele></trkpt>
            <trkpt lat="53.1532300" lon="-2.0434000"><ele>352.9</ele></trkpt>
            <trkpt lat="53.1535000" lon="-2.0436100"><ele>353.9</ele></trkpt>
            <trkpt lat="53.1538500" lon="-2.0437500"><ele>356.8</ele></trkpt>
            <trkpt lat="53.1539400" lon="-2.0437500"><ele>357.1</ele></trkpt>
            <trkpt lat="53.1543500" lon="-2.0436000"><ele>357.5</ele></trkpt>
            <trkpt lat="53.1548800" lon="-2.0434600"><ele>354.2</ele></trkpt>
            <trkpt lat="53.1550800" lon="-2.0434600"><ele>353.3</ele></trkpt>
            <trkpt lat="53.1554600" lon="-2.0435700"><ele>351.7</ele></trkpt>
            <trkpt lat="53.1556200" lon="-2.0435400"><ele>350.3</ele></trkpt>
            <trkpt lat="53.1556200" lon="-2.0433800"><ele>349.2</ele></trkpt>
            <trkpt lat="53.1556300" lon="-2.0433400"><ele>348.7</ele></trkpt>
            <trkpt lat="53.1561400" lon="-2.0416900"><ele>341.3</ele></trkpt>
            <trkpt lat="53.1561700" lon="-2.0415600"><ele>340.8</ele></trkpt>
            <trkpt lat="53.1561400" lon="-2.0414600"><ele>340.2</ele></trkpt>
            <trkpt lat="53.1559900" lon="-2.0411900"><ele>338.2</ele></trkpt>
            <trkpt lat="53.1559200" lon="-2.0410000"><ele>337.1</ele></trkpt>
            <trkpt lat="53.1558500" lon="-2.0406900"><ele>336.5</ele></trkpt>
            <trkpt lat="53.1556400" lon="-2.0395600"><ele>330.2</ele></trkpt>
            <trkpt lat="53.1556100" lon="-2.0393500"><ele>328.9</ele></trkpt>
            <trkpt lat="53.1555900" lon="-2.0390000"><ele>327.4</ele></trkpt>
            <trkpt lat="53.1555200" lon="-2.0386400"><ele>325.4</ele></trkpt>
            <trkpt lat="53.1554800" lon="-2.0384900"><ele>325.0</ele></trkpt>
            <trkpt lat="53.1552400" lon="-2.0381700"><ele>322.8</ele></trkpt>
            <trkpt lat="53.1551100" lon="-2.0379500"><ele>320.3</ele></trkpt>
            <trkpt lat="53.1550400" lon="-2.0378100"><ele>318.7</ele></trkpt>
            <trkpt lat="53.1550000" lon="-2.0376900"><ele>317.2</ele></trkpt>
            <trkpt lat="53.1550000" lon="-2.0374800"><ele>315.4</ele></trkpt>
            <trkpt lat="53.1550300" lon="-2.0373900"><ele>314.5</ele></trkpt>
            <trkpt lat="53.1552000" lon="-2.0371600"><ele>311.8</ele></trkpt>
            <trkpt lat="53.1548400" lon="-2.0363300"><ele>306.6</ele></trkpt>
            <trkpt lat="53.1542300" lon="-2.0347900"><ele>289.6</ele></trkpt>
            <trkpt lat="53.1537900" lon="-2.0333900"><ele>278.9</ele></trkpt>
            <trkpt lat="53.1534200" lon="-2.0322400"><ele>268.8</ele></trkpt>
            <trkpt lat="53.1532500" lon="-2.0318400"><ele>265.5</ele></trkpt>
            <trkpt lat="53.1531100" lon="-2.0313800"><ele>262.7</ele></trkpt>
            <trkpt lat="53.1529900" lon="-2.0313300"><ele>263.2</ele></trkpt>
            <trkpt lat="53.1528200" lon="-2.0309300"><ele>258.9</ele></trkpt>
            <trkpt lat="53.1524900" lon="-2.0304200"><ele>252.4</ele></trkpt>
            <trkpt lat="53.1524700" lon="-2.0299800"><ele>250.5</ele></trkpt>
            <trkpt lat="53.1522600" lon="-2.0293700"><ele>247.7</ele></trkpt>
            <trkpt lat="53.1523400" lon="-2.0283100"><ele>241.7</ele></trkpt>
            <trkpt lat="53.1523500" lon="-2.0279000"><ele>238.6</ele></trkpt>
            <trkpt lat="53.1522700" lon="-2.0270300"><ele>235.0</ele></trkpt>
            <trkpt lat="53.1521700" lon="-2.0262500"><ele>231.6</ele></trkpt>
            <trkpt lat="53.1521800" lon="-2.0252400"><ele>228.2</ele></trkpt>
            <trkpt lat="53.1521700" lon="-2.0249900"><ele>227.3</ele></trkpt>
            <trkpt lat="53.1521300" lon="-2.0247800"><ele>226.5</ele></trkpt>
            <trkpt lat="53.1520500" lon="-2.0248300"><ele>226.7</ele></trkpt>
            <trkpt lat="53.1519400" lon="-2.0248400"><ele>226.8</ele></trkpt>
            <trkpt lat="53.1516100" lon="-2.0247100"><ele>225.2</ele></trkpt>
            <trkpt lat="53.1508700" lon="-2.0246100"><ele>223.3</ele></trkpt>
            <trkpt lat="53.1505600" lon="-2.0246700"><ele>225.5</ele></trkpt>
            <trkpt lat="53.1498800" lon="-2.0249300"><ele>224.7</ele></trkpt>
            <trkpt lat="53.1497800" lon="-2.0249200"><ele>224.5</ele></trkpt>
            <trkpt lat="53.1497400" lon="-2.0247600"><ele>224.2</ele></trkpt>
            <trkpt lat="53.1492500" lon="-2.0239200"><ele>223.9</ele></trkpt>
            <trkpt lat="53.1490500" lon="-2.0235500"><ele>223.3</ele></trkpt>
            <trkpt lat="53.1490100" lon="-2.0234000"><ele>223.0</ele></trkpt>
            <trkpt lat="53.1490100" lon="-2.0232600"><ele>222.8</ele></trkpt>
            <trkpt lat="53.1490600" lon="-2.0223200"><ele>221.7</ele></trkpt>
            <trkpt lat="53.1480500" lon="-2.0214100"><ele>218.1</ele></trkpt>
            <trkpt lat="53.1477100" lon="-2.0196300"><ele>214.8</ele></trkpt>
            <trkpt lat="53.1475400" lon="-2.0195500"><ele>214.6</ele></trkpt>
            <trkpt lat="53.1465300" lon="-2.0187300"><ele>213.7</ele></trkpt>
            <trkpt lat="53.1459300" lon="-2.0183200"><ele>211.2</ele></trkpt>
            <trkpt lat="53.1457400" lon="-2.0180200"><ele>210.1</ele></trkpt>
            <trkpt lat="53.1455400" lon="-2.0174200"><ele>209.9</ele></trkpt>
            <trkpt lat="53.1454900" lon="-2.0173300"><ele>210.0</ele></trkpt>
            <trkpt lat="53.1454300" lon="-2.0172300"><ele>210.1</ele></trkpt>
            <trkpt lat="53.1447900" lon="-2.0167700"><ele>211.2</ele></trkpt>
            <trkpt lat="53.1442200" lon="-2.0165100"><ele>211.8</ele></trkpt>
            <trkpt lat="53.1441500" lon="-2.0164800"><ele>211.7</ele></trkpt>
            <trkpt lat="53.1440300" lon="-2.0164800"><ele>211.4</ele></trkpt>
            <trkpt lat="53.1440800" lon="-2.0166800"><ele>212.3</ele></trkpt>
            <trkpt lat="53.1441200" lon="-2.0170300"><ele>213.6</ele></trkpt>
            <trkpt lat="53.1441300" lon="-2.0174200"><ele>214.0</ele></trkpt>
            <trkpt lat="53.1441500" lon="-2.0175800"><ele>214.2</ele></trkpt>
            <trkpt lat="53.1431100" lon="-2.0179100"><ele>210.1</ele></trkpt>
            <trkpt lat="53.1418700" lon="-2.0183900"><ele>208.4</ele></trkpt>
            <trkpt lat="53.1406800" lon="-2.0184500"><ele>210.0</ele></trkpt>
            <trkpt lat="53.1394400" lon="-2.0184800"><ele>212.8</ele></trkpt>
            <trkpt lat="53.1382500" lon="-2.0184800"><ele>210.0</ele></trkpt>
            <trkpt lat="53.1374000" lon="-2.0185100"><ele>212.2</ele></trkpt>
            <trkpt lat="53.1364600" lon="-2.0195000"><ele>215.7</ele></trkpt>
            <trkpt lat="53.1350700" lon="-2.0212700"><ele>222.3</ele></trkpt>
            <trkpt lat="53.1345500" lon="-2.0214800"><ele>221.0</ele></trkpt>
            <trkpt lat="53.1329400" lon="-2.0207500"><ele>220.5</ele></trkpt>
            <trkpt lat="53.1321600" lon="-2.0204500"><ele>214.0</ele></trkpt>
            <trkpt lat="53.1308500" lon="-2.0208100"><ele>215.3</ele></trkpt>
            <trkpt lat="53.1294900" lon="-2.0214100"><ele>234.0</ele></trkpt>
            <trkpt lat="53.1281400" lon="-2.0229100"><ele>251.0</ele></trkpt>
            <trkpt lat="53.1274400" lon="-2.0240800"><ele>253.1</ele></trkpt>
            <trkpt lat="53.1248600" lon="-2.0259700"><ele>255.8</ele></trkpt>
            <trkpt lat="53.1245200" lon="-2.0265800"><ele>251.1</ele></trkpt>
            <trkpt lat="53.1230700" lon="-2.0280500"><ele>233.3</ele></trkpt>
            <trkpt lat="53.1226000" lon="-2.0281100"><ele>228.0</ele></trkpt>
            <trkpt lat="53.1210000" lon="-2.0292800"><ele>211.3</ele></trkpt>
            <trkpt lat="53.1204400" lon="-2.0296100"><ele>208.0</ele></trkpt>
            <trkpt lat="53.1192700" lon="-2.0305100"><ele>201.7</ele></trkpt>
            <trkpt lat="53.1176400" lon="-2.0313500"><ele>179.6</ele></trkpt>
            <trkpt lat="53.1171300" lon="-2.0324300"><ele>173.6</ele></trkpt>
            <trkpt lat="53.1157600" lon="-2.0310800"><ele>160.7</ele></trkpt>
            <trkpt lat="53.1141200" lon="-2.0316800"><ele>159.3</ele></trkpt>
            <trkpt lat="53.1125700" lon="-2.0328500"><ele>158.0</ele></trkpt>
            <trkpt lat="53.1119900" lon="-2.0326700"><ele>160.6</ele></trkpt>
            <trkpt lat="53.1108500" lon="-2.0341400"><ele>158.4</ele></trkpt>
        </trkseg>
    </trk>
<!-- ele-hash:c5535230bedde1b4 -->
</gpx>
