<?xml version='1.0' encoding='UTF-8'?>
<gpx version="1.1" creator="https://www.komoot.de" xmlns="http://www.topografix.com/GPX/1/1" xmlns:xsi="http://www.w3.org/2001/XMLSchema-instance" xsi:schemaLocation="http://www.topografix.com/GPX/1/1 http://www.topografix.com/GPX/1/1/gpx.xsd">
  <metadata>
    <name>Harland Edge (Ethel) - Circular (www.thelostpeak.co.uk)</name>
    <author>
      <link href="https://www.komoot.de">
        <text>komoot</text>
        <type>text/html</type>
      </link>
    </author>
  </metadata>
  <trk>
    <name>Harland Edge (Ethel) - Circular (www.thelostpeak.co.uk)</name>
    <trkseg>
      <trkpt lat="53.245279" lon="-1.581539"><ele>212.5</ele></trkpt>
        <time>2026-03-12T22:43:12.572Z</time>
      </trkpt>
      <trkpt lat="53.245355" lon="-1.581865"><ele>210.8</ele></trkpt>
        <time>2026-03-12T22:43:33.528Z</time>
      </trkpt>
      <trkpt lat="53.245258" lon="-1.582312"><ele>207.7</ele></trkpt>
        <time>2026-03-12T22:44:02.007Z</time>
      </trkpt>
      <trkpt lat="53.245162" lon="-1.582248"><ele>207.2</ele></trkpt>
        <time>2026-03-12T22:44:12.351Z</time>
      </trkpt>
      <trkpt lat="53.245072" lon="-1.581964"><ele>207.7</ele></trkpt>
        <time>2026-03-12T22:44:31.597Z</time>
      </trkpt>
      <trkpt lat="53.245026" lon="-1.582002"><ele>206.8</ele></trkpt>
        <time>2026-03-12T22:44:36.762Z</time>
      </trkpt>
      <trkpt lat="53.245005" lon="-1.581931"><ele>207.1</ele></trkpt>
        <time>2026-03-12T22:44:41.544Z</time>
      </trkpt>
      <trkpt lat="53.244771" lon="-1.581409"><ele>209.3</ele></trkpt>
        <time>2026-03-12T22:45:21.072Z</time>
      </trkpt>
      <trkpt lat="53.244481" lon="-1.580956"><ele>210.8</ele></trkpt>
        <time>2026-03-12T22:46:03.025Z</time>
      </trkpt>
      <trkpt lat="53.243611" lon="-1.579862"><ele>208.6</ele></trkpt>
        <time>2026-03-12T22:48:06.445Z</time>
      </trkpt>
      <trkpt lat="53.243116" lon="-1.579106"><ele>215.1</ele></trkpt>
        <time>2026-03-12T22:49:23.369Z</time>
      </trkpt>
      <trkpt lat="53.242670" lon="-1.578259"><ele>217.2</ele></trkpt>
        <time>2026-03-12T22:50:41.123Z</time>
      </trkpt>
      <trkpt lat="53.242391" lon="-1.577788"><ele>219.4</ele></trkpt>
        <time>2026-03-12T22:51:26.515Z</time>
      </trkpt>
      <trkpt lat="53.241898" lon="-1.576955"><ele>221.0</ele></trkpt>
        <time>2026-03-12T22:52:44.459Z</time>
      </trkpt>
      <trkpt lat="53.241879" lon="-1.576913"><ele>221.5</ele></trkpt>
        <time>2026-03-12T22:52:47.878Z</time>
      </trkpt>
      <trkpt lat="53.241746" lon="-1.576628"><ele>222.1</ele></trkpt>
        <time>2026-03-12T22:53:10.854Z</time>
      </trkpt>
      <trkpt lat="53.241556" lon="-1.576056"><ele>223.3</ele></trkpt>
        <time>2026-03-12T22:53:51.204Z</time>
      </trkpt>
      <trkpt lat="53.241484" lon="-1.575725"><ele>223.3</ele></trkpt>
        <time>2026-03-12T22:54:12.382Z</time>
      </trkpt>
      <trkpt lat="53.241467" lon="-1.575298"><ele>225.6</ele></trkpt>
        <time>2026-03-12T22:54:38.237Z</time>
      </trkpt>
      <trkpt lat="53.241487" lon="-1.574510"><ele>226.4</ele></trkpt>
        <time>2026-03-12T22:55:26.570Z</time>
      </trkpt>
      <trkpt lat="53.241474" lon="-1.573733"><ele>225.0</ele></trkpt>
        <time>2026-03-12T22:56:14.019Z</time>
      </trkpt>
      <trkpt lat="53.241391" lon="-1.572987"><ele>222.8</ele></trkpt>
        <time>2026-03-12T22:56:59.648Z</time>
      </trkpt>
      <trkpt lat="53.241294" lon="-1.572481"><ele>220.9</ele></trkpt>
        <time>2026-03-12T22:57:32.022Z</time>
      </trkpt>
      <trkpt lat="53.241123" lon="-1.571823"><ele>222.3</ele></trkpt>
        <time>2026-03-12T22:58:17.243Z</time>
      </trkpt>
      <trkpt lat="53.240978" lon="-1.571358"><ele>223.9</ele></trkpt>
        <time>2026-03-12T22:58:51.751Z</time>
      </trkpt>
      <trkpt lat="53.240907" lon="-1.571581"><ele>223.4</ele></trkpt>
        <time>2026-03-12T22:59:08.843Z</time>
      </trkpt>
      <trkpt lat="53.240887" lon="-1.571901"><ele>222.6</ele></trkpt>
        <time>2026-03-12T22:59:30.884Z</time>
      </trkpt>
      <trkpt lat="53.240841" lon="-1.572106"><ele>222.6</ele></trkpt>
        <time>2026-03-12T22:59:46.059Z</time>
      </trkpt>
      <trkpt lat="53.240660" lon="-1.572195"><ele>223.6</ele></trkpt>
        <time>2026-03-12T23:00:08.057Z</time>
      </trkpt>
      <trkpt lat="53.240413" lon="-1.572060"><ele>225.3</ele></trkpt>
        <time>2026-03-12T23:00:38.527Z</time>
      </trkpt>
      <trkpt lat="53.240281" lon="-1.572077"><ele>227.4</ele></trkpt>
        <time>2026-03-12T23:00:54.074Z</time>
      </trkpt>
      <trkpt lat="53.239936" lon="-1.572290"><ele>230.3</ele></trkpt>
        <time>2026-03-12T23:01:37.535Z</time>
      </trkpt>
      <trkpt lat="53.239828" lon="-1.572428"><ele>230.9</ele></trkpt>
        <time>2026-03-12T23:01:53.932Z</time>
      </trkpt>
      <trkpt lat="53.239565" lon="-1.572935"><ele>232.7</ele></trkpt>
        <time>2026-03-12T23:02:42.228Z</time>
      </trkpt>
      <trkpt lat="53.239171" lon="-1.573963"><ele>233.8</ele></trkpt>
        <time>2026-03-12T23:04:08.517Z</time>
      </trkpt>
      <trkpt lat="53.239085" lon="-1.574267"><ele>234.5</ele></trkpt>
        <time>2026-03-12T23:04:32.099Z</time>
      </trkpt>
      <trkpt lat="53.239011" lon="-1.574998"><ele>237.4</ele></trkpt>
        <time>2026-03-12T23:05:24.296Z</time>
      </trkpt>
      <trkpt lat="53.238966" lon="-1.575446"><ele>238.6</ele></trkpt>
        <time>2026-03-12T23:05:56.519Z</time>
      </trkpt>
      <trkpt lat="53.238955" lon="-1.575523"><ele>239.3</ele></trkpt>
        <time>2026-03-12T23:06:02.169Z</time>
      </trkpt>
      <trkpt lat="53.238914" lon="-1.575838"><ele>242.2</ele></trkpt>
        <time>2026-03-12T23:06:25.247Z</time>
      </trkpt>
      <trkpt lat="53.238393" lon="-1.578014"><ele>252.2</ele></trkpt>
        <time>2026-03-12T23:09:16.557Z</time>
      </trkpt>
      <trkpt lat="53.238201" lon="-1.578986"><ele>256.1</ele></trkpt>
        <time>2026-03-12T23:10:31.953Z</time>
      </trkpt>
      <trkpt lat="53.238035" lon="-1.579986"><ele>260.2</ele></trkpt>
        <time>2026-03-12T23:11:48.105Z</time>
      </trkpt>
      <trkpt lat="53.237792" lon="-1.580923"><ele>263.2</ele></trkpt>
        <time>2026-03-12T23:13:02.637Z</time>
      </trkpt>
      <trkpt lat="53.237630" lon="-1.582363"><ele>269.5</ele></trkpt>
        <time>2026-03-12T23:14:49.157Z</time>
      </trkpt>
      <trkpt lat="53.237454" lon="-1.583130"><ele>270.1</ele></trkpt>
        <time>2026-03-12T23:15:48.738Z</time>
      </trkpt>
      <trkpt lat="53.237293" lon="-1.583631"><ele>273.6</ele></trkpt>
        <time>2026-03-12T23:16:29.649Z</time>
      </trkpt>
      <trkpt lat="53.237105" lon="-1.584110"><ele>277.3</ele></trkpt>
        <time>2026-03-12T23:17:10.376Z</time>
      </trkpt>
      <trkpt lat="53.236925" lon="-1.584416"><ele>278.5</ele></trkpt>
        <time>2026-03-12T23:17:40.483Z</time>
      </trkpt>
      <trkpt lat="53.236674" lon="-1.584747"><ele>280.3</ele></trkpt>
        <time>2026-03-12T23:18:17.570Z</time>
      </trkpt>
      <trkpt lat="53.236323" lon="-1.585038"><ele>281.6</ele></trkpt>
        <time>2026-03-12T23:19:02.328Z</time>
      </trkpt>
      <trkpt lat="53.234975" lon="-1.585996"><ele>283.5</ele></trkpt>
        <time>2026-03-12T23:21:45.635Z</time>
      </trkpt>
      <trkpt lat="53.234846" lon="-1.586041"><ele>284.0</ele></trkpt>
        <time>2026-03-12T23:22:00.260Z</time>
      </trkpt>
      <trkpt lat="53.234664" lon="-1.585929"><ele>284.9</ele></trkpt>
        <time>2026-03-12T23:22:21.807Z</time>
      </trkpt>
      <trkpt lat="53.233776" lon="-1.584960"><ele>288.2</ele></trkpt>
        <time>2026-03-12T23:24:21.166Z</time>
      </trkpt>
      <trkpt lat="53.233554" lon="-1.584815"><ele>289.0</ele></trkpt>
        <time>2026-03-12T23:24:48.319Z</time>
      </trkpt>
      <trkpt lat="53.232588" lon="-1.584726"><ele>294.5</ele></trkpt>
        <time>2026-03-12T23:26:39.639Z</time>
      </trkpt>
      <trkpt lat="53.231725" lon="-1.584711"><ele>299.9</ele></trkpt>
        <time>2026-03-12T23:28:20.301Z</time>
      </trkpt>
      <trkpt lat="53.231464" lon="-1.584759"><ele>300.5</ele></trkpt>
        <time>2026-03-12T23:28:51.170Z</time>
      </trkpt>
      <trkpt lat="53.230508" lon="-1.584717"><ele>304.7</ele></trkpt>
        <time>2026-03-12T23:30:43.778Z</time>
      </trkpt>
      <trkpt lat="53.229889" lon="-1.584652"><ele>306.5</ele></trkpt>
        <time>2026-03-12T23:31:57.560Z</time>
      </trkpt>
      <trkpt lat="53.229478" lon="-1.584521"><ele>310.3</ele></trkpt>
        <time>2026-03-12T23:32:47.682Z</time>
      </trkpt>
      <trkpt lat="53.229020" lon="-1.584531"><ele>313.6</ele></trkpt>
        <time>2026-03-12T23:33:42.753Z</time>
      </trkpt>
      <trkpt lat="53.227305" lon="-1.584278"><ele>324.6</ele></trkpt>
        <time>2026-03-12T23:37:10.332Z</time>
      </trkpt>
      <trkpt lat="53.226876" lon="-1.583838"><ele>327.5</ele></trkpt>
        <time>2026-03-12T23:38:09.659Z</time>
      </trkpt>
      <trkpt lat="53.226524" lon="-1.583662"><ele>328.1</ele></trkpt>
        <time>2026-03-12T23:38:52.416Z</time>
      </trkpt>
      <trkpt lat="53.225656" lon="-1.583090"><ele>331.2</ele></trkpt>
        <time>2026-03-12T23:40:38.465Z</time>
      </trkpt>
      <trkpt lat="53.224873" lon="-1.582387"><ele>333.4</ele></trkpt>
        <time>2026-03-12T23:42:16.135Z</time>
      </trkpt>
      <trkpt lat="53.224154" lon="-1.581634"><ele>335.5</ele></trkpt>
        <time>2026-03-12T23:43:46.726Z</time>
      </trkpt>
      <trkpt lat="53.223600" lon="-1.581343"><ele>338.6</ele></trkpt>
        <time>2026-03-12T23:44:47.949Z</time>
      </trkpt>
      <trkpt lat="53.222490" lon="-1.580474"><ele>339.0</ele></trkpt>
        <time>2026-03-12T23:46:58.146Z</time>
      </trkpt>
      <trkpt lat="53.221919" lon="-1.579830"><ele>341.8</ele></trkpt>
        <time>2026-03-12T23:48:11.455Z</time>
      </trkpt>
      <trkpt lat="53.221770" lon="-1.579602"><ele>341.9</ele></trkpt>
        <time>2026-03-12T23:48:32.831Z</time>
      </trkpt>
      <trkpt lat="53.221268" lon="-1.578465"><ele>341.2</ele></trkpt>
        <time>2026-03-12T23:50:00.919Z</time>
      </trkpt>
      <trkpt lat="53.220530" lon="-1.576528"><ele>342.6</ele></trkpt>
        <time>2026-03-12T23:52:19.037Z</time>
      </trkpt>
      <trkpt lat="53.220384" lon="-1.575898"><ele>341.2</ele></trkpt>
        <time>2026-03-12T23:52:59.928Z</time>
      </trkpt>
      <trkpt lat="53.220202" lon="-1.574771"><ele>341.8</ele></trkpt>
        <time>2026-03-12T23:54:11.113Z</time>
      </trkpt>
      <trkpt lat="53.219930" lon="-1.573754"><ele>341.8</ele></trkpt>
        <time>2026-03-12T23:55:19.516Z</time>
      </trkpt>
      <trkpt lat="53.219535" lon="-1.572511"><ele>342.0</ele></trkpt>
        <time>2026-03-12T23:56:43.845Z</time>
      </trkpt>
      <trkpt lat="53.219524" lon="-1.571989"><ele>342.5</ele></trkpt>
        <time>2026-03-12T23:57:16.413Z</time>
      </trkpt>
      <trkpt lat="53.219583" lon="-1.571284"><ele>342.9</ele></trkpt>
        <time>2026-03-12T23:58:01.215Z</time>
      </trkpt>
      <trkpt lat="53.219600" lon="-1.570220"><ele>343.2</ele></trkpt>
        <time>2026-03-12T23:59:08.753Z</time>
      </trkpt>
      <trkpt lat="53.219613" lon="-1.569577"><ele>342.0</ele></trkpt>
        <time>2026-03-12T23:59:50.401Z</time>
      </trkpt>
      <trkpt lat="53.219596" lon="-1.568702"><ele>342.2</ele></trkpt>
        <time>2026-03-13T00:00:45.381Z</time>
      </trkpt>
      <trkpt lat="53.219637" lon="-1.568700"><ele>342.0</ele></trkpt>
        <time>2026-03-13T00:00:49.476Z</time>
      </trkpt>
      <trkpt lat="53.219611" lon="-1.568543"><ele>342.0</ele></trkpt>
        <time>2026-03-13T00:00:59.237Z</time>
      </trkpt>
      <trkpt lat="53.219514" lon="-1.568494"><ele>342.5</ele></trkpt>
        <time>2026-03-13T00:01:09.380Z</time>
      </trkpt>
      <trkpt lat="53.219321" lon="-1.568488"><ele>343.2</ele></trkpt>
        <time>2026-03-13T00:01:28.700Z</time>
      </trkpt>
      <trkpt lat="53.219239" lon="-1.568417"><ele>343.6</ele></trkpt>
        <time>2026-03-13T00:01:37.946Z</time>
      </trkpt>
      <trkpt lat="53.219181" lon="-1.568299"><ele>343.8</ele></trkpt>
        <time>2026-03-13T00:01:47.095Z</time>
      </trkpt>
      <trkpt lat="53.219078" lon="-1.568025"><ele>344.4</ele></trkpt>
        <time>2026-03-13T00:02:06.485Z</time>
      </trkpt>
      <trkpt lat="53.219047" lon="-1.567708"><ele>345.0</ele></trkpt>
        <time>2026-03-13T00:02:25.737Z</time>
      </trkpt>
      <trkpt lat="53.218937" lon="-1.567450"><ele>345.3</ele></trkpt>
        <time>2026-03-13T00:02:44.726Z</time>
      </trkpt>
      <trkpt lat="53.218580" lon="-1.567457"><ele>346.9</ele></trkpt>
        <time>2026-03-13T00:03:20.474Z</time>
      </trkpt>
      <trkpt lat="53.218487" lon="-1.567427"><ele>347.2</ele></trkpt>
        <time>2026-03-13T00:03:29.956Z</time>
      </trkpt>
      <trkpt lat="53.218236" lon="-1.567214"><ele>349.1</ele></trkpt>
        <time>2026-03-13T00:03:58.148Z</time>
      </trkpt>
      <trkpt lat="53.217965" lon="-1.567032"><ele>351.2</ele></trkpt>
        <time>2026-03-13T00:04:27.400Z</time>
      </trkpt>
      <trkpt lat="53.217897" lon="-1.566732"><ele>351.3</ele></trkpt>
        <time>2026-03-13T00:04:46.635Z</time>
      </trkpt>
      <trkpt lat="53.217844" lon="-1.566586"><ele>351.3</ele></trkpt>
        <time>2026-03-13T00:04:56.872Z</time>
      </trkpt>
      <trkpt lat="53.217768" lon="-1.566491"><ele>351.8</ele></trkpt>
        <time>2026-03-13T00:05:06.377Z</time>
      </trkpt>
      <trkpt lat="53.217712" lon="-1.566373"><ele>352.1</ele></trkpt>
        <time>2026-03-13T00:05:15.404Z</time>
      </trkpt>
      <trkpt lat="53.217551" lon="-1.565968"><ele>353.7</ele></trkpt>
        <time>2026-03-13T00:05:44.548Z</time>
      </trkpt>
      <trkpt lat="53.217512" lon="-1.565822"><ele>354.4</ele></trkpt>
        <time>2026-03-13T00:05:54.134Z</time>
      </trkpt>
      <trkpt lat="53.217257" lon="-1.565164"><ele>353.9</ele></trkpt>
        <time>2026-03-13T00:06:41.125Z</time>
      </trkpt>
      <trkpt lat="53.216961" lon="-1.564535"><ele>355.9</ele></trkpt>
        <time>2026-03-13T00:07:29.087Z</time>
      </trkpt>
      <trkpt lat="53.216709" lon="-1.564085"><ele>357.0</ele></trkpt>
        <time>2026-03-13T00:08:06.019Z</time>
      </trkpt>
      <trkpt lat="53.216430" lon="-1.563424"><ele>359.2</ele></trkpt>
        <time>2026-03-13T00:08:54.504Z</time>
      </trkpt>
      <trkpt lat="53.216228" lon="-1.562903"><ele>360.3</ele></trkpt>
        <time>2026-03-13T00:09:31.722Z</time>
      </trkpt>
      <trkpt lat="53.216107" lon="-1.562661"><ele>360.2</ele></trkpt>
        <time>2026-03-13T00:09:50.626Z</time>
      </trkpt>
      <trkpt lat="53.216029" lon="-1.562559"><ele>360.8</ele></trkpt>
        <time>2026-03-13T00:10:00.544Z</time>
      </trkpt>
      <trkpt lat="53.215836" lon="-1.562195"><ele>362.5</ele></trkpt>
        <time>2026-03-13T00:10:29.691Z</time>
      </trkpt>
      <trkpt lat="53.215752" lon="-1.562133"><ele>362.9</ele></trkpt>
        <time>2026-03-13T00:10:38.885Z</time>
      </trkpt>
      <trkpt lat="53.215680" lon="-1.562230"><ele>363.3</ele></trkpt>
        <time>2026-03-13T00:10:48.146Z</time>
      </trkpt>
      <trkpt lat="53.215619" lon="-1.562347"><ele>363.3</ele></trkpt>
        <time>2026-03-13T00:10:57.445Z</time>
      </trkpt>
      <trkpt lat="53.215540" lon="-1.562439"><ele>363.8</ele></trkpt>
        <time>2026-03-13T00:11:07.086Z</time>
      </trkpt>
      <trkpt lat="53.215450" lon="-1.562465"><ele>364.2</ele></trkpt>
        <time>2026-03-13T00:11:16.230Z</time>
      </trkpt>
      <trkpt lat="53.215272" lon="-1.562082"><ele>365.6</ele></trkpt>
        <time>2026-03-13T00:11:45.296Z</time>
      </trkpt>
      <trkpt lat="53.215088" lon="-1.561737"><ele>366.1</ele></trkpt>
        <time>2026-03-13T00:12:12.990Z</time>
      </trkpt>
      <trkpt lat="53.214813" lon="-1.561276"><ele>366.8</ele></trkpt>
        <time>2026-03-13T00:12:51.989Z</time>
      </trkpt>
      <trkpt lat="53.214734" lon="-1.561195"><ele>367.2</ele></trkpt>
        <time>2026-03-13T00:13:01.267Z</time>
      </trkpt>
      <trkpt lat="53.214644" lon="-1.561167"><ele>367.5</ele></trkpt>
        <time>2026-03-13T00:13:10.428Z</time>
      </trkpt>
      <trkpt lat="53.214553" lon="-1.561165"><ele>367.9</ele></trkpt>
        <time>2026-03-13T00:13:19.536Z</time>
      </trkpt>
      <trkpt lat="53.214392" lon="-1.561312"><ele>368.8</ele></trkpt>
        <time>2026-03-13T00:13:37.900Z</time>
      </trkpt>
      <trkpt lat="53.214316" lon="-1.561412"><ele>368.9</ele></trkpt>
        <time>2026-03-13T00:13:47.583Z</time>
      </trkpt>
      <trkpt lat="53.214217" lon="-1.561625"><ele>368.8</ele></trkpt>
        <time>2026-03-13T00:14:03.742Z</time>
      </trkpt>
      <trkpt lat="53.214207" lon="-1.561937"><ele>368.6</ele></trkpt>
        <time>2026-03-13T00:14:22.466Z</time>
      </trkpt>
      <trkpt lat="53.214236" lon="-1.562087"><ele>368.5</ele></trkpt>
        <time>2026-03-13T00:14:31.912Z</time>
      </trkpt>
      <trkpt lat="53.214230" lon="-1.562301"><ele>368.4</ele></trkpt>
        <time>2026-03-13T00:14:44.751Z</time>
      </trkpt>
      <trkpt lat="53.214143" lon="-1.562384"><ele>368.1</ele></trkpt>
        <time>2026-03-13T00:14:54.778Z</time>
      </trkpt>
      <trkpt lat="53.214070" lon="-1.562278"><ele>368.2</ele></trkpt>
        <time>2026-03-13T00:15:04.459Z</time>
      </trkpt>
      <trkpt lat="53.214161" lon="-1.562276"><ele>368.4</ele></trkpt>
        <time>2026-03-13T00:15:13.567Z</time>
      </trkpt>
      <trkpt lat="53.214299" lon="-1.562152"><ele>368.4</ele></trkpt>
        <time>2026-03-13T00:15:29.250Z</time>
      </trkpt>
      <trkpt lat="53.214362" lon="-1.562031"><ele>368.1</ele></trkpt>
        <time>2026-03-13T00:15:38.859Z</time>
      </trkpt>
      <trkpt lat="53.214352" lon="-1.561869"><ele>368.2</ele></trkpt>
        <time>2026-03-13T00:15:48.618Z</time>
      </trkpt>
      <trkpt lat="53.214373" lon="-1.561563"><ele>368.7</ele></trkpt>
        <time>2026-03-13T00:16:07.077Z</time>
      </trkpt>
      <trkpt lat="53.214352" lon="-1.561401"><ele>368.9</ele></trkpt>
        <time>2026-03-13T00:16:17.010Z</time>
      </trkpt>
      <trkpt lat="53.214302" lon="-1.561274"><ele>368.8</ele></trkpt>
        <time>2026-03-13T00:16:26.118Z</time>
      </trkpt>
      <trkpt lat="53.214150" lon="-1.560698"><ele>368.5</ele></trkpt>
        <time>2026-03-13T00:17:03.841Z</time>
      </trkpt>
      <trkpt lat="53.214017" lon="-1.560458"><ele>368.1</ele></trkpt>
        <time>2026-03-13T00:17:23.438Z</time>
      </trkpt>
      <trkpt lat="53.213841" lon="-1.560329"><ele>367.9</ele></trkpt>
        <time>2026-03-13T00:17:42.675Z</time>
      </trkpt>
      <trkpt lat="53.213764" lon="-1.560241"><ele>367.9</ele></trkpt>
        <time>2026-03-13T00:17:52.014Z</time>
      </trkpt>
      <trkpt lat="53.213779" lon="-1.560088"><ele>367.6</ele></trkpt>
        <time>2026-03-13T00:18:01.307Z</time>
      </trkpt>
      <trkpt lat="53.213741" lon="-1.559937"><ele>367.2</ele></trkpt>
        <time>2026-03-13T00:18:11.124Z</time>
      </trkpt>
      <trkpt lat="53.213439" lon="-1.559255"><ele>366.4</ele></trkpt>
        <time>2026-03-13T00:19:01.970Z</time>
      </trkpt>
      <trkpt lat="53.213370" lon="-1.559154"><ele>366.6</ele></trkpt>
        <time>2026-03-13T00:19:11.155Z</time>
      </trkpt>
      <trkpt lat="53.213218" lon="-1.558748"><ele>366.9</ele></trkpt>
        <time>2026-03-13T00:19:39.857Z</time>
      </trkpt>
      <trkpt lat="53.213154" lon="-1.558630"><ele>366.9</ele></trkpt>
        <time>2026-03-13T00:19:49.400Z</time>
      </trkpt>
      <trkpt lat="53.213077" lon="-1.558341"><ele>366.3</ele></trkpt>
        <time>2026-03-13T00:20:08.360Z</time>
      </trkpt>
      <trkpt lat="53.213015" lon="-1.558040"><ele>366.0</ele></trkpt>
        <time>2026-03-13T00:20:27.438Z</time>
      </trkpt>
      <trkpt lat="53.212963" lon="-1.557906"><ele>366.0</ele></trkpt>
        <time>2026-03-13T00:20:37.008Z</time>
      </trkpt>
      <trkpt lat="53.212843" lon="-1.557673"><ele>366.0</ele></trkpt>
        <time>2026-03-13T00:20:55.426Z</time>
      </trkpt>
      <trkpt lat="53.212805" lon="-1.557531"><ele>366.0</ele></trkpt>
        <time>2026-03-13T00:21:04.747Z</time>
      </trkpt>
      <trkpt lat="53.212809" lon="-1.557374"><ele>366.0</ele></trkpt>
        <time>2026-03-13T00:21:14.165Z</time>
      </trkpt>
      <trkpt lat="53.212845" lon="-1.557224"><ele>366.0</ele></trkpt>
        <time>2026-03-13T00:21:23.850Z</time>
      </trkpt>
      <trkpt lat="53.212810" lon="-1.557086"><ele>366.0</ele></trkpt>
        <time>2026-03-13T00:21:32.831Z</time>
      </trkpt>
      <trkpt lat="53.212747" lon="-1.556969"><ele>366.0</ele></trkpt>
        <time>2026-03-13T00:21:42.261Z</time>
      </trkpt>
      <trkpt lat="53.212709" lon="-1.556818"><ele>366.0</ele></trkpt>
        <time>2026-03-13T00:21:52.077Z</time>
      </trkpt>
      <trkpt lat="53.212630" lon="-1.556748"><ele>366.0</ele></trkpt>
        <time>2026-03-13T00:22:01.027Z</time>
      </trkpt>
      <trkpt lat="53.212568" lon="-1.556629"><ele>365.9</ele></trkpt>
        <time>2026-03-13T00:22:10.480Z</time>
      </trkpt>
      <trkpt lat="53.212470" lon="-1.556369"><ele>365.3</ele></trkpt>
        <time>2026-03-13T00:22:28.891Z</time>
      </trkpt>
      <trkpt lat="53.212375" lon="-1.556390"><ele>365.2</ele></trkpt>
        <time>2026-03-13T00:22:38.482Z</time>
      </trkpt>
      <trkpt lat="53.212229" lon="-1.556114"><ele>364.5</ele></trkpt>
        <time>2026-03-13T00:23:00.551Z</time>
      </trkpt>
      <trkpt lat="53.212120" lon="-1.555863"><ele>364.2</ele></trkpt>
        <time>2026-03-13T00:23:19.133Z</time>
      </trkpt>
      <trkpt lat="53.212068" lon="-1.555723"><ele>364.3</ele></trkpt>
        <time>2026-03-13T00:23:29.006Z</time>
      </trkpt>
      <trkpt lat="53.212034" lon="-1.555416"><ele>363.5</ele></trkpt>
        <time>2026-03-13T00:23:47.717Z</time>
      </trkpt>
      <trkpt lat="53.211973" lon="-1.555286"><ele>363.6</ele></trkpt>
        <time>2026-03-13T00:23:57.614Z</time>
      </trkpt>
      <trkpt lat="53.211901" lon="-1.555187"><ele>363.9</ele></trkpt>
        <time>2026-03-13T00:24:06.948Z</time>
      </trkpt>
      <trkpt lat="53.211879" lon="-1.555029"><ele>363.9</ele></trkpt>
        <time>2026-03-13T00:24:16.670Z</time>
      </trkpt>
      <trkpt lat="53.211877" lon="-1.554879"><ele>363.9</ele></trkpt>
        <time>2026-03-13T00:24:25.662Z</time>
      </trkpt>
      <trkpt lat="53.211908" lon="-1.554721"><ele>363.9</ele></trkpt>
        <time>2026-03-13T00:24:35.626Z</time>
      </trkpt>
      <trkpt lat="53.211848" lon="-1.554609"><ele>363.7</ele></trkpt>
        <time>2026-03-13T00:24:44.633Z</time>
      </trkpt>
      <trkpt lat="53.211723" lon="-1.554569"><ele>363.3</ele></trkpt>
        <time>2026-03-13T00:24:57.370Z</time>
      </trkpt>
      <trkpt lat="53.211606" lon="-1.554328"><ele>362.9</ele></trkpt>
        <time>2026-03-13T00:25:15.963Z</time>
      </trkpt>
      <trkpt lat="53.211446" lon="-1.554169"><ele>362.3</ele></trkpt>
        <time>2026-03-13T00:25:34.597Z</time>
      </trkpt>
      <trkpt lat="53.211206" lon="-1.553690"><ele>362.4</ele></trkpt>
        <time>2026-03-13T00:26:12.029Z</time>
      </trkpt>
      <trkpt lat="53.211132" lon="-1.553584"><ele>362.7</ele></trkpt>
        <time>2026-03-13T00:26:21.787Z</time>
      </trkpt>
      <trkpt lat="53.211039" lon="-1.553519"><ele>362.9</ele></trkpt>
        <time>2026-03-13T00:26:31.877Z</time>
      </trkpt>
      <trkpt lat="53.210742" lon="-1.553113"><ele>364.2</ele></trkpt>
        <time>2026-03-13T00:27:10.291Z</time>
      </trkpt>
      <trkpt lat="53.210660" lon="-1.553039"><ele>364.8</ele></trkpt>
        <time>2026-03-13T00:27:19.619Z</time>
      </trkpt>
      <trkpt lat="53.210584" lon="-1.552942"><ele>365.4</ele></trkpt>
        <time>2026-03-13T00:27:29.193Z</time>
      </trkpt>
      <trkpt lat="53.210532" lon="-1.552814"><ele>365.7</ele></trkpt>
        <time>2026-03-13T00:27:38.463Z</time>
      </trkpt>
      <trkpt lat="53.210476" lon="-1.552574"><ele>366.0</ele></trkpt>
        <time>2026-03-13T00:27:53.902Z</time>
      </trkpt>
      <trkpt lat="53.210426" lon="-1.552445"><ele>366.0</ele></trkpt>
        <time>2026-03-13T00:28:03.112Z</time>
      </trkpt>
      <trkpt lat="53.209976" lon="-1.551446"><ele>365.2</ele></trkpt>
        <time>2026-03-13T00:29:18.059Z</time>
      </trkpt>
      <trkpt lat="53.209930" lon="-1.551313"><ele>365.4</ele></trkpt>
        <time>2026-03-13T00:29:27.269Z</time>
      </trkpt>
      <trkpt lat="53.209850" lon="-1.551231"><ele>365.3</ele></trkpt>
        <time>2026-03-13T00:29:36.667Z</time>
      </trkpt>
      <trkpt lat="53.209799" lon="-1.551093"><ele>365.4</ele></trkpt>
        <time>2026-03-13T00:29:46.390Z</time>
      </trkpt>
      <trkpt lat="53.209725" lon="-1.551002"><ele>365.2</ele></trkpt>
        <time>2026-03-13T00:29:55.592Z</time>
      </trkpt>
      <trkpt lat="53.209620" lon="-1.551018"><ele>364.2</ele></trkpt>
        <time>2026-03-13T00:30:06.150Z</time>
      </trkpt>
      <trkpt lat="53.209560" lon="-1.551137"><ele>363.4</ele></trkpt>
        <time>2026-03-13T00:30:15.480Z</time>
      </trkpt>
      <trkpt lat="53.209390" lon="-1.551256"><ele>361.8</ele></trkpt>
        <time>2026-03-13T00:30:33.942Z</time>
      </trkpt>
      <trkpt lat="53.209236" lon="-1.551442"><ele>360.2</ele></trkpt>
        <time>2026-03-13T00:30:52.983Z</time>
      </trkpt>
      <trkpt lat="53.209146" lon="-1.551503"><ele>359.3</ele></trkpt>
        <time>2026-03-13T00:31:02.713Z</time>
      </trkpt>
      <trkpt lat="53.208977" lon="-1.551688"><ele>357.4</ele></trkpt>
        <time>2026-03-13T00:31:22.961Z</time>
      </trkpt>
      <trkpt lat="53.208790" lon="-1.551797"><ele>355.5</ele></trkpt>
        <time>2026-03-13T00:31:42.805Z</time>
      </trkpt>
      <trkpt lat="53.208627" lon="-1.551926"><ele>353.5</ele></trkpt>
        <time>2026-03-13T00:32:00.874Z</time>
      </trkpt>
      <trkpt lat="53.208438" lon="-1.552023"><ele>351.6</ele></trkpt>
        <time>2026-03-13T00:32:20.676Z</time>
      </trkpt>
      <trkpt lat="53.208355" lon="-1.552103"><ele>350.7</ele></trkpt>
        <time>2026-03-13T00:32:30.273Z</time>
      </trkpt>
      <trkpt lat="53.208254" lon="-1.552514"><ele>349.8</ele></trkpt>
        <time>2026-03-13T00:32:56.915Z</time>
      </trkpt>
      <trkpt lat="53.208159" lon="-1.552464"><ele>349.2</ele></trkpt>
        <time>2026-03-13T00:33:06.846Z</time>
      </trkpt>
      <trkpt lat="53.208159" lon="-1.552469"><ele>349.2</ele></trkpt>
        <time>2026-03-13T00:33:07.221Z</time>
      </trkpt>
      <trkpt lat="53.207985" lon="-1.553283"><ele>348.5</ele></trkpt>
        <time>2026-03-13T00:34:02.720Z</time>
      </trkpt>
      <trkpt lat="53.207807" lon="-1.553905"><ele>345.7</ele></trkpt>
        <time>2026-03-13T00:34:45.529Z</time>
      </trkpt>
      <trkpt lat="53.207707" lon="-1.554082"><ele>344.1</ele></trkpt>
        <time>2026-03-13T00:35:00.450Z</time>
      </trkpt>
      <trkpt lat="53.207469" lon="-1.554353"><ele>342.1</ele></trkpt>
        <time>2026-03-13T00:35:29.456Z</time>
      </trkpt>
      <trkpt lat="53.207707" lon="-1.554082"><ele>344.1</ele></trkpt>
        <time>2026-03-13T00:35:58.567Z</time>
      </trkpt>
      <trkpt lat="53.207807" lon="-1.553905"><ele>345.7</ele></trkpt>
        <time>2026-03-13T00:36:13.546Z</time>
      </trkpt>
      <trkpt lat="53.207985" lon="-1.553283"><ele>348.5</ele></trkpt>
        <time>2026-03-13T00:36:56.946Z</time>
      </trkpt>
      <trkpt lat="53.208159" lon="-1.552469"><ele>349.2</ele></trkpt>
        <time>2026-03-13T00:37:53.373Z</time>
      </trkpt>
      <trkpt lat="53.208159" lon="-1.552464"><ele>349.2</ele></trkpt>
        <time>2026-03-13T00:37:53.726Z</time>
      </trkpt>
      <trkpt lat="53.208963" lon="-1.548242"><ele>358.4</ele></trkpt>
        <time>2026-03-13T00:42:39.907Z</time>
      </trkpt>
      <trkpt lat="53.209083" lon="-1.547911"><ele>358.6</ele></trkpt>
        <time>2026-03-13T00:43:03.724Z</time>
      </trkpt>
      <trkpt lat="53.209477" lon="-1.547119"><ele>355.7</ele></trkpt>
        <time>2026-03-13T00:44:06.291Z</time>
      </trkpt>
      <trkpt lat="53.211876" lon="-1.542592"><ele>337.1</ele></trkpt>
        <time>2026-03-13T00:50:40.574Z</time>
      </trkpt>
      <trkpt lat="53.212520" lon="-1.541454"><ele>333.7</ele></trkpt>
        <time>2026-03-13T00:52:22.908Z</time>
      </trkpt>
      <trkpt lat="53.213910" lon="-1.538690"><ele>322.7</ele></trkpt>
        <time>2026-03-13T00:56:18.331Z</time>
      </trkpt>
      <trkpt lat="53.213998" lon="-1.538560"><ele>322.4</ele></trkpt>
        <time>2026-03-13T00:56:30.857Z</time>
      </trkpt>
      <trkpt lat="53.214066" lon="-1.538504"><ele>322.1</ele></trkpt>
        <time>2026-03-13T00:56:38.941Z</time>
      </trkpt>
      <trkpt lat="53.214155" lon="-1.538504"><ele>321.4</ele></trkpt>
        <time>2026-03-13T00:56:48.320Z</time>
      </trkpt>
      <trkpt lat="53.214232" lon="-1.538523"><ele>321.0</ele></trkpt>
        <time>2026-03-13T00:56:56.432Z</time>
      </trkpt>
      <trkpt lat="53.214403" lon="-1.538647"><ele>320.0</ele></trkpt>
        <time>2026-03-13T00:57:15.796Z</time>
      </trkpt>
      <trkpt lat="53.214504" lon="-1.538760"><ele>319.6</ele></trkpt>
        <time>2026-03-13T00:57:28.260Z</time>
      </trkpt>
      <trkpt lat="53.214631" lon="-1.539094"><ele>319.3</ele></trkpt>
        <time>2026-03-13T00:57:52.230Z</time>
      </trkpt>
      <trkpt lat="53.214683" lon="-1.539163"><ele>319.1</ele></trkpt>
        <time>2026-03-13T00:57:58.919Z</time>
      </trkpt>
      <trkpt lat="53.214774" lon="-1.539180"><ele>319.7</ele></trkpt>
        <time>2026-03-13T00:58:08.232Z</time>
      </trkpt>
      <trkpt lat="53.214906" lon="-1.539053"><ele>320.7</ele></trkpt>
        <time>2026-03-13T00:58:23.888Z</time>
      </trkpt>
      <trkpt lat="53.216056" lon="-1.536082"><ele>328.9</ele></trkpt>
        <time>2026-03-13T01:02:15.931Z</time>
      </trkpt>
      <trkpt lat="53.219931" lon="-1.538903"><ele>320.4</ele></trkpt>
        <time>2026-03-13T01:09:29.430Z</time>
      </trkpt>
      <trkpt lat="53.220813" lon="-1.539519"><ele>319.9</ele></trkpt>
        <time>2026-03-13T01:11:08.131Z</time>
      </trkpt>
      <trkpt lat="53.220923" lon="-1.539545"><ele>319.9</ele></trkpt>
        <time>2026-03-13T01:11:19.591Z</time>
      </trkpt>
      <trkpt lat="53.221046" lon="-1.539505"><ele>320.0</ele></trkpt>
        <time>2026-03-13T01:11:32.506Z</time>
      </trkpt>
      <trkpt lat="53.221197" lon="-1.539301"><ele>320.5</ele></trkpt>
        <time>2026-03-13T01:11:52.452Z</time>
      </trkpt>
      <trkpt lat="53.222571" lon="-1.535747"><ele>318.5</ele></trkpt>
        <time>2026-03-13T01:16:13.448Z</time>
      </trkpt>
      <trkpt lat="53.222716" lon="-1.535534"><ele>316.6</ele></trkpt>
        <time>2026-03-13T01:16:33.897Z</time>
      </trkpt>
      <trkpt lat="53.222873" lon="-1.535470"><ele>314.9</ele></trkpt>
        <time>2026-03-13T01:16:51.017Z</time>
      </trkpt>
      <trkpt lat="53.223119" lon="-1.535457"><ele>312.4</ele></trkpt>
        <time>2026-03-13T01:17:16.964Z</time>
      </trkpt>
      <trkpt lat="53.223213" lon="-1.535503"><ele>311.8</ele></trkpt>
        <time>2026-03-13T01:17:27.202Z</time>
      </trkpt>
      <trkpt lat="53.223461" lon="-1.535518"><ele>311.3</ele></trkpt>
        <time>2026-03-13T01:17:52.981Z</time>
      </trkpt>
      <trkpt lat="53.223587" lon="-1.535468"><ele>311.3</ele></trkpt>
        <time>2026-03-13T01:18:06.529Z</time>
      </trkpt>
      <trkpt lat="53.223957" lon="-1.535140"><ele>313.7</ele></trkpt>
        <time>2026-03-13T01:18:50.358Z</time>
      </trkpt>
      <trkpt lat="53.224103" lon="-1.535058"><ele>314.2</ele></trkpt>
        <time>2026-03-13T01:19:06.572Z</time>
      </trkpt>
      <trkpt lat="53.224385" lon="-1.534987"><ele>313.5</ele></trkpt>
        <time>2026-03-13T01:19:35.885Z</time>
      </trkpt>
      <trkpt lat="53.224751" lon="-1.534910"><ele>311.7</ele></trkpt>
        <time>2026-03-13T01:20:13.116Z</time>
      </trkpt>
      <trkpt lat="53.225137" lon="-1.534742"><ele>308.8</ele></trkpt>
        <time>2026-03-13T01:20:53.495Z</time>
      </trkpt>
      <trkpt lat="53.225670" lon="-1.544967"><ele>325.3</ele></trkpt>
        <time>2026-03-13T01:31:53.759Z</time>
      </trkpt>
      <trkpt lat="53.227846" lon="-1.544718"><ele>313.5</ele></trkpt>
        <time>2026-03-13T01:35:51.696Z</time>
      </trkpt>
      <trkpt lat="53.232651" lon="-1.544079"><ele>287.4</ele></trkpt>
        <time>2026-03-13T01:44:45.353Z</time>
      </trkpt>
      <trkpt lat="53.234006" lon="-1.543930"><ele>283.4</ele></trkpt>
        <time>2026-03-13T01:47:10.072Z</time>
      </trkpt>
      <trkpt lat="53.236552" lon="-1.543590"><ele>274.3</ele></trkpt>
        <time>2026-03-13T01:51:41.156Z</time>
      </trkpt>
      <trkpt lat="53.238214" lon="-1.543803"><ele>278.9</ele></trkpt>
        <time>2026-03-13T01:54:30.276Z</time>
      </trkpt>
      <trkpt lat="53.238149" lon="-1.545954"><ele>273.7</ele></trkpt>
        <time>2026-03-13T01:56:46.709Z</time>
      </trkpt>
      <trkpt lat="53.238067" lon="-1.547734"><ele>268.4</ele></trkpt>
        <time>2026-03-13T01:58:39.451Z</time>
      </trkpt>
      <trkpt lat="53.237959" lon="-1.550004"><ele>269.5</ele></trkpt>
        <time>2026-03-13T02:00:59.744Z</time>
      </trkpt>
      <trkpt lat="53.237941" lon="-1.550331"><ele>269.4</ele></trkpt>
        <time>2026-03-13T02:01:19.982Z</time>
      </trkpt>
      <trkpt lat="53.237781" lon="-1.553984"><ele>267.6</ele></trkpt>
        <time>2026-03-13T02:05:08.991Z</time>
      </trkpt>
      <trkpt lat="53.237780" lon="-1.554023"><ele>267.4</ele></trkpt>
        <time>2026-03-13T02:05:11.508Z</time>
      </trkpt>
      <trkpt lat="53.237803" lon="-1.556427"><ele>261.1</ele></trkpt>
        <time>2026-03-13T02:07:42.908Z</time>
      </trkpt>
      <trkpt lat="53.237851" lon="-1.557379"><ele>260.6</ele></trkpt>
        <time>2026-03-13T02:08:42.782Z</time>
      </trkpt>
      <trkpt lat="53.237963" lon="-1.558738"><ele>256.8</ele></trkpt>
        <time>2026-03-13T02:10:09.191Z</time>
      </trkpt>
      <trkpt lat="53.238151" lon="-1.560399"><ele>252.5</ele></trkpt>
        <time>2026-03-13T02:11:58.557Z</time>
      </trkpt>
      <trkpt lat="53.238268" lon="-1.561190"><ele>250.4</ele></trkpt>
        <time>2026-03-13T02:12:52.320Z</time>
      </trkpt>
      <trkpt lat="53.238600" lon="-1.563051"><ele>242.6</ele></trkpt>
        <time>2026-03-13T02:15:00.766Z</time>
      </trkpt>
      <trkpt lat="53.238877" lon="-1.564318"><ele>238.5</ele></trkpt>
        <time>2026-03-13T02:16:28.900Z</time>
      </trkpt>
      <trkpt lat="53.239193" lon="-1.565540"><ele>237.7</ele></trkpt>
        <time>2026-03-13T02:17:55.183Z</time>
      </trkpt>
      <trkpt lat="53.239575" lon="-1.566879"><ele>232.5</ele></trkpt>
        <time>2026-03-13T02:19:30.849Z</time>
      </trkpt>
      <trkpt lat="53.240978" lon="-1.571358"><ele>223.9</ele></trkpt>
        <time>2026-03-13T02:24:54.970Z</time>
      </trkpt>
      <trkpt lat="53.241123" lon="-1.571823"><ele>222.3</ele></trkpt>
        <time>2026-03-13T02:25:28.262Z</time>
      </trkpt>
      <trkpt lat="53.241294" lon="-1.572481"><ele>220.9</ele></trkpt>
        <time>2026-03-13T02:26:13.236Z</time>
      </trkpt>
      <trkpt lat="53.241391" lon="-1.572987"><ele>222.8</ele></trkpt>
        <time>2026-03-13T02:26:45.963Z</time>
      </trkpt>
      <trkpt lat="53.241474" lon="-1.573733"><ele>225.0</ele></trkpt>
        <time>2026-03-13T02:27:31.527Z</time>
      </trkpt>
      <trkpt lat="53.241487" lon="-1.574510"><ele>226.4</ele></trkpt>
        <time>2026-03-13T02:28:19.635Z</time>
      </trkpt>
      <trkpt lat="53.241467" lon="-1.575298"><ele>225.6</ele></trkpt>
        <time>2026-03-13T02:29:08.706Z</time>
      </trkpt>
      <trkpt lat="53.241484" lon="-1.575725"><ele>223.3</ele></trkpt>
        <time>2026-03-13T02:29:34.743Z</time>
      </trkpt>
      <trkpt lat="53.241556" lon="-1.576056"><ele>223.3</ele></trkpt>
        <time>2026-03-13T02:29:55.896Z</time>
      </trkpt>
      <trkpt lat="53.241746" lon="-1.576628"><ele>222.1</ele></trkpt>
        <time>2026-03-13T02:30:35.748Z</time>
      </trkpt>
      <trkpt lat="53.241879" lon="-1.576913"><ele>221.5</ele></trkpt>
        <time>2026-03-13T02:30:58.160Z</time>
      </trkpt>
      <trkpt lat="53.241898" lon="-1.576955"><ele>221.0</ele></trkpt>
        <time>2026-03-13T02:31:01.478Z</time>
      </trkpt>
      <trkpt lat="53.242391" lon="-1.577788"><ele>219.4</ele></trkpt>
        <time>2026-03-13T02:32:16.189Z</time>
      </trkpt>
      <trkpt lat="53.242670" lon="-1.578259"><ele>217.2</ele></trkpt>
        <time>2026-03-13T02:32:59.213Z</time>
      </trkpt>
      <trkpt lat="53.243116" lon="-1.579106"><ele>215.1</ele></trkpt>
        <time>2026-03-13T02:34:12.743Z</time>
      </trkpt>
      <trkpt lat="53.243611" lon="-1.579862"><ele>208.6</ele></trkpt>
        <time>2026-03-13T02:35:25.585Z</time>
      </trkpt>
      <trkpt lat="53.244481" lon="-1.580956"><ele>210.8</ele></trkpt>
        <time>2026-03-13T02:37:23.038Z</time>
      </trkpt>
      <trkpt lat="53.244771" lon="-1.581409"><ele>209.3</ele></trkpt>
        <time>2026-03-13T02:38:04.697Z</time>
      </trkpt>
      <trkpt lat="53.245005" lon="-1.581931"><ele>207.1</ele></trkpt>
        <time>2026-03-13T02:38:44.471Z</time>
      </trkpt>
      <trkpt lat="53.245026" lon="-1.582002"><ele>206.8</ele></trkpt>
        <time>2026-03-13T02:38:49.314Z</time>
      </trkpt>
      <trkpt lat="53.245165" lon="-1.582484"><ele>206.0</ele></trkpt>
        <time>2026-03-13T02:39:21.650Z</time>
      </trkpt>
      <trkpt lat="53.245286" lon="-1.582393"><ele>207.3</ele></trkpt>
        <time>2026-03-13T02:39:34.921Z</time>
      </trkpt>
      <trkpt lat="53.245325" lon="-1.582321"><ele>208.3</ele></trkpt>
        <time>2026-03-13T02:39:40.789Z</time>
      </trkpt>
      <trkpt lat="53.245341" lon="-1.582140"><ele>209.3</ele></trkpt>
        <time>2026-03-13T02:39:51.867Z</time>
      </trkpt>
      <trkpt lat="53.245432" lon="-1.582157"><ele>209.9</ele></trkpt>
        <time>2026-03-13T02:40:01.355Z</time>
      </trkpt>
      <trkpt lat="53.245432" lon="-1.582196"><ele>209.8</ele></trkpt>
        <time>2026-03-13T02:40:03.726Z</time>
      </trkpt>
      <trkpt lat="53.245527" lon="-1.582199"><ele>210.2</ele></trkpt>
        <time>2026-03-13T02:40:13.454Z</time>
      </trkpt>
      <trkpt lat="53.245527" lon="-1.582145"><ele>210.3</ele></trkpt>
        <time>2026-03-13T02:40:16.874Z</time>
      </trkpt>
    </trkseg>
  </trk>
<!-- ele-hash:ed1c90b473cd1c6e -->
</gpx>