<?xml version="1.0" encoding="UTF-8" standalone="yes"?>
<gpx version="1.1" creator="OS Maps - Web" xmlns="http://www.topografix.com/GPX/1/1"
xmlns:xsi="http://www.w3.org/2001/XMLSchema-instance"
xsi:schemaLocation="http://www.topografix.com/GPX/1/1 http://www.topografix.com/GPX/1/1/gpx.xsd"
xmlns:gs="http://www.topografix.com/GPX/gpx_style/0/2"
xmlns:gh="https://graphhopper.com/public/schema/gpx/1.1"
xmlns:os="https://ordnancesurvey.co.uk/public/schema/route/0.1">
    <metadata>
        <name>Harthill Moor (Ethel) - Circular (www.thelostpeak.co.uk)</name>
        <desc></desc>
        <bounds minlat="53.1590900" minlon="-1.7038000" maxlat="53.1736400" maxlon="-1.6742800"/>
        <extensions>
            <os:version>2.0</os:version>
            <os:point lat="53.1732400" lon="-1.6947300" type="start"/>
            <os:point lat="53.1732400" lon="-1.6947300" type="end"/>
            <os:activity>ON_FOOT_WALKING</os:activity>
            <os:difficulty>MODERATE</os:difficulty>
            <os:paths/>
            <os:distance>5980.2248199</os:distance>
            <os:elevation_ascent>181.0200000</os:elevation_ascent>
        </extensions>
    </metadata>
    <wpt lat="53.1732400" lon="-1.6947300"/>
    <wpt lat="53.1727800" lon="-1.6967000"/>
    <wpt lat="53.1724500" lon="-1.6995200"/>
    <wpt lat="53.1720900" lon="-1.7004500"/>
    <wpt lat="53.1714300" lon="-1.7014400"/>
    <wpt lat="53.1699500" lon="-1.7029600"/>
    <wpt lat="53.1693500" lon="-1.7028400"/>
    <wpt lat="53.1689900" lon="-1.7032300"/>
    <wpt lat="53.1677300" lon="-1.7038000"/>
    <wpt lat="53.1669800" lon="-1.7034100"/>
    <wpt lat="53.1666900" lon="-1.7036100"/>
    <wpt lat="53.1661300" lon="-1.7025200"/>
    <wpt lat="53.1662800" lon="-1.7014700"/>
    <wpt lat="53.1659400" lon="-1.6988500"/>
    <wpt lat="53.1650300" lon="-1.6966100"/>
    <wpt lat="53.1651300" lon="-1.6950400"/>
    <wpt lat="53.1639700" lon="-1.6916200"/>
    <wpt lat="53.1640700" lon="-1.6911500"/>
    <wpt lat="53.1635300" lon="-1.6896500"/>
    <wpt lat="53.1634900" lon="-1.6881200"/>
    <wpt lat="53.1625200" lon="-1.6848600"/>
    <wpt lat="53.1623400" lon="-1.6848200"/>
    <wpt lat="53.1620700" lon="-1.6826500"/>
    <wpt lat="53.1607300" lon="-1.6807700"/>
    <wpt lat="53.1606800" lon="-1.6795300"/>
    <wpt lat="53.1592800" lon="-1.6768500"/>
    <wpt lat="53.1591000" lon="-1.6759800"/>
    <wpt lat="53.1598500" lon="-1.6752600"/>
    <wpt lat="53.1614100" lon="-1.6745000"/>
    <wpt lat="53.1632500" lon="-1.6742800"/>
    <wpt lat="53.1640700" lon="-1.6746100"/>
    <wpt lat="53.1642700" lon="-1.6749300"/>
    <wpt lat="53.1643000" lon="-1.6762000"/>
    <wpt lat="53.1645800" lon="-1.6766700"/>
    <wpt lat="53.1659600" lon="-1.6782400"/>
    <wpt lat="53.1672000" lon="-1.6788100"/>
    <wpt lat="53.1689200" lon="-1.6800100"/>
    <wpt lat="53.1692900" lon="-1.6812300"/>
    <wpt lat="53.1698600" lon="-1.6811800"/>
    <wpt lat="53.1712300" lon="-1.6825100"/>
    <wpt lat="53.1719700" lon="-1.6827200"/>
    <wpt lat="53.1722400" lon="-1.6823700"/>
    <wpt lat="53.1728600" lon="-1.6824400"/>
    <wpt lat="53.1732400" lon="-1.6855700"/>
    <wpt lat="53.1730500" lon="-1.6877500"/>
    <wpt lat="53.1726000" lon="-1.6891200"/>
    <wpt lat="53.1727700" lon="-1.6897400"/>
    <wpt lat="53.1731000" lon="-1.6899600"/>
    <wpt lat="53.1731000" lon="-1.6903300"/>
    <wpt lat="53.1736400" lon="-1.6911500"/>
    <wpt lat="53.1732800" lon="-1.6927600"/>
    <wpt lat="53.1732400" lon="-1.6947300"/>
    <trk>
        <name>Harthill Moor (Ethel) - Circular (www.thelostpeak.co.uk)</name>
        <trkseg>
            <trkpt lat="53.1732400" lon="-1.6947300"><ele>197.3</ele></trkpt>
            <trkpt lat="53.1731900" lon="-1.6947600"><ele>196.1</ele></trkpt>
            <trkpt lat="53.1731600" lon="-1.6947500"><ele>195.5</ele></trkpt>
            <trkpt lat="53.1731100" lon="-1.6950400"><ele>196.6</ele></trkpt>
            <trkpt lat="53.1729000" lon="-1.6960200"><ele>198.1</ele></trkpt>
            <trkpt lat="53.1728200" lon="-1.6965900"><ele>196.9</ele></trkpt>
            <trkpt lat="53.1727800" lon="-1.6967000"><ele>195.1</ele></trkpt>
            <trkpt lat="53.1727300" lon="-1.6970900"><ele>193.1</ele></trkpt>
            <trkpt lat="53.1725200" lon="-1.6984100"><ele>189.8</ele></trkpt>
            <trkpt lat="53.1724800" lon="-1.6987400"><ele>190.0</ele></trkpt>
            <trkpt lat="53.1724800" lon="-1.6991200"><ele>190.4</ele></trkpt>
            <trkpt lat="53.1724500" lon="-1.6995200"><ele>188.9</ele></trkpt>
            <trkpt lat="53.1720900" lon="-1.7004500"><ele>184.0</ele></trkpt>
            <trkpt lat="53.1714300" lon="-1.7014400"><ele>179.8</ele></trkpt>
            <trkpt lat="53.1704200" lon="-1.7024300"><ele>179.4</ele></trkpt>
            <trkpt lat="53.1699500" lon="-1.7029600"><ele>178.5</ele></trkpt>
            <trkpt lat="53.1697600" lon="-1.7029800"><ele>179.7</ele></trkpt>
            <trkpt lat="53.1695200" lon="-1.7028400"><ele>181.0</ele></trkpt>
            <trkpt lat="53.1694800" lon="-1.7028000"><ele>181.9</ele></trkpt>
            <trkpt lat="53.1693500" lon="-1.7028400"><ele>183.4</ele></trkpt>
            <trkpt lat="53.1689900" lon="-1.7032300"><ele>180.4</ele></trkpt>
            <trkpt lat="53.1682900" lon="-1.7036400"><ele>181.1</ele></trkpt>
            <trkpt lat="53.1677300" lon="-1.7038000"><ele>185.3</ele></trkpt>
            <trkpt lat="53.1675600" lon="-1.7037400"><ele>186.5</ele></trkpt>
            <trkpt lat="53.1671200" lon="-1.7034600"><ele>186.8</ele></trkpt>
            <trkpt lat="53.1669800" lon="-1.7034100"><ele>186.3</ele></trkpt>
            <trkpt lat="53.1668500" lon="-1.7034800"><ele>186.6</ele></trkpt>
            <trkpt lat="53.1667800" lon="-1.7035800"><ele>187.8</ele></trkpt>
            <trkpt lat="53.1667400" lon="-1.7036100"><ele>187.8</ele></trkpt>
            <trkpt lat="53.1666900" lon="-1.7036100"><ele>187.9</ele></trkpt>
            <trkpt lat="53.1666100" lon="-1.7034100"><ele>187.6</ele></trkpt>
            <trkpt lat="53.1664800" lon="-1.7031700"><ele>189.1</ele></trkpt>
            <trkpt lat="53.1663500" lon="-1.7030300"><ele>190.8</ele></trkpt>
            <trkpt lat="53.1662800" lon="-1.7029200"><ele>190.2</ele></trkpt>
            <trkpt lat="53.1661300" lon="-1.7025200"><ele>187.1</ele></trkpt>
            <trkpt lat="53.1661400" lon="-1.7023600"><ele>185.5</ele></trkpt>
            <trkpt lat="53.1662300" lon="-1.7020000"><ele>183.8</ele></trkpt>
            <trkpt lat="53.1662100" lon="-1.7017700"><ele>184.1</ele></trkpt>
            <trkpt lat="53.1662800" lon="-1.7015600"><ele>185.5</ele></trkpt>
            <trkpt lat="53.1662800" lon="-1.7014700"><ele>185.6</ele></trkpt>
            <trkpt lat="53.1662600" lon="-1.7014000"><ele>185.2</ele></trkpt>
            <trkpt lat="53.1662400" lon="-1.7012300"><ele>185.0</ele></trkpt>
            <trkpt lat="53.1662400" lon="-1.7009100"><ele>185.3</ele></trkpt>
            <trkpt lat="53.1661800" lon="-1.7006100"><ele>183.2</ele></trkpt>
            <trkpt lat="53.1661500" lon="-1.6998100"><ele>178.8</ele></trkpt>
            <trkpt lat="53.1659800" lon="-1.6992500"><ele>173.9</ele></trkpt>
            <trkpt lat="53.1659400" lon="-1.6988500"><ele>172.4</ele></trkpt>
            <trkpt lat="53.1658700" lon="-1.6987100"><ele>171.3</ele></trkpt>
            <trkpt lat="53.1658100" lon="-1.6985000"><ele>170.4</ele></trkpt>
            <trkpt lat="53.1657100" lon="-1.6984400"><ele>170.5</ele></trkpt>
            <trkpt lat="53.1654700" lon="-1.6977000"><ele>176.7</ele></trkpt>
            <trkpt lat="53.1650300" lon="-1.6966100"><ele>186.8</ele></trkpt>
            <trkpt lat="53.1650200" lon="-1.6965300"><ele>187.1</ele></trkpt>
            <trkpt lat="53.1650200" lon="-1.6963200"><ele>188.3</ele></trkpt>
            <trkpt lat="53.1650600" lon="-1.6956000"><ele>191.0</ele></trkpt>
            <trkpt lat="53.1650800" lon="-1.6954300"><ele>191.3</ele></trkpt>
            <trkpt lat="53.1651200" lon="-1.6952700"><ele>191.6</ele></trkpt>
            <trkpt lat="53.1651400" lon="-1.6951200"><ele>191.5</ele></trkpt>
            <trkpt lat="53.1651300" lon="-1.6950400"><ele>191.5</ele></trkpt>
            <trkpt lat="53.1651100" lon="-1.6949700"><ele>191.4</ele></trkpt>
            <trkpt lat="53.1650300" lon="-1.6948300"><ele>191.6</ele></trkpt>
            <trkpt lat="53.1649800" lon="-1.6946900"><ele>191.8</ele></trkpt>
            <trkpt lat="53.1649400" lon="-1.6943000"><ele>192.7</ele></trkpt>
            <trkpt lat="53.1647000" lon="-1.6935200"><ele>194.8</ele></trkpt>
            <trkpt lat="53.1642500" lon="-1.6925200"><ele>200.4</ele></trkpt>
            <trkpt lat="53.1639700" lon="-1.6916200"><ele>208.6</ele></trkpt>
            <trkpt lat="53.1639600" lon="-1.6915500"><ele>209.8</ele></trkpt>
            <trkpt lat="53.1639800" lon="-1.6914700"><ele>210.0</ele></trkpt>
            <trkpt lat="53.1640200" lon="-1.6914400"><ele>209.8</ele></trkpt>
            <trkpt lat="53.1640700" lon="-1.6913200"><ele>210.5</ele></trkpt>
            <trkpt lat="53.1640700" lon="-1.6911500"><ele>212.1</ele></trkpt>
            <trkpt lat="53.1638100" lon="-1.6903500"><ele>225.4</ele></trkpt>
            <trkpt lat="53.1637800" lon="-1.6902900"><ele>226.8</ele></trkpt>
            <trkpt lat="53.1636900" lon="-1.6902300"><ele>228.4</ele></trkpt>
            <trkpt lat="53.1636600" lon="-1.6901800"><ele>229.0</ele></trkpt>
            <trkpt lat="53.1635300" lon="-1.6896500"><ele>234.0</ele></trkpt>
            <trkpt lat="53.1635300" lon="-1.6893800"><ele>236.2</ele></trkpt>
            <trkpt lat="53.1634900" lon="-1.6891600"><ele>239.6</ele></trkpt>
            <trkpt lat="53.1635300" lon="-1.6889200"><ele>241.4</ele></trkpt>
            <trkpt lat="53.1635200" lon="-1.6886800"><ele>244.3</ele></trkpt>
            <trkpt lat="53.1635300" lon="-1.6884400"><ele>246.6</ele></trkpt>
            <trkpt lat="53.1634900" lon="-1.6881200"><ele>250.4</ele></trkpt>
            <trkpt lat="53.1633400" lon="-1.6876500"><ele>252.6</ele></trkpt>
            <trkpt lat="53.1629100" lon="-1.6860500"><ele>252.9</ele></trkpt>
            <trkpt lat="53.1626000" lon="-1.6852500"><ele>253.3</ele></trkpt>
            <trkpt lat="53.1625200" lon="-1.6848600"><ele>253.0</ele></trkpt>
            <trkpt lat="53.1624800" lon="-1.6848300"><ele>253.7</ele></trkpt>
            <trkpt lat="53.1624300" lon="-1.6848400"><ele>254.2</ele></trkpt>
            <trkpt lat="53.1623400" lon="-1.6848200"><ele>254.9</ele></trkpt>
            <trkpt lat="53.1621300" lon="-1.6828700"><ele>256.7</ele></trkpt>
            <trkpt lat="53.1620700" lon="-1.6826500"><ele>256.9</ele></trkpt>
            <trkpt lat="53.1607300" lon="-1.6807700"><ele>250.1</ele></trkpt>
            <trkpt lat="53.1606800" lon="-1.6795300"><ele>250.2</ele></trkpt>
            <trkpt lat="53.1592800" lon="-1.6768500"><ele>243.4</ele></trkpt>
            <trkpt lat="53.1590900" lon="-1.6760600"><ele>241.6</ele></trkpt>
            <trkpt lat="53.1591000" lon="-1.6759800"><ele>241.4</ele></trkpt>
            <trkpt lat="53.1593000" lon="-1.6757500"><ele>239.6</ele></trkpt>
            <trkpt lat="53.1598500" lon="-1.6752600"><ele>232.6</ele></trkpt>
            <trkpt lat="53.1606900" lon="-1.6749100"><ele>226.2</ele></trkpt>
            <trkpt lat="53.1612600" lon="-1.6745600"><ele>218.3</ele></trkpt>
            <trkpt lat="53.1614100" lon="-1.6745000"><ele>217.2</ele></trkpt>
            <trkpt lat="53.1617500" lon="-1.6744800"><ele>216.1</ele></trkpt>
            <trkpt lat="53.1629200" lon="-1.6743000"><ele>208.1</ele></trkpt>
            <trkpt lat="53.1632500" lon="-1.6742800"><ele>205.4</ele></trkpt>
            <trkpt lat="53.1633400" lon="-1.6743000"><ele>205.2</ele></trkpt>
            <trkpt lat="53.1640700" lon="-1.6746100"><ele>202.5</ele></trkpt>
            <trkpt lat="53.1641500" lon="-1.6746800"><ele>201.5</ele></trkpt>
            <trkpt lat="53.1641900" lon="-1.6747400"><ele>201.5</ele></trkpt>
            <trkpt lat="53.1642500" lon="-1.6748600"><ele>200.2</ele></trkpt>
            <trkpt lat="53.1642700" lon="-1.6749300"><ele>199.6</ele></trkpt>
            <trkpt lat="53.1642900" lon="-1.6750800"><ele>199.7</ele></trkpt>
            <trkpt lat="53.1642900" lon="-1.6761300"><ele>196.3</ele></trkpt>
            <trkpt lat="53.1643000" lon="-1.6762000"><ele>195.0</ele></trkpt>
            <trkpt lat="53.1645800" lon="-1.6766700"><ele>187.3</ele></trkpt>
            <trkpt lat="53.1656100" lon="-1.6777700"><ele>174.2</ele></trkpt>
            <trkpt lat="53.1659600" lon="-1.6782400"><ele>170.8</ele></trkpt>
            <trkpt lat="53.1660900" lon="-1.6783400"><ele>168.6</ele></trkpt>
            <trkpt lat="53.1664500" lon="-1.6784500"><ele>163.2</ele></trkpt>
            <trkpt lat="53.1665800" lon="-1.6785100"><ele>161.5</ele></trkpt>
            <trkpt lat="53.1667000" lon="-1.6785300"><ele>159.8</ele></trkpt>
            <trkpt lat="53.1670300" lon="-1.6787300"><ele>155.2</ele></trkpt>
            <trkpt lat="53.1670700" lon="-1.6787700"><ele>154.8</ele></trkpt>
            <trkpt lat="53.1672000" lon="-1.6788100"><ele>153.0</ele></trkpt>
            <trkpt lat="53.1672800" lon="-1.6788900"><ele>152.6</ele></trkpt>
            <trkpt lat="53.1679400" lon="-1.6792900"><ele>153.8</ele></trkpt>
            <trkpt lat="53.1686400" lon="-1.6798300"><ele>152.5</ele></trkpt>
            <trkpt lat="53.1689200" lon="-1.6800100"><ele>150.9</ele></trkpt>
            <trkpt lat="53.1692300" lon="-1.6811200"><ele>150.8</ele></trkpt>
            <trkpt lat="53.1692900" lon="-1.6812300"><ele>149.8</ele></trkpt>
            <trkpt lat="53.1693800" lon="-1.6812600"><ele>149.1</ele></trkpt>
            <trkpt lat="53.1697700" lon="-1.6811500"><ele>147.6</ele></trkpt>
            <trkpt lat="53.1698600" lon="-1.6811800"><ele>147.3</ele></trkpt>
            <trkpt lat="53.1704100" lon="-1.6818200"><ele>147.4</ele></trkpt>
            <trkpt lat="53.1706900" lon="-1.6821000"><ele>147.5</ele></trkpt>
            <trkpt lat="53.1710900" lon="-1.6824500"><ele>148.8</ele></trkpt>
            <trkpt lat="53.1712300" lon="-1.6825100"><ele>149.2</ele></trkpt>
            <trkpt lat="53.1719700" lon="-1.6827200"><ele>150.4</ele></trkpt>
            <trkpt lat="53.1720100" lon="-1.6826900"><ele>150.2</ele></trkpt>
            <trkpt lat="53.1720700" lon="-1.6825800"><ele>149.5</ele></trkpt>
            <trkpt lat="53.1721900" lon="-1.6824100"><ele>148.7</ele></trkpt>
            <trkpt lat="53.1722400" lon="-1.6823700"><ele>148.2</ele></trkpt>
            <trkpt lat="53.1722900" lon="-1.6823600"><ele>147.6</ele></trkpt>
            <trkpt lat="53.1724200" lon="-1.6824300"><ele>146.6</ele></trkpt>
            <trkpt lat="53.1725200" lon="-1.6824600"><ele>145.9</ele></trkpt>
            <trkpt lat="53.1727800" lon="-1.6824800"><ele>144.7</ele></trkpt>
            <trkpt lat="53.1728600" lon="-1.6824400"><ele>144.4</ele></trkpt>
            <trkpt lat="53.1728900" lon="-1.6825100"><ele>144.3</ele></trkpt>
            <trkpt lat="53.1731700" lon="-1.6842500"><ele>152.3</ele></trkpt>
            <trkpt lat="53.1732000" lon="-1.6846700"><ele>153.4</ele></trkpt>
            <trkpt lat="53.1732400" lon="-1.6855700"><ele>153.9</ele></trkpt>
            <trkpt lat="53.1732100" lon="-1.6859200"><ele>154.1</ele></trkpt>
            <trkpt lat="53.1731800" lon="-1.6865600"><ele>155.0</ele></trkpt>
            <trkpt lat="53.1731300" lon="-1.6871100"><ele>155.6</ele></trkpt>
            <trkpt lat="53.1730500" lon="-1.6877500"><ele>155.2</ele></trkpt>
            <trkpt lat="53.1729300" lon="-1.6881700"><ele>154.2</ele></trkpt>
            <trkpt lat="53.1728100" lon="-1.6885300"><ele>154.1</ele></trkpt>
            <trkpt lat="53.1726400" lon="-1.6889500"><ele>154.8</ele></trkpt>
            <trkpt lat="53.1726000" lon="-1.6891200"><ele>155.9</ele></trkpt>
            <trkpt lat="53.1726400" lon="-1.6893300"><ele>155.7</ele></trkpt>
            <trkpt lat="53.1727100" lon="-1.6895100"><ele>157.6</ele></trkpt>
            <trkpt lat="53.1727700" lon="-1.6897400"><ele>159.8</ele></trkpt>
            <trkpt lat="53.1728400" lon="-1.6898400"><ele>162.2</ele></trkpt>
            <trkpt lat="53.1729200" lon="-1.6899000"><ele>164.2</ele></trkpt>
            <trkpt lat="53.1730100" lon="-1.6899500"><ele>166.4</ele></trkpt>
            <trkpt lat="53.1731000" lon="-1.6899600"><ele>169.2</ele></trkpt>
            <trkpt lat="53.1731200" lon="-1.6900300"><ele>170.7</ele></trkpt>
            <trkpt lat="53.1731000" lon="-1.6901900"><ele>171.4</ele></trkpt>
            <trkpt lat="53.1731000" lon="-1.6903300"><ele>172.5</ele></trkpt>
            <trkpt lat="53.1732300" lon="-1.6904200"><ele>177.7</ele></trkpt>
            <trkpt lat="53.1733700" lon="-1.6905800"><ele>181.9</ele></trkpt>
            <trkpt lat="53.1733800" lon="-1.6907300"><ele>183.1</ele></trkpt>
            <trkpt lat="53.1734400" lon="-1.6909300"><ele>185.0</ele></trkpt>
            <trkpt lat="53.1735900" lon="-1.6911100"><ele>187.6</ele></trkpt>
            <trkpt lat="53.1736400" lon="-1.6911500"><ele>187.7</ele></trkpt>
            <trkpt lat="53.1733600" lon="-1.6922600"><ele>190.5</ele></trkpt>
            <trkpt lat="53.1732800" lon="-1.6927600"><ele>190.0</ele></trkpt>
            <trkpt lat="53.1732100" lon="-1.6940800"><ele>193.5</ele></trkpt>
            <trkpt lat="53.1731600" lon="-1.6947500"><ele>195.5</ele></trkpt>
            <trkpt lat="53.1731900" lon="-1.6947600"><ele>196.1</ele></trkpt>
            <trkpt lat="53.1732400" lon="-1.6947300"><ele>197.3</ele></trkpt>
        </trkseg>
    </trk>
<!-- ele-hash:646c562986bb689c -->
</gpx>
