<?xml version="1.0" encoding="UTF-8" standalone="yes"?>
<gpx version="1.1" creator="OS Maps - Web" xmlns="http://www.topografix.com/GPX/1/1"
xmlns:xsi="http://www.w3.org/2001/XMLSchema-instance"
xsi:schemaLocation="http://www.topografix.com/GPX/1/1 http://www.topografix.com/GPX/1/1/gpx.xsd"
xmlns:gs="http://www.topografix.com/GPX/gpx_style/0/2"
xmlns:gh="https://graphhopper.com/public/schema/gpx/1.1"
xmlns:os="https://ordnancesurvey.co.uk/public/schema/route/0.1">
    <metadata>
        <name>Hen Cloud, The Roaches &amp; Ramshaw Rocks (Ethels) - Circular (www.thelostpeak.co.uk)</name>
        <desc>www.thelostpeak.co.uk</desc>
        <bounds minlat="53.1505400" minlon="-2.0080100" maxlat="53.1806100" maxlon="-1.9703600"/>
        <extensions>
            <os:version>2.0</os:version>
            <os:point lat="53.1511300" lon="-1.9924400" type="start"/>
            <os:point lat="53.1511300" lon="-1.9924400" type="end"/>
            <os:activity>OTHER</os:activity>
            <os:difficulty>DIFFICULT</os:difficulty>
            <os:paths/>
            <os:distance>11098.6982246</os:distance>
            <os:elevation_ascent>491.5100000</os:elevation_ascent>
        </extensions>
    </metadata>
    <wpt lat="53.1511300" lon="-1.9924400"/>
    <wpt lat="53.1511300" lon="-1.9924400"/>
    <trk>
        <name>Hen Cloud, The Roaches &amp; Ramshaw Rocks (Ethels) - Circular (www.thelostpeak.co.uk)</name>
        <trkseg>
            <trkpt lat="53.1511300" lon="-1.9924400"/>
            <trkpt lat="53.1506000" lon="-1.9925600"/>
            <trkpt lat="53.1505500" lon="-1.9925400"/>
            <trkpt lat="53.1505400" lon="-1.9923900"/>
            <trkpt lat="53.1505600" lon="-1.9923200"/>
            <trkpt lat="53.1506200" lon="-1.9922000"/>
            <trkpt lat="53.1506900" lon="-1.9921100"/>
            <trkpt lat="53.1512700" lon="-1.9917100"/>
            <trkpt lat="53.1513900" lon="-1.9915800"/>
            <trkpt lat="53.1514900" lon="-1.9913900"/>
            <trkpt lat="53.1515100" lon="-1.9912400"/>
            <trkpt lat="53.1514900" lon="-1.9910900"/>
            <trkpt lat="53.1514600" lon="-1.9910200"/>
            <trkpt lat="53.1514300" lon="-1.9909700"/>
            <trkpt lat="53.1512900" lon="-1.9909000"/>
            <trkpt lat="53.1511600" lon="-1.9908000"/>
            <trkpt lat="53.1510600" lon="-1.9906500"/>
            <trkpt lat="53.1510000" lon="-1.9905300"/>
            <trkpt lat="53.1509900" lon="-1.9904500"/>
            <trkpt lat="53.1510100" lon="-1.9903000"/>
            <trkpt lat="53.1510300" lon="-1.9902900"/>
            <trkpt lat="53.1511300" lon="-1.9900400"/>
            <trkpt lat="53.1512200" lon="-1.9899600"/>
            <trkpt lat="53.1513200" lon="-1.9897800"/>
            <trkpt lat="53.1513800" lon="-1.9897100"/>
            <trkpt lat="53.1513900" lon="-1.9896100"/>
            <trkpt lat="53.1514100" lon="-1.9896000"/>
            <trkpt lat="53.1514700" lon="-1.9894300"/>
            <trkpt lat="53.1515100" lon="-1.9893600"/>
            <trkpt lat="53.1515500" lon="-1.9893300"/>
            <trkpt lat="53.1515800" lon="-1.9892600"/>
            <trkpt lat="53.1516000" lon="-1.9890300"/>
            <trkpt lat="53.1516800" lon="-1.9889500"/>
            <trkpt lat="53.1517400" lon="-1.9888500"/>
            <trkpt lat="53.1514200" lon="-1.9887000"/>
            <trkpt lat="53.1517400" lon="-1.9888500"/>
            <trkpt lat="53.1518700" lon="-1.9888500"/>
            <trkpt lat="53.1519100" lon="-1.9889000"/>
            <trkpt lat="53.1520000" lon="-1.9889500"/>
            <trkpt lat="53.1520400" lon="-1.9889400"/>
            <trkpt lat="53.1521400" lon="-1.9888700"/>
            <trkpt lat="53.1523400" lon="-1.9890200"/>
            <trkpt lat="53.1524700" lon="-1.9891500"/>
            <trkpt lat="53.1525800" lon="-1.9893200"/>
            <trkpt lat="53.1528000" lon="-1.9895100"/>
            <trkpt lat="53.1528400" lon="-1.9895100"/>
            <trkpt lat="53.1529300" lon="-1.9894500"/>
            <trkpt lat="53.1529700" lon="-1.9894600"/>
            <trkpt lat="53.1530200" lon="-1.9894400"/>
            <trkpt lat="53.1534500" lon="-1.9891900"/>
            <trkpt lat="53.1536400" lon="-1.9891400"/>
            <trkpt lat="53.1538700" lon="-1.9891800"/>
            <trkpt lat="53.1544900" lon="-1.9895800"/>
            <trkpt lat="53.1546800" lon="-1.9898000"/>
            <trkpt lat="53.1550000" lon="-1.9900600"/>
            <trkpt lat="53.1551400" lon="-1.9902700"/>
            <trkpt lat="53.1554100" lon="-1.9904300"/>
            <trkpt lat="53.1556100" lon="-1.9906000"/>
            <trkpt lat="53.1558500" lon="-1.9908600"/>
            <trkpt lat="53.1558900" lon="-1.9908800"/>
            <trkpt lat="53.1560400" lon="-1.9908800"/>
            <trkpt lat="53.1561300" lon="-1.9908700"/>
            <trkpt lat="53.1562000" lon="-1.9908400"/>
            <trkpt lat="53.1562900" lon="-1.9908900"/>
            <trkpt lat="53.1564400" lon="-1.9910800"/>
            <trkpt lat="53.1565600" lon="-1.9911900"/>
            <trkpt lat="53.1567000" lon="-1.9913800"/>
            <trkpt lat="53.1567900" lon="-1.9914000"/>
            <trkpt lat="53.1568700" lon="-1.9914800"/>
            <trkpt lat="53.1570400" lon="-1.9917700"/>
            <trkpt lat="53.1571200" lon="-1.9919500"/>
            <trkpt lat="53.1572400" lon="-1.9921500"/>
            <trkpt lat="53.1572600" lon="-1.9922200"/>
            <trkpt lat="53.1573200" lon="-1.9923300"/>
            <trkpt lat="53.1574100" lon="-1.9923600"/>
            <trkpt lat="53.1575300" lon="-1.9924700"/>
            <trkpt lat="53.1576400" lon="-1.9925300"/>
            <trkpt lat="53.1576800" lon="-1.9926600"/>
            <trkpt lat="53.1577200" lon="-1.9927100"/>
            <trkpt lat="53.1578900" lon="-1.9928400"/>
            <trkpt lat="53.1580400" lon="-1.9930100"/>
            <trkpt lat="53.1581800" lon="-1.9930100"/>
            <trkpt lat="53.1582500" lon="-1.9931000"/>
            <trkpt lat="53.1583400" lon="-1.9931600"/>
            <trkpt lat="53.1584700" lon="-1.9932900"/>
            <trkpt lat="53.1586400" lon="-1.9934000"/>
            <trkpt lat="53.1586700" lon="-1.9934400"/>
            <trkpt lat="53.1588600" lon="-1.9935100"/>
            <trkpt lat="53.1589400" lon="-1.9935900"/>
            <trkpt lat="53.1590100" lon="-1.9936900"/>
            <trkpt lat="53.1590600" lon="-1.9937300"/>
            <trkpt lat="53.1592900" lon="-1.9938200"/>
            <trkpt lat="53.1594200" lon="-1.9939200"/>
            <trkpt lat="53.1595500" lon="-1.9939600"/>
            <trkpt lat="53.1596800" lon="-1.9940700"/>
            <trkpt lat="53.1597100" lon="-1.9940000"/>
            <trkpt lat="53.1597100" lon="-1.9938400"/>
            <trkpt lat="53.1597000" lon="-1.9937700"/>
            <trkpt lat="53.1596300" lon="-1.9935600"/>
            <trkpt lat="53.1596100" lon="-1.9934100"/>
            <trkpt lat="53.1596300" lon="-1.9931800"/>
            <trkpt lat="53.1597100" lon="-1.9931200"/>
            <trkpt lat="53.1597400" lon="-1.9932600"/>
            <trkpt lat="53.1597700" lon="-1.9933200"/>
            <trkpt lat="53.1598500" lon="-1.9933900"/>
            <trkpt lat="53.1600000" lon="-1.9934100"/>
            <trkpt lat="53.1602000" lon="-1.9933800"/>
            <trkpt lat="53.1604200" lon="-1.9935000"/>
            <trkpt lat="53.1605700" lon="-1.9937000"/>
            <trkpt lat="53.1606400" lon="-1.9937500"/>
            <trkpt lat="53.1607800" lon="-1.9937900"/>
            <trkpt lat="53.1609100" lon="-1.9939100"/>
            <trkpt lat="53.1610400" lon="-1.9941200"/>
            <trkpt lat="53.1611600" lon="-1.9942400"/>
            <trkpt lat="53.1612300" lon="-1.9943600"/>
            <trkpt lat="53.1614300" lon="-1.9945700"/>
            <trkpt lat="53.1615600" lon="-1.9946500"/>
            <trkpt lat="53.1616400" lon="-1.9947300"/>
            <trkpt lat="53.1617300" lon="-1.9949200"/>
            <trkpt lat="53.1619200" lon="-1.9950300"/>
            <trkpt lat="53.1621000" lon="-1.9953000"/>
            <trkpt lat="53.1621700" lon="-1.9954800"/>
            <trkpt lat="53.1622100" lon="-1.9955500"/>
            <trkpt lat="53.1624100" lon="-1.9957700"/>
            <trkpt lat="53.1624900" lon="-1.9958300"/>
            <trkpt lat="53.1625900" lon="-1.9958700"/>
            <trkpt lat="53.1627000" lon="-1.9959800"/>
            <trkpt lat="53.1627900" lon="-1.9960300"/>
            <trkpt lat="53.1629300" lon="-1.9962300"/>
            <trkpt lat="53.1629500" lon="-1.9962900"/>
            <trkpt lat="53.1630000" lon="-1.9963600"/>
            <trkpt lat="53.1631700" lon="-1.9965000"/>
            <trkpt lat="53.1633100" lon="-1.9965400"/>
            <trkpt lat="53.1634100" lon="-1.9965400"/>
            <trkpt lat="53.1635200" lon="-1.9966700"/>
            <trkpt lat="53.1636400" lon="-1.9967700"/>
            <trkpt lat="53.1637700" lon="-1.9969700"/>
            <trkpt lat="53.1639300" lon="-1.9970700"/>
            <trkpt lat="53.1641200" lon="-1.9972800"/>
            <trkpt lat="53.1642600" lon="-1.9973400"/>
            <trkpt lat="53.1645200" lon="-1.9975200"/>
            <trkpt lat="53.1648000" lon="-1.9978100"/>
            <trkpt lat="53.1648500" lon="-1.9978400"/>
            <trkpt lat="53.1650500" lon="-1.9980300"/>
            <trkpt lat="53.1651800" lon="-1.9980900"/>
            <trkpt lat="53.1652600" lon="-1.9981800"/>
            <trkpt lat="53.1653500" lon="-1.9983400"/>
            <trkpt lat="53.1654400" lon="-1.9983800"/>
            <trkpt lat="53.1655700" lon="-1.9984900"/>
            <trkpt lat="53.1656600" lon="-1.9985300"/>
            <trkpt lat="53.1657400" lon="-1.9986100"/>
            <trkpt lat="53.1658800" lon="-1.9988200"/>
            <trkpt lat="53.1659600" lon="-1.9989000"/>
            <trkpt lat="53.1661900" lon="-1.9989900"/>
            <trkpt lat="53.1662700" lon="-1.9990700"/>
            <trkpt lat="53.1663700" lon="-1.9992400"/>
            <trkpt lat="53.1665000" lon="-1.9993400"/>
            <trkpt lat="53.1665900" lon="-1.9993900"/>
            <trkpt lat="53.1667100" lon="-1.9994100"/>
            <trkpt lat="53.1668600" lon="-1.9994700"/>
            <trkpt lat="53.1670100" lon="-1.9996600"/>
            <trkpt lat="53.1671000" lon="-1.9997200"/>
            <trkpt lat="53.1676100" lon="-1.9998000"/>
            <trkpt lat="53.1679700" lon="-1.9999800"/>
            <trkpt lat="53.1682400" lon="-2.0000600"/>
            <trkpt lat="53.1684400" lon="-2.0000800"/>
            <trkpt lat="53.1685800" lon="-2.0000600"/>
            <trkpt lat="53.1687800" lon="-1.9999400"/>
            <trkpt lat="53.1688600" lon="-1.9998500"/>
            <trkpt lat="53.1690300" lon="-1.9996000"/>
            <trkpt lat="53.1691700" lon="-1.9995500"/>
            <trkpt lat="53.1692900" lon="-1.9995800"/>
            <trkpt lat="53.1693800" lon="-1.9996500"/>
            <trkpt lat="53.1695000" lon="-1.9997800"/>
            <trkpt lat="53.1695400" lon="-1.9998000"/>
            <trkpt lat="53.1696800" lon="-1.9997800"/>
            <trkpt lat="53.1698000" lon="-1.9998300"/>
            <trkpt lat="53.1699000" lon="-1.9998300"/>
            <trkpt lat="53.1700300" lon="-1.9997700"/>
            <trkpt lat="53.1700800" lon="-1.9997800"/>
            <trkpt lat="53.1701700" lon="-1.9998300"/>
            <trkpt lat="53.1703300" lon="-1.9999700"/>
            <trkpt lat="53.1703800" lon="-1.9999900"/>
            <trkpt lat="53.1705600" lon="-1.9999800"/>
            <trkpt lat="53.1707600" lon="-2.0000300"/>
            <trkpt lat="53.1709400" lon="-2.0001200"/>
            <trkpt lat="53.1711700" lon="-2.0000500"/>
            <trkpt lat="53.1712600" lon="-1.9999800"/>
            <trkpt lat="53.1714600" lon="-1.9999700"/>
            <trkpt lat="53.1715100" lon="-1.9999500"/>
            <trkpt lat="53.1715900" lon="-1.9999000"/>
            <trkpt lat="53.1716700" lon="-1.9998000"/>
            <trkpt lat="53.1717500" lon="-1.9997400"/>
            <trkpt lat="53.1717900" lon="-1.9997300"/>
            <trkpt lat="53.1719600" lon="-1.9998000"/>
            <trkpt lat="53.1720500" lon="-1.9997600"/>
            <trkpt lat="53.1721000" lon="-1.9997700"/>
            <trkpt lat="53.1721400" lon="-1.9998100"/>
            <trkpt lat="53.1722900" lon="-1.9998100"/>
            <trkpt lat="53.1723800" lon="-1.9998600"/>
            <trkpt lat="53.1725500" lon="-1.9999000"/>
            <trkpt lat="53.1726300" lon="-1.9999600"/>
            <trkpt lat="53.1727200" lon="-1.9999800"/>
            <trkpt lat="53.1728800" lon="-2.0001500"/>
            <trkpt lat="53.1729800" lon="-2.0003100"/>
            <trkpt lat="53.1730600" lon="-2.0005000"/>
            <trkpt lat="53.1731800" lon="-2.0006700"/>
            <trkpt lat="53.1732200" lon="-2.0008100"/>
            <trkpt lat="53.1733400" lon="-2.0010600"/>
            <trkpt lat="53.1733600" lon="-2.0011300"/>
            <trkpt lat="53.1734900" lon="-2.0013500"/>
            <trkpt lat="53.1735800" lon="-2.0014300"/>
            <trkpt lat="53.1737200" lon="-2.0014900"/>
            <trkpt lat="53.1738100" lon="-2.0015500"/>
            <trkpt lat="53.1739100" lon="-2.0015800"/>
            <trkpt lat="53.1739900" lon="-2.0016500"/>
            <trkpt lat="53.1741000" lon="-2.0018000"/>
            <trkpt lat="53.1743400" lon="-2.0019200"/>
            <trkpt lat="53.1744700" lon="-2.0021000"/>
            <trkpt lat="53.1745800" lon="-2.0023500"/>
            <trkpt lat="53.1747600" lon="-2.0024700"/>
            <trkpt lat="53.1749300" lon="-2.0026400"/>
            <trkpt lat="53.1750000" lon="-2.0027400"/>
            <trkpt lat="53.1750900" lon="-2.0029200"/>
            <trkpt lat="53.1752800" lon="-2.0031700"/>
            <trkpt lat="53.1754400" lon="-2.0033500"/>
            <trkpt lat="53.1754500" lon="-2.0034300"/>
            <trkpt lat="53.1755100" lon="-2.0035500"/>
            <trkpt lat="53.1755600" lon="-2.0037200"/>
            <trkpt lat="53.1756600" lon="-2.0039800"/>
            <trkpt lat="53.1758000" lon="-2.0042900"/>
            <trkpt lat="53.1758700" lon="-2.0044000"/>
            <trkpt lat="53.1759500" lon="-2.0044800"/>
            <trkpt lat="53.1760800" lon="-2.0045700"/>
            <trkpt lat="53.1761500" lon="-2.0046600"/>
            <trkpt lat="53.1762500" lon="-2.0050100"/>
            <trkpt lat="53.1763000" lon="-2.0051400"/>
            <trkpt lat="53.1763700" lon="-2.0055000"/>
            <trkpt lat="53.1764500" lon="-2.0056700"/>
            <trkpt lat="53.1767300" lon="-2.0060900"/>
            <trkpt lat="53.1768600" lon="-2.0065000"/>
            <trkpt lat="53.1769300" lon="-2.0066100"/>
            <trkpt lat="53.1771000" lon="-2.0071300"/>
            <trkpt lat="53.1772100" lon="-2.0072900"/>
            <trkpt lat="53.1773500" lon="-2.0076000"/>
            <trkpt lat="53.1774900" lon="-2.0077900"/>
            <trkpt lat="53.1775100" lon="-2.0079000"/>
            <trkpt lat="53.1775400" lon="-2.0079300"/>
            <trkpt lat="53.1777800" lon="-2.0079500"/>
            <trkpt lat="53.1779100" lon="-2.0079000"/>
            <trkpt lat="53.1779700" lon="-2.0079000"/>
            <trkpt lat="53.1780200" lon="-2.0079100"/>
            <trkpt lat="53.1781500" lon="-2.0079900"/>
            <trkpt lat="53.1782400" lon="-2.0080100"/>
            <trkpt lat="53.1783300" lon="-2.0080000"/>
            <trkpt lat="53.1784300" lon="-2.0079400"/>
            <trkpt lat="53.1786100" lon="-2.0077400"/>
            <trkpt lat="53.1789100" lon="-2.0073400"/>
            <trkpt lat="53.1792300" lon="-2.0067600"/>
            <trkpt lat="53.1794500" lon="-2.0060300"/>
            <trkpt lat="53.1795200" lon="-2.0058500"/>
            <trkpt lat="53.1796400" lon="-2.0057000"/>
            <trkpt lat="53.1798000" lon="-2.0055500"/>
            <trkpt lat="53.1798800" lon="-2.0054500"/>
            <trkpt lat="53.1799100" lon="-2.0053900"/>
            <trkpt lat="53.1799400" lon="-2.0051600"/>
            <trkpt lat="53.1799200" lon="-2.0048100"/>
            <trkpt lat="53.1798500" lon="-2.0042700"/>
            <trkpt lat="53.1798100" lon="-2.0035700"/>
            <trkpt lat="53.1797700" lon="-2.0034100"/>
            <trkpt lat="53.1798000" lon="-2.0028500"/>
            <trkpt lat="53.1798000" lon="-2.0026100"/>
            <trkpt lat="53.1798500" lon="-2.0019500"/>
            <trkpt lat="53.1799100" lon="-2.0017400"/>
            <trkpt lat="53.1799900" lon="-2.0016400"/>
            <trkpt lat="53.1800300" lon="-2.0016100"/>
            <trkpt lat="53.1801700" lon="-2.0016000"/>
            <trkpt lat="53.1802100" lon="-2.0015400"/>
            <trkpt lat="53.1803400" lon="-2.0012200"/>
            <trkpt lat="53.1805500" lon="-2.0009100"/>
            <trkpt lat="53.1806100" lon="-2.0006900"/>
            <trkpt lat="53.1806100" lon="-2.0005300"/>
            <trkpt lat="53.1805800" lon="-2.0003700"/>
            <trkpt lat="53.1805500" lon="-2.0003100"/>
            <trkpt lat="53.1805100" lon="-2.0000000"/>
            <trkpt lat="53.1805100" lon="-1.9999200"/>
            <trkpt lat="53.1805500" lon="-1.9997000"/>
            <trkpt lat="53.1805500" lon="-1.9995400"/>
            <trkpt lat="53.1805000" lon="-1.9988000"/>
            <trkpt lat="53.1802900" lon="-1.9979500"/>
            <trkpt lat="53.1802000" lon="-1.9976900"/>
            <trkpt lat="53.1801100" lon="-1.9975600"/>
            <trkpt lat="53.1798000" lon="-1.9972800"/>
            <trkpt lat="53.1796200" lon="-1.9970600"/>
            <trkpt lat="53.1795700" lon="-1.9970300"/>
            <trkpt lat="53.1794400" lon="-1.9970400"/>
            <trkpt lat="53.1794000" lon="-1.9970000"/>
            <trkpt lat="53.1793500" lon="-1.9969100"/>
            <trkpt lat="53.1792100" lon="-1.9968000"/>
            <trkpt lat="53.1789800" lon="-1.9966700"/>
            <trkpt lat="53.1788600" lon="-1.9965400"/>
            <trkpt lat="53.1787900" lon="-1.9964400"/>
            <trkpt lat="53.1786600" lon="-1.9963400"/>
            <trkpt lat="53.1785700" lon="-1.9961700"/>
            <trkpt lat="53.1785200" lon="-1.9959500"/>
            <trkpt lat="53.1783900" lon="-1.9955900"/>
            <trkpt lat="53.1782500" lon="-1.9953800"/>
            <trkpt lat="53.1780600" lon="-1.9949700"/>
            <trkpt lat="53.1780000" lon="-1.9947900"/>
            <trkpt lat="53.1779600" lon="-1.9946300"/>
            <trkpt lat="53.1779400" lon="-1.9944800"/>
            <trkpt lat="53.1779400" lon="-1.9943200"/>
            <trkpt lat="53.1779700" lon="-1.9940700"/>
            <trkpt lat="53.1780800" lon="-1.9936800"/>
            <trkpt lat="53.1780900" lon="-1.9936000"/>
            <trkpt lat="53.1781000" lon="-1.9934300"/>
            <trkpt lat="53.1780800" lon="-1.9931000"/>
            <trkpt lat="53.1780500" lon="-1.9929400"/>
            <trkpt lat="53.1779800" lon="-1.9927300"/>
            <trkpt lat="53.1778800" lon="-1.9923500"/>
            <trkpt lat="53.1778700" lon="-1.9918900"/>
            <trkpt lat="53.1778200" lon="-1.9916700"/>
            <trkpt lat="53.1778100" lon="-1.9913200"/>
            <trkpt lat="53.1776900" lon="-1.9908000"/>
            <trkpt lat="53.1776800" lon="-1.9906500"/>
            <trkpt lat="53.1774900" lon="-1.9903200"/>
            <trkpt lat="53.1774200" lon="-1.9901300"/>
            <trkpt lat="53.1773300" lon="-1.9899600"/>
            <trkpt lat="53.1772900" lon="-1.9898200"/>
            <trkpt lat="53.1772800" lon="-1.9897400"/>
            <trkpt lat="53.1773200" lon="-1.9895900"/>
            <trkpt lat="53.1773500" lon="-1.9895300"/>
            <trkpt lat="53.1773700" lon="-1.9893000"/>
            <trkpt lat="53.1773700" lon="-1.9891200"/>
            <trkpt lat="53.1773500" lon="-1.9890200"/>
            <trkpt lat="53.1773500" lon="-1.9887800"/>
            <trkpt lat="53.1772800" lon="-1.9885800"/>
            <trkpt lat="53.1772200" lon="-1.9884700"/>
            <trkpt lat="53.1771100" lon="-1.9882100"/>
            <trkpt lat="53.1770000" lon="-1.9880800"/>
            <trkpt lat="53.1768200" lon="-1.9878100"/>
            <trkpt lat="53.1767000" lon="-1.9875600"/>
            <trkpt lat="53.1765800" lon="-1.9872300"/>
            <trkpt lat="53.1764600" lon="-1.9869900"/>
            <trkpt lat="53.1763900" lon="-1.9869000"/>
            <trkpt lat="53.1762500" lon="-1.9866500"/>
            <trkpt lat="53.1761900" lon="-1.9864300"/>
            <trkpt lat="53.1761500" lon="-1.9861100"/>
            <trkpt lat="53.1761600" lon="-1.9857500"/>
            <trkpt lat="53.1762400" lon="-1.9853700"/>
            <trkpt lat="53.1762400" lon="-1.9850500"/>
            <trkpt lat="53.1762200" lon="-1.9849800"/>
            <trkpt lat="53.1761700" lon="-1.9849900"/>
            <trkpt lat="53.1761000" lon="-1.9850700"/>
            <trkpt lat="53.1758600" lon="-1.9855200"/>
            <trkpt lat="53.1757700" lon="-1.9855800"/>
            <trkpt lat="53.1757300" lon="-1.9856300"/>
            <trkpt lat="53.1756700" lon="-1.9857600"/>
            <trkpt lat="53.1756300" lon="-1.9859000"/>
            <trkpt lat="53.1755900" lon="-1.9859400"/>
            <trkpt lat="53.1755500" lon="-1.9859500"/>
            <trkpt lat="53.1754100" lon="-1.9858800"/>
            <trkpt lat="53.1751600" lon="-1.9855600"/>
            <trkpt lat="53.1751100" lon="-1.9853300"/>
            <trkpt lat="53.1750500" lon="-1.9852100"/>
            <trkpt lat="53.1750100" lon="-1.9851600"/>
            <trkpt lat="53.1747300" lon="-1.9849200"/>
            <trkpt lat="53.1746500" lon="-1.9848300"/>
            <trkpt lat="53.1745400" lon="-1.9846700"/>
            <trkpt lat="53.1744900" lon="-1.9845500"/>
            <trkpt lat="53.1744600" lon="-1.9843700"/>
            <trkpt lat="53.1742200" lon="-1.9839000"/>
            <trkpt lat="53.1741200" lon="-1.9835600"/>
            <trkpt lat="53.1740300" lon="-1.9833700"/>
            <trkpt lat="53.1739900" lon="-1.9833200"/>
            <trkpt lat="53.1739100" lon="-1.9831400"/>
            <trkpt lat="53.1736600" lon="-1.9827600"/>
            <trkpt lat="53.1735900" lon="-1.9826700"/>
            <trkpt lat="53.1732000" lon="-1.9824200"/>
            <trkpt lat="53.1729000" lon="-1.9821900"/>
            <trkpt lat="53.1726400" lon="-1.9818800"/>
            <trkpt lat="53.1725000" lon="-1.9815800"/>
            <trkpt lat="53.1724400" lon="-1.9813600"/>
            <trkpt lat="53.1724200" lon="-1.9812100"/>
            <trkpt lat="53.1723800" lon="-1.9810700"/>
            <trkpt lat="53.1718500" lon="-1.9807800"/>
            <trkpt lat="53.1717800" lon="-1.9805900"/>
            <trkpt lat="53.1717400" lon="-1.9805400"/>
            <trkpt lat="53.1717200" lon="-1.9804700"/>
            <trkpt lat="53.1717300" lon="-1.9803100"/>
            <trkpt lat="53.1716500" lon="-1.9798100"/>
            <trkpt lat="53.1716000" lon="-1.9793700"/>
            <trkpt lat="53.1715900" lon="-1.9790400"/>
            <trkpt lat="53.1715700" lon="-1.9788700"/>
            <trkpt lat="53.1715200" lon="-1.9787400"/>
            <trkpt lat="53.1715300" lon="-1.9785000"/>
            <trkpt lat="53.1715200" lon="-1.9780500"/>
            <trkpt lat="53.1715500" lon="-1.9778900"/>
            <trkpt lat="53.1715500" lon="-1.9777400"/>
            <trkpt lat="53.1715200" lon="-1.9775900"/>
            <trkpt lat="53.1715100" lon="-1.9774300"/>
            <trkpt lat="53.1714200" lon="-1.9770700"/>
            <trkpt lat="53.1713900" lon="-1.9765900"/>
            <trkpt lat="53.1713500" lon="-1.9764400"/>
            <trkpt lat="53.1713300" lon="-1.9762800"/>
            <trkpt lat="53.1712900" lon="-1.9761900"/>
            <trkpt lat="53.1700800" lon="-1.9754800"/>
            <trkpt lat="53.1698900" lon="-1.9752900"/>
            <trkpt lat="53.1696800" lon="-1.9749700"/>
            <trkpt lat="53.1693800" lon="-1.9744700"/>
            <trkpt lat="53.1692900" lon="-1.9742900"/>
            <trkpt lat="53.1692100" lon="-1.9739700"/>
            <trkpt lat="53.1691200" lon="-1.9738700"/>
            <trkpt lat="53.1690100" lon="-1.9736800"/>
            <trkpt lat="53.1689600" lon="-1.9736400"/>
            <trkpt lat="53.1687300" lon="-1.9733400"/>
            <trkpt lat="53.1686900" lon="-1.9733400"/>
            <trkpt lat="53.1685100" lon="-1.9732400"/>
            <trkpt lat="53.1683700" lon="-1.9732600"/>
            <trkpt lat="53.1683200" lon="-1.9732400"/>
            <trkpt lat="53.1682100" lon="-1.9731200"/>
            <trkpt lat="53.1680200" lon="-1.9731300"/>
            <trkpt lat="53.1678900" lon="-1.9730500"/>
            <trkpt lat="53.1678000" lon="-1.9730300"/>
            <trkpt lat="53.1677200" lon="-1.9729600"/>
            <trkpt lat="53.1676700" lon="-1.9729400"/>
            <trkpt lat="53.1674500" lon="-1.9729500"/>
            <trkpt lat="53.1673100" lon="-1.9729800"/>
            <trkpt lat="53.1672700" lon="-1.9729700"/>
            <trkpt lat="53.1670700" lon="-1.9727800"/>
            <trkpt lat="53.1667900" lon="-1.9726900"/>
            <trkpt lat="53.1664800" lon="-1.9724900"/>
            <trkpt lat="53.1663100" lon="-1.9723300"/>
            <trkpt lat="53.1661800" lon="-1.9722600"/>
            <trkpt lat="53.1661200" lon="-1.9722000"/>
            <trkpt lat="53.1660300" lon="-1.9720700"/>
            <trkpt lat="53.1659000" lon="-1.9720000"/>
            <trkpt lat="53.1656500" lon="-1.9717900"/>
            <trkpt lat="53.1651700" lon="-1.9716000"/>
            <trkpt lat="53.1650900" lon="-1.9715200"/>
            <trkpt lat="53.1649400" lon="-1.9714300"/>
            <trkpt lat="53.1649000" lon="-1.9713700"/>
            <trkpt lat="53.1648800" lon="-1.9713100"/>
            <trkpt lat="53.1648400" lon="-1.9712600"/>
            <trkpt lat="53.1645400" lon="-1.9710700"/>
            <trkpt lat="53.1645000" lon="-1.9710200"/>
            <trkpt lat="53.1644800" lon="-1.9709500"/>
            <trkpt lat="53.1644500" lon="-1.9709000"/>
            <trkpt lat="53.1642700" lon="-1.9708500"/>
            <trkpt lat="53.1641700" lon="-1.9708500"/>
            <trkpt lat="53.1640500" lon="-1.9707500"/>
            <trkpt lat="53.1639600" lon="-1.9707000"/>
            <trkpt lat="53.1639200" lon="-1.9706600"/>
            <trkpt lat="53.1639000" lon="-1.9706000"/>
            <trkpt lat="53.1638900" lon="-1.9704500"/>
            <trkpt lat="53.1638700" lon="-1.9703800"/>
            <trkpt lat="53.1638400" lon="-1.9703600"/>
            <trkpt lat="53.1635700" lon="-1.9703700"/>
            <trkpt lat="53.1635300" lon="-1.9703900"/>
            <trkpt lat="53.1634400" lon="-1.9705200"/>
            <trkpt lat="53.1633300" lon="-1.9708200"/>
            <trkpt lat="53.1632600" lon="-1.9709300"/>
            <trkpt lat="53.1631800" lon="-1.9710000"/>
            <trkpt lat="53.1629500" lon="-1.9710700"/>
            <trkpt lat="53.1627600" lon="-1.9710400"/>
            <trkpt lat="53.1626300" lon="-1.9709600"/>
            <trkpt lat="53.1625400" lon="-1.9709600"/>
            <trkpt lat="53.1623300" lon="-1.9711400"/>
            <trkpt lat="53.1622200" lon="-1.9713000"/>
            <trkpt lat="53.1617100" lon="-1.9716700"/>
            <trkpt lat="53.1612800" lon="-1.9717200"/>
            <trkpt lat="53.1609500" lon="-1.9716000"/>
            <trkpt lat="53.1606500" lon="-1.9717600"/>
            <trkpt lat="53.1605600" lon="-1.9717100"/>
            <trkpt lat="53.1604700" lon="-1.9717100"/>
            <trkpt lat="53.1603300" lon="-1.9716700"/>
            <trkpt lat="53.1601300" lon="-1.9715500"/>
            <trkpt lat="53.1600900" lon="-1.9715900"/>
            <trkpt lat="53.1600400" lon="-1.9716100"/>
            <trkpt lat="53.1599000" lon="-1.9716200"/>
            <trkpt lat="53.1597300" lon="-1.9717400"/>
            <trkpt lat="53.1596300" lon="-1.9717400"/>
            <trkpt lat="53.1595400" lon="-1.9717000"/>
            <trkpt lat="53.1594800" lon="-1.9715900"/>
            <trkpt lat="53.1594300" lon="-1.9715700"/>
            <trkpt lat="53.1592500" lon="-1.9715800"/>
            <trkpt lat="53.1591600" lon="-1.9715600"/>
            <trkpt lat="53.1591200" lon="-1.9716000"/>
            <trkpt lat="53.1590700" lon="-1.9716200"/>
            <trkpt lat="53.1589800" lon="-1.9716000"/>
            <trkpt lat="53.1588300" lon="-1.9716700"/>
            <trkpt lat="53.1587300" lon="-1.9717400"/>
            <trkpt lat="53.1586000" lon="-1.9718800"/>
            <trkpt lat="53.1585100" lon="-1.9719200"/>
            <trkpt lat="53.1583200" lon="-1.9721400"/>
            <trkpt lat="53.1582100" lon="-1.9722100"/>
            <trkpt lat="53.1579900" lon="-1.9722400"/>
            <trkpt lat="53.1579100" lon="-1.9723000"/>
            <trkpt lat="53.1576800" lon="-1.9723000"/>
            <trkpt lat="53.1576500" lon="-1.9723600"/>
            <trkpt lat="53.1576400" lon="-1.9725200"/>
            <trkpt lat="53.1576100" lon="-1.9726600"/>
            <trkpt lat="53.1575700" lon="-1.9726900"/>
            <trkpt lat="53.1574000" lon="-1.9726900"/>
            <trkpt lat="53.1573600" lon="-1.9727300"/>
            <trkpt lat="53.1573300" lon="-1.9728700"/>
            <trkpt lat="53.1573000" lon="-1.9729200"/>
            <trkpt lat="53.1570600" lon="-1.9729300"/>
            <trkpt lat="53.1570200" lon="-1.9729500"/>
            <trkpt lat="53.1569400" lon="-1.9730400"/>
            <trkpt lat="53.1567100" lon="-1.9731100"/>
            <trkpt lat="53.1564200" lon="-1.9731600"/>
            <trkpt lat="53.1562100" lon="-1.9732900"/>
            <trkpt lat="53.1561200" lon="-1.9733900"/>
            <trkpt lat="53.1560900" lon="-1.9734500"/>
            <trkpt lat="53.1558600" lon="-1.9736600"/>
            <trkpt lat="53.1556800" lon="-1.9737300"/>
            <trkpt lat="53.1555300" lon="-1.9737300"/>
            <trkpt lat="53.1554400" lon="-1.9737800"/>
            <trkpt lat="53.1553700" lon="-1.9738900"/>
            <trkpt lat="53.1553500" lon="-1.9739600"/>
            <trkpt lat="53.1552900" lon="-1.9740800"/>
            <trkpt lat="53.1552300" lon="-1.9741500"/>
            <trkpt lat="53.1551400" lon="-1.9742100"/>
            <trkpt lat="53.1551300" lon="-1.9742900"/>
            <trkpt lat="53.1551500" lon="-1.9743500"/>
            <trkpt lat="53.1551500" lon="-1.9744300"/>
            <trkpt lat="53.1550400" lon="-1.9747800"/>
            <trkpt lat="53.1550300" lon="-1.9751300"/>
            <trkpt lat="53.1549900" lon="-1.9752500"/>
            <trkpt lat="53.1549700" lon="-1.9752700"/>
            <trkpt lat="53.1548300" lon="-1.9752800"/>
            <trkpt lat="53.1546900" lon="-1.9752400"/>
            <trkpt lat="53.1546700" lon="-1.9753900"/>
            <trkpt lat="53.1545700" lon="-1.9755500"/>
            <trkpt lat="53.1544900" lon="-1.9761000"/>
            <trkpt lat="53.1544300" lon="-1.9763100"/>
            <trkpt lat="53.1544100" lon="-1.9764600"/>
            <trkpt lat="53.1543700" lon="-1.9766100"/>
            <trkpt lat="53.1543600" lon="-1.9770000"/>
            <trkpt lat="53.1542900" lon="-1.9771700"/>
            <trkpt lat="53.1542700" lon="-1.9772500"/>
            <trkpt lat="53.1542800" lon="-1.9774000"/>
            <trkpt lat="53.1543300" lon="-1.9775300"/>
            <trkpt lat="53.1543900" lon="-1.9777500"/>
            <trkpt lat="53.1544000" lon="-1.9782200"/>
            <trkpt lat="53.1544700" lon="-1.9787500"/>
            <trkpt lat="53.1544600" lon="-1.9789000"/>
            <trkpt lat="53.1543900" lon="-1.9790100"/>
            <trkpt lat="53.1542500" lon="-1.9790600"/>
            <trkpt lat="53.1540900" lon="-1.9790000"/>
            <trkpt lat="53.1539200" lon="-1.9789000"/>
            <trkpt lat="53.1538300" lon="-1.9788800"/>
            <trkpt lat="53.1535900" lon="-1.9789200"/>
            <trkpt lat="53.1534100" lon="-1.9790700"/>
            <trkpt lat="53.1533600" lon="-1.9790900"/>
            <trkpt lat="53.1530300" lon="-1.9790900"/>
            <trkpt lat="53.1529400" lon="-1.9791400"/>
            <trkpt lat="53.1529000" lon="-1.9791900"/>
            <trkpt lat="53.1528800" lon="-1.9792600"/>
            <trkpt lat="53.1526000" lon="-1.9804300"/>
            <trkpt lat="53.1525300" lon="-1.9805300"/>
            <trkpt lat="53.1524100" lon="-1.9806500"/>
            <trkpt lat="53.1523600" lon="-1.9806800"/>
            <trkpt lat="53.1522000" lon="-1.9810100"/>
            <trkpt lat="53.1521300" lon="-1.9811200"/>
            <trkpt lat="53.1521100" lon="-1.9811900"/>
            <trkpt lat="53.1521100" lon="-1.9812600"/>
            <trkpt lat="53.1521400" lon="-1.9814100"/>
            <trkpt lat="53.1521400" lon="-1.9815600"/>
            <trkpt lat="53.1521800" lon="-1.9817000"/>
            <trkpt lat="53.1522200" lon="-1.9819600"/>
            <trkpt lat="53.1522800" lon="-1.9820800"/>
            <trkpt lat="53.1523000" lon="-1.9821500"/>
            <trkpt lat="53.1523000" lon="-1.9822200"/>
            <trkpt lat="53.1523500" lon="-1.9822500"/>
            <trkpt lat="53.1524400" lon="-1.9822500"/>
            <trkpt lat="53.1525200" lon="-1.9823400"/>
            <trkpt lat="53.1528300" lon="-1.9826100"/>
            <trkpt lat="53.1532700" lon="-1.9829700"/>
            <trkpt lat="53.1536000" lon="-1.9831100"/>
            <trkpt lat="53.1536800" lon="-1.9831700"/>
            <trkpt lat="53.1542200" lon="-1.9838700"/>
            <trkpt lat="53.1542400" lon="-1.9839400"/>
            <trkpt lat="53.1543100" lon="-1.9844600"/>
            <trkpt lat="53.1545200" lon="-1.9852900"/>
            <trkpt lat="53.1545300" lon="-1.9852900"/>
            <trkpt lat="53.1546600" lon="-1.9855900"/>
            <trkpt lat="53.1549100" lon="-1.9859200"/>
            <trkpt lat="53.1549100" lon="-1.9859900"/>
            <trkpt lat="53.1548900" lon="-1.9860600"/>
            <trkpt lat="53.1546800" lon="-1.9863600"/>
            <trkpt lat="53.1545300" lon="-1.9865300"/>
            <trkpt lat="53.1543600" lon="-1.9864800"/>
            <trkpt lat="53.1542700" lon="-1.9864800"/>
            <trkpt lat="53.1542600" lon="-1.9865500"/>
            <trkpt lat="53.1542700" lon="-1.9865900"/>
            <trkpt lat="53.1545000" lon="-1.9870300"/>
            <trkpt lat="53.1546000" lon="-1.9872700"/>
            <trkpt lat="53.1549600" lon="-1.9883000"/>
            <trkpt lat="53.1549900" lon="-1.9884300"/>
            <trkpt lat="53.1551300" lon="-1.9888400"/>
            <trkpt lat="53.1551400" lon="-1.9889200"/>
            <trkpt lat="53.1551300" lon="-1.9893900"/>
            <trkpt lat="53.1550900" lon="-1.9896600"/>
            <trkpt lat="53.1551100" lon="-1.9898100"/>
            <trkpt lat="53.1551100" lon="-1.9901400"/>
            <trkpt lat="53.1551200" lon="-1.9902000"/>
            <trkpt lat="53.1551100" lon="-1.9904500"/>
            <trkpt lat="53.1547400" lon="-1.9912600"/>
            <trkpt lat="53.1546500" lon="-1.9915400"/>
            <trkpt lat="53.1544700" lon="-1.9919000"/>
            <trkpt lat="53.1543800" lon="-1.9921500"/>
            <trkpt lat="53.1543100" lon="-1.9922500"/>
            <trkpt lat="53.1542500" lon="-1.9923700"/>
            <trkpt lat="53.1542100" lon="-1.9923900"/>
            <trkpt lat="53.1537900" lon="-1.9918600"/>
            <trkpt lat="53.1535700" lon="-1.9916800"/>
            <trkpt lat="53.1534300" lon="-1.9916600"/>
            <trkpt lat="53.1533000" lon="-1.9916900"/>
            <trkpt lat="53.1521000" lon="-1.9921700"/>
            <trkpt lat="53.1515700" lon="-1.9923300"/>
            <trkpt lat="53.1511300" lon="-1.9924400"/>
        </trkseg>
    </trk>
</gpx>
