<?xml version="1.0" encoding="UTF-8" standalone="yes"?>
<gpx version="1.1" creator="OS Maps - Web" xmlns="http://www.topografix.com/GPX/1/1"
xmlns:xsi="http://www.w3.org/2001/XMLSchema-instance"
xsi:schemaLocation="http://www.topografix.com/GPX/1/1 http://www.topografix.com/GPX/1/1/gpx.xsd"
xmlns:gs="http://www.topografix.com/GPX/gpx_style/0/2"
xmlns:gh="https://graphhopper.com/public/schema/gpx/1.1"
xmlns:os="https://ordnancesurvey.co.uk/public/schema/route/0.1">
    <metadata>
        <name>Higger Tor, White Path Moss, High Neb &amp; Stanedge Pole (Ethels) - Circular (www.thelostpeak.co.uk)</name>
        <desc>www.thelostpeak.co.uk</desc>
        <bounds minlat="53.3336400" minlon="-1.6620600" maxlat="53.3658200" maxlon="-1.5632900"/>
        <extensions>
            <os:version>2.0</os:version>
            <os:point lat="53.3498500" lon="-1.5632900" type="start"/>
            <os:point lat="53.3498500" lon="-1.5632900" type="end"/>
            <os:activity>ON_FOOT_WALKING</os:activity>
            <os:difficulty>DIFFICULT</os:difficulty>
            <os:paths/>
            <os:distance>17951.5194250</os:distance>
            <os:elevation_ascent>399.6700000</os:elevation_ascent>
        </extensions>
    </metadata>
    <wpt lat="53.3498500" lon="-1.5632900"/>
    <wpt lat="53.3494000" lon="-1.5664400"/>
    <wpt lat="53.3492200" lon="-1.5664700"/>
    <wpt lat="53.3489300" lon="-1.5672200"/>
    <wpt lat="53.3489700" lon="-1.5679300"/>
    <wpt lat="53.3481700" lon="-1.5694200"/>
    <wpt lat="53.3477200" lon="-1.5695100"/>
    <wpt lat="53.3461200" lon="-1.5740600"/>
    <wpt lat="53.3460900" lon="-1.5744000"/>
    <wpt lat="53.3464400" lon="-1.5755400"/>
    <wpt lat="53.3463800" lon="-1.5768400"/>
    <wpt lat="53.3460900" lon="-1.5780400"/>
    <wpt lat="53.3455400" lon="-1.5790000"/>
    <wpt lat="53.3449000" lon="-1.5813700"/>
    <wpt lat="53.3445600" lon="-1.5819000"/>
    <wpt lat="53.3446400" lon="-1.5844800"/>
    <wpt lat="53.3448700" lon="-1.5858500"/>
    <wpt lat="53.3441900" lon="-1.5897000"/>
    <wpt lat="53.3437300" lon="-1.5910100"/>
    <wpt lat="53.3428900" lon="-1.5918400"/>
    <wpt lat="53.3424500" lon="-1.5926700"/>
    <wpt lat="53.3420500" lon="-1.5940200"/>
    <wpt lat="53.3419400" lon="-1.5951700"/>
    <wpt lat="53.3407900" lon="-1.5984100"/>
    <wpt lat="53.3400500" lon="-1.5991200"/>
    <wpt lat="53.3390600" lon="-1.6009200"/>
    <wpt lat="53.3386800" lon="-1.6008900"/>
    <wpt lat="53.3390500" lon="-1.6018700"/>
    <wpt lat="53.3389700" lon="-1.6031600"/>
    <wpt lat="53.3391200" lon="-1.6040300"/>
    <wpt lat="53.3386200" lon="-1.6051500"/>
    <wpt lat="53.3383900" lon="-1.6072000"/>
    <wpt lat="53.3381600" lon="-1.6074900"/>
    <wpt lat="53.3380700" lon="-1.6080600"/>
    <wpt lat="53.3378100" lon="-1.6084000"/>
    <wpt lat="53.3371200" lon="-1.6082300"/>
    <wpt lat="53.3366500" lon="-1.6090800"/>
    <wpt lat="53.3360500" lon="-1.6095500"/>
    <wpt lat="53.3354400" lon="-1.6091500"/>
    <wpt lat="53.3351700" lon="-1.6092700"/>
    <wpt lat="53.3351200" lon="-1.6108400"/>
    <wpt lat="53.3347000" lon="-1.6126400"/>
    <wpt lat="53.3350500" lon="-1.6151500"/>
    <wpt lat="53.3349300" lon="-1.6153600"/>
    <wpt lat="53.3336900" lon="-1.6155700"/>
    <wpt lat="53.3336600" lon="-1.6159300"/>
    <wpt lat="53.3339100" lon="-1.6164000"/>
    <wpt lat="53.3342500" lon="-1.6164600"/>
    <wpt lat="53.3353000" lon="-1.6156400"/>
    <wpt lat="53.3358000" lon="-1.6157700"/>
    <wpt lat="53.3368500" lon="-1.6165700"/>
    <wpt lat="53.3393900" lon="-1.6209300"/>
    <wpt lat="53.3403100" lon="-1.6214900"/>
    <wpt lat="53.3415700" lon="-1.6233900"/>
    <wpt lat="53.3417600" lon="-1.6235100"/>
    <wpt lat="53.3424400" lon="-1.6229400"/>
    <wpt lat="53.3434800" lon="-1.6227500"/>
    <wpt lat="53.3435800" lon="-1.6230400"/>
    <wpt lat="53.3433600" lon="-1.6238900"/>
    <wpt lat="53.3439300" lon="-1.6261600"/>
    <wpt lat="53.3444400" lon="-1.6276900"/>
    <wpt lat="53.3450000" lon="-1.6286100"/>
    <wpt lat="53.3457700" lon="-1.6306900"/>
    <wpt lat="53.3482200" lon="-1.6339900"/>
    <wpt lat="53.3510600" lon="-1.6357800"/>
    <wpt lat="53.3519100" lon="-1.6369700"/>
    <wpt lat="53.3556900" lon="-1.6407600"/>
    <wpt lat="53.3575900" lon="-1.6431000"/>
    <wpt lat="53.3583000" lon="-1.6442300"/>
    <wpt lat="53.3593200" lon="-1.6467500"/>
    <wpt lat="53.3611400" lon="-1.6532100"/>
    <wpt lat="53.3622200" lon="-1.6559000"/>
    <wpt lat="53.3626400" lon="-1.6580100"/>
    <wpt lat="53.3636000" lon="-1.6593100"/>
    <wpt lat="53.3646900" lon="-1.6617700"/>
    <wpt lat="53.3655000" lon="-1.6620400"/>
    <wpt lat="53.3658100" lon="-1.6615700"/>
    <wpt lat="53.3638500" lon="-1.6573100"/>
    <wpt lat="53.3635300" lon="-1.6558500"/>
    <wpt lat="53.3640600" lon="-1.6542700"/>
    <wpt lat="53.3643600" lon="-1.6524400"/>
    <wpt lat="53.3648100" lon="-1.6476100"/>
    <wpt lat="53.3647800" lon="-1.6466100"/>
    <wpt lat="53.3649500" lon="-1.6457300"/>
    <wpt lat="53.3648900" lon="-1.6449900"/>
    <wpt lat="53.3651100" lon="-1.6443000"/>
    <wpt lat="53.3637900" lon="-1.6413600"/>
    <wpt lat="53.3626700" lon="-1.6394200"/>
    <wpt lat="53.3615900" lon="-1.6380900"/>
    <wpt lat="53.3614200" lon="-1.6376100"/>
    <wpt lat="53.3604100" lon="-1.6366300"/>
    <wpt lat="53.3601300" lon="-1.6355500"/>
    <wpt lat="53.3592100" lon="-1.6354700"/>
    <wpt lat="53.3573600" lon="-1.6345700"/>
    <wpt lat="53.3559300" lon="-1.6349800"/>
    <wpt lat="53.3562100" lon="-1.6306200"/>
    <wpt lat="53.3563900" lon="-1.6298400"/>
    <wpt lat="53.3558100" lon="-1.6287200"/>
    <wpt lat="53.3556100" lon="-1.6290700"/>
    <wpt lat="53.3535800" lon="-1.6260400"/>
    <wpt lat="53.3536000" lon="-1.6248900"/>
    <wpt lat="53.3538500" lon="-1.6237700"/>
    <wpt lat="53.3538000" lon="-1.6226800"/>
    <wpt lat="53.3545400" lon="-1.6201300"/>
    <wpt lat="53.3548900" lon="-1.6168500"/>
    <wpt lat="53.3552800" lon="-1.6157600"/>
    <wpt lat="53.3550600" lon="-1.6141100"/>
    <wpt lat="53.3551400" lon="-1.6123800"/>
    <wpt lat="53.3550300" lon="-1.6117400"/>
    <wpt lat="53.3547200" lon="-1.6111800"/>
    <wpt lat="53.3542500" lon="-1.6078000"/>
    <wpt lat="53.3538300" lon="-1.6062000"/>
    <wpt lat="53.3536700" lon="-1.6043100"/>
    <wpt lat="53.3540700" lon="-1.6010800"/>
    <wpt lat="53.3540400" lon="-1.5962700"/>
    <wpt lat="53.3542500" lon="-1.5945200"/>
    <wpt lat="53.3535000" lon="-1.5935500"/>
    <wpt lat="53.3523400" lon="-1.5928300"/>
    <wpt lat="53.3512700" lon="-1.5918100"/>
    <wpt lat="53.3510300" lon="-1.5911200"/>
    <wpt lat="53.3509900" lon="-1.5903800"/>
    <wpt lat="53.3513500" lon="-1.5883400"/>
    <wpt lat="53.3512400" lon="-1.5876000"/>
    <wpt lat="53.3514900" lon="-1.5871600"/>
    <wpt lat="53.3515200" lon="-1.5851100"/>
    <wpt lat="53.3513100" lon="-1.5836300"/>
    <wpt lat="53.3515300" lon="-1.5835500"/>
    <wpt lat="53.3517000" lon="-1.5830300"/>
    <wpt lat="53.3522800" lon="-1.5788500"/>
    <wpt lat="53.3521200" lon="-1.5780300"/>
    <wpt lat="53.3512600" lon="-1.5756900"/>
    <wpt lat="53.3510400" lon="-1.5742000"/>
    <wpt lat="53.3506800" lon="-1.5730200"/>
    <wpt lat="53.3488600" lon="-1.5720700"/>
    <wpt lat="53.3498500" lon="-1.5632900"/>
    <trk>
        <name>Higger Tor, White Path Moss, High Neb &amp; Stanedge Pole (Ethels) - Circular (www.thelostpeak.co.uk)</name>
        <trkseg>
            <trkpt lat="53.3498500" lon="-1.5632900"/>
            <trkpt lat="53.3494900" lon="-1.5660500"/>
            <trkpt lat="53.3494000" lon="-1.5664400"/>
            <trkpt lat="53.3492200" lon="-1.5664700"/>
            <trkpt lat="53.3491600" lon="-1.5667000"/>
            <trkpt lat="53.3490000" lon="-1.5670000"/>
            <trkpt lat="53.3489600" lon="-1.5671000"/>
            <trkpt lat="53.3489500" lon="-1.5671800"/>
            <trkpt lat="53.3489300" lon="-1.5672200"/>
            <trkpt lat="53.3489400" lon="-1.5672600"/>
            <trkpt lat="53.3489300" lon="-1.5674500"/>
            <trkpt lat="53.3489500" lon="-1.5674700"/>
            <trkpt lat="53.3489700" lon="-1.5675900"/>
            <trkpt lat="53.3489800" lon="-1.5678900"/>
            <trkpt lat="53.3489700" lon="-1.5679300"/>
            <trkpt lat="53.3488100" lon="-1.5682300"/>
            <trkpt lat="53.3487000" lon="-1.5683700"/>
            <trkpt lat="53.3486500" lon="-1.5685900"/>
            <trkpt lat="53.3485000" lon="-1.5687400"/>
            <trkpt lat="53.3483600" lon="-1.5690200"/>
            <trkpt lat="53.3482800" lon="-1.5692700"/>
            <trkpt lat="53.3482300" lon="-1.5693200"/>
            <trkpt lat="53.3481700" lon="-1.5694200"/>
            <trkpt lat="53.3480500" lon="-1.5695500"/>
            <trkpt lat="53.3480000" lon="-1.5695700"/>
            <trkpt lat="53.3479600" lon="-1.5695700"/>
            <trkpt lat="53.3477700" lon="-1.5694800"/>
            <trkpt lat="53.3477200" lon="-1.5695100"/>
            <trkpt lat="53.3476500" lon="-1.5697300"/>
            <trkpt lat="53.3476000" lon="-1.5698400"/>
            <trkpt lat="53.3475600" lon="-1.5699900"/>
            <trkpt lat="53.3474800" lon="-1.5701600"/>
            <trkpt lat="53.3474000" lon="-1.5704100"/>
            <trkpt lat="53.3473100" lon="-1.5706300"/>
            <trkpt lat="53.3472800" lon="-1.5707500"/>
            <trkpt lat="53.3469200" lon="-1.5717500"/>
            <trkpt lat="53.3468600" lon="-1.5719500"/>
            <trkpt lat="53.3467500" lon="-1.5722300"/>
            <trkpt lat="53.3467200" lon="-1.5723800"/>
            <trkpt lat="53.3465200" lon="-1.5728800"/>
            <trkpt lat="53.3464600" lon="-1.5731100"/>
            <trkpt lat="53.3464000" lon="-1.5732400"/>
            <trkpt lat="53.3462800" lon="-1.5735700"/>
            <trkpt lat="53.3461200" lon="-1.5740600"/>
            <trkpt lat="53.3460900" lon="-1.5742400"/>
            <trkpt lat="53.3460900" lon="-1.5744000"/>
            <trkpt lat="53.3461100" lon="-1.5744800"/>
            <trkpt lat="53.3462900" lon="-1.5748800"/>
            <trkpt lat="53.3464200" lon="-1.5753800"/>
            <trkpt lat="53.3464400" lon="-1.5755400"/>
            <trkpt lat="53.3464400" lon="-1.5759100"/>
            <trkpt lat="53.3463800" lon="-1.5768400"/>
            <trkpt lat="53.3462700" lon="-1.5772000"/>
            <trkpt lat="53.3460900" lon="-1.5780400"/>
            <trkpt lat="53.3459500" lon="-1.5783400"/>
            <trkpt lat="53.3458900" lon="-1.5784200"/>
            <trkpt lat="53.3458300" lon="-1.5785500"/>
            <trkpt lat="53.3456300" lon="-1.5788200"/>
            <trkpt lat="53.3456000" lon="-1.5789100"/>
            <trkpt lat="53.3455400" lon="-1.5790000"/>
            <trkpt lat="53.3455000" lon="-1.5791900"/>
            <trkpt lat="53.3453300" lon="-1.5797300"/>
            <trkpt lat="53.3452800" lon="-1.5800100"/>
            <trkpt lat="53.3452300" lon="-1.5802000"/>
            <trkpt lat="53.3451500" lon="-1.5803800"/>
            <trkpt lat="53.3450900" lon="-1.5805700"/>
            <trkpt lat="53.3449600" lon="-1.5810700"/>
            <trkpt lat="53.3449300" lon="-1.5812800"/>
            <trkpt lat="53.3449000" lon="-1.5813700"/>
            <trkpt lat="53.3448500" lon="-1.5814700"/>
            <trkpt lat="53.3447600" lon="-1.5815900"/>
            <trkpt lat="53.3445900" lon="-1.5817600"/>
            <trkpt lat="53.3445600" lon="-1.5819000"/>
            <trkpt lat="53.3445700" lon="-1.5819900"/>
            <trkpt lat="53.3445600" lon="-1.5820300"/>
            <trkpt lat="53.3445800" lon="-1.5821000"/>
            <trkpt lat="53.3445900" lon="-1.5822000"/>
            <trkpt lat="53.3445800" lon="-1.5822400"/>
            <trkpt lat="53.3445800" lon="-1.5825600"/>
            <trkpt lat="53.3446300" lon="-1.5829000"/>
            <trkpt lat="53.3446400" lon="-1.5834200"/>
            <trkpt lat="53.3446100" lon="-1.5836300"/>
            <trkpt lat="53.3446200" lon="-1.5841600"/>
            <trkpt lat="53.3446400" lon="-1.5844800"/>
            <trkpt lat="53.3446600" lon="-1.5847200"/>
            <trkpt lat="53.3446900" lon="-1.5848400"/>
            <trkpt lat="53.3447200" lon="-1.5851200"/>
            <trkpt lat="53.3447800" lon="-1.5853700"/>
            <trkpt lat="53.3448600" lon="-1.5855500"/>
            <trkpt lat="53.3448700" lon="-1.5858500"/>
            <trkpt lat="53.3448500" lon="-1.5859600"/>
            <trkpt lat="53.3448500" lon="-1.5861300"/>
            <trkpt lat="53.3447900" lon="-1.5864500"/>
            <trkpt lat="53.3447900" lon="-1.5865500"/>
            <trkpt lat="53.3447000" lon="-1.5871000"/>
            <trkpt lat="53.3446800" lon="-1.5873400"/>
            <trkpt lat="53.3446400" lon="-1.5875000"/>
            <trkpt lat="53.3446300" lon="-1.5876600"/>
            <trkpt lat="53.3446000" lon="-1.5878100"/>
            <trkpt lat="53.3445600" lon="-1.5878800"/>
            <trkpt lat="53.3445400" lon="-1.5879700"/>
            <trkpt lat="53.3445300" lon="-1.5882100"/>
            <trkpt lat="53.3445100" lon="-1.5882600"/>
            <trkpt lat="53.3445000" lon="-1.5883500"/>
            <trkpt lat="53.3444400" lon="-1.5886100"/>
            <trkpt lat="53.3443900" lon="-1.5888800"/>
            <trkpt lat="53.3443800" lon="-1.5890000"/>
            <trkpt lat="53.3443200" lon="-1.5892400"/>
            <trkpt lat="53.3442600" lon="-1.5893400"/>
            <trkpt lat="53.3442400" lon="-1.5894100"/>
            <trkpt lat="53.3442300" lon="-1.5895600"/>
            <trkpt lat="53.3441900" lon="-1.5897000"/>
            <trkpt lat="53.3441600" lon="-1.5897600"/>
            <trkpt lat="53.3440800" lon="-1.5898600"/>
            <trkpt lat="53.3440200" lon="-1.5900000"/>
            <trkpt lat="53.3438600" lon="-1.5907300"/>
            <trkpt lat="53.3437900" lon="-1.5908600"/>
            <trkpt lat="53.3437700" lon="-1.5909400"/>
            <trkpt lat="53.3437300" lon="-1.5910100"/>
            <trkpt lat="53.3433400" lon="-1.5913700"/>
            <trkpt lat="53.3433100" lon="-1.5913800"/>
            <trkpt lat="53.3431700" lon="-1.5915500"/>
            <trkpt lat="53.3430200" lon="-1.5916900"/>
            <trkpt lat="53.3428900" lon="-1.5918400"/>
            <trkpt lat="53.3428200" lon="-1.5919600"/>
            <trkpt lat="53.3427700" lon="-1.5920100"/>
            <trkpt lat="53.3426100" lon="-1.5923000"/>
            <trkpt lat="53.3424500" lon="-1.5926700"/>
            <trkpt lat="53.3423600" lon="-1.5929700"/>
            <trkpt lat="53.3422500" lon="-1.5932500"/>
            <trkpt lat="53.3421700" lon="-1.5936000"/>
            <trkpt lat="53.3421100" lon="-1.5937900"/>
            <trkpt lat="53.3420900" lon="-1.5939200"/>
            <trkpt lat="53.3420500" lon="-1.5940200"/>
            <trkpt lat="53.3420500" lon="-1.5943400"/>
            <trkpt lat="53.3420200" lon="-1.5946000"/>
            <trkpt lat="53.3420200" lon="-1.5947300"/>
            <trkpt lat="53.3419900" lon="-1.5948300"/>
            <trkpt lat="53.3419800" lon="-1.5950000"/>
            <trkpt lat="53.3419400" lon="-1.5951700"/>
            <trkpt lat="53.3418700" lon="-1.5953800"/>
            <trkpt lat="53.3418300" lon="-1.5955500"/>
            <trkpt lat="53.3416900" lon="-1.5959700"/>
            <trkpt lat="53.3415200" lon="-1.5963900"/>
            <trkpt lat="53.3414800" lon="-1.5965400"/>
            <trkpt lat="53.3413200" lon="-1.5969900"/>
            <trkpt lat="53.3411900" lon="-1.5972700"/>
            <trkpt lat="53.3410500" lon="-1.5977000"/>
            <trkpt lat="53.3410300" lon="-1.5978000"/>
            <trkpt lat="53.3409900" lon="-1.5979100"/>
            <trkpt lat="53.3409300" lon="-1.5980100"/>
            <trkpt lat="53.3409000" lon="-1.5981100"/>
            <trkpt lat="53.3408600" lon="-1.5981800"/>
            <trkpt lat="53.3408600" lon="-1.5982100"/>
            <trkpt lat="53.3408200" lon="-1.5982800"/>
            <trkpt lat="53.3408100" lon="-1.5983600"/>
            <trkpt lat="53.3407900" lon="-1.5984100"/>
            <trkpt lat="53.3406800" lon="-1.5986300"/>
            <trkpt lat="53.3406200" lon="-1.5986900"/>
            <trkpt lat="53.3403900" lon="-1.5988600"/>
            <trkpt lat="53.3403200" lon="-1.5989500"/>
            <trkpt lat="53.3400500" lon="-1.5991200"/>
            <trkpt lat="53.3397900" lon="-1.5995600"/>
            <trkpt lat="53.3396700" lon="-1.5997900"/>
            <trkpt lat="53.3396100" lon="-1.5999700"/>
            <trkpt lat="53.3393600" lon="-1.6003500"/>
            <trkpt lat="53.3392300" lon="-1.6004800"/>
            <trkpt lat="53.3392100" lon="-1.6005300"/>
            <trkpt lat="53.3391800" lon="-1.6005600"/>
            <trkpt lat="53.3390600" lon="-1.6009200"/>
            <trkpt lat="53.3390000" lon="-1.6009800"/>
            <trkpt lat="53.3389500" lon="-1.6010000"/>
            <trkpt lat="53.3388300" lon="-1.6009500"/>
            <trkpt lat="53.3387700" lon="-1.6008900"/>
            <trkpt lat="53.3387200" lon="-1.6008700"/>
            <trkpt lat="53.3386800" lon="-1.6008900"/>
            <trkpt lat="53.3387300" lon="-1.6010500"/>
            <trkpt lat="53.3387400" lon="-1.6011700"/>
            <trkpt lat="53.3388000" lon="-1.6013000"/>
            <trkpt lat="53.3388200" lon="-1.6014200"/>
            <trkpt lat="53.3389600" lon="-1.6016900"/>
            <trkpt lat="53.3390000" lon="-1.6017400"/>
            <trkpt lat="53.3390500" lon="-1.6018700"/>
            <trkpt lat="53.3390200" lon="-1.6020200"/>
            <trkpt lat="53.3390400" lon="-1.6020900"/>
            <trkpt lat="53.3390300" lon="-1.6022900"/>
            <trkpt lat="53.3390500" lon="-1.6023700"/>
            <trkpt lat="53.3390400" lon="-1.6025200"/>
            <trkpt lat="53.3390500" lon="-1.6025800"/>
            <trkpt lat="53.3390500" lon="-1.6028200"/>
            <trkpt lat="53.3390100" lon="-1.6029800"/>
            <trkpt lat="53.3389700" lon="-1.6030800"/>
            <trkpt lat="53.3389700" lon="-1.6031600"/>
            <trkpt lat="53.3390200" lon="-1.6033100"/>
            <trkpt lat="53.3390200" lon="-1.6033700"/>
            <trkpt lat="53.3390700" lon="-1.6035400"/>
            <trkpt lat="53.3391000" lon="-1.6038600"/>
            <trkpt lat="53.3390900" lon="-1.6038900"/>
            <trkpt lat="53.3391200" lon="-1.6040300"/>
            <trkpt lat="53.3390500" lon="-1.6042200"/>
            <trkpt lat="53.3389300" lon="-1.6044000"/>
            <trkpt lat="53.3388800" lon="-1.6045100"/>
            <trkpt lat="53.3388700" lon="-1.6045700"/>
            <trkpt lat="53.3388100" lon="-1.6046800"/>
            <trkpt lat="53.3387900" lon="-1.6047600"/>
            <trkpt lat="53.3387000" lon="-1.6048800"/>
            <trkpt lat="53.3386200" lon="-1.6051500"/>
            <trkpt lat="53.3386000" lon="-1.6053600"/>
            <trkpt lat="53.3386000" lon="-1.6055100"/>
            <trkpt lat="53.3385700" lon="-1.6056300"/>
            <trkpt lat="53.3385000" lon="-1.6057700"/>
            <trkpt lat="53.3384600" lon="-1.6059900"/>
            <trkpt lat="53.3384800" lon="-1.6062700"/>
            <trkpt lat="53.3384700" lon="-1.6064000"/>
            <trkpt lat="53.3384300" lon="-1.6066100"/>
            <trkpt lat="53.3384200" lon="-1.6069200"/>
            <trkpt lat="53.3384000" lon="-1.6070300"/>
            <trkpt lat="53.3383900" lon="-1.6072000"/>
            <trkpt lat="53.3383600" lon="-1.6073000"/>
            <trkpt lat="53.3383100" lon="-1.6073900"/>
            <trkpt lat="53.3381600" lon="-1.6074900"/>
            <trkpt lat="53.3380700" lon="-1.6078900"/>
            <trkpt lat="53.3380800" lon="-1.6079400"/>
            <trkpt lat="53.3380700" lon="-1.6080600"/>
            <trkpt lat="53.3379600" lon="-1.6081700"/>
            <trkpt lat="53.3379000" lon="-1.6083100"/>
            <trkpt lat="53.3378500" lon="-1.6083900"/>
            <trkpt lat="53.3378100" lon="-1.6084000"/>
            <trkpt lat="53.3377300" lon="-1.6083400"/>
            <trkpt lat="53.3376600" lon="-1.6083200"/>
            <trkpt lat="53.3374500" lon="-1.6083400"/>
            <trkpt lat="53.3374300" lon="-1.6082500"/>
            <trkpt lat="53.3373700" lon="-1.6081900"/>
            <trkpt lat="53.3372100" lon="-1.6081900"/>
            <trkpt lat="53.3371200" lon="-1.6082300"/>
            <trkpt lat="53.3370800" lon="-1.6082700"/>
            <trkpt lat="53.3370300" lon="-1.6083800"/>
            <trkpt lat="53.3369700" lon="-1.6083900"/>
            <trkpt lat="53.3369000" lon="-1.6084400"/>
            <trkpt lat="53.3368700" lon="-1.6085400"/>
            <trkpt lat="53.3368600" lon="-1.6086700"/>
            <trkpt lat="53.3368500" lon="-1.6086700"/>
            <trkpt lat="53.3368500" lon="-1.6087800"/>
            <trkpt lat="53.3368300" lon="-1.6088400"/>
            <trkpt lat="53.3367500" lon="-1.6089200"/>
            <trkpt lat="53.3366500" lon="-1.6090800"/>
            <trkpt lat="53.3365200" lon="-1.6091800"/>
            <trkpt lat="53.3364800" lon="-1.6091800"/>
            <trkpt lat="53.3363500" lon="-1.6093600"/>
            <trkpt lat="53.3362500" lon="-1.6094600"/>
            <trkpt lat="53.3360500" lon="-1.6095500"/>
            <trkpt lat="53.3359500" lon="-1.6095600"/>
            <trkpt lat="53.3358200" lon="-1.6094700"/>
            <trkpt lat="53.3355800" lon="-1.6093600"/>
            <trkpt lat="53.3354700" lon="-1.6092200"/>
            <trkpt lat="53.3354400" lon="-1.6091500"/>
            <trkpt lat="53.3353700" lon="-1.6092700"/>
            <trkpt lat="53.3353100" lon="-1.6092800"/>
            <trkpt lat="53.3352400" lon="-1.6092400"/>
            <trkpt lat="53.3351700" lon="-1.6092700"/>
            <trkpt lat="53.3351100" lon="-1.6094500"/>
            <trkpt lat="53.3351700" lon="-1.6096000"/>
            <trkpt lat="53.3351400" lon="-1.6099100"/>
            <trkpt lat="53.3351700" lon="-1.6103000"/>
            <trkpt lat="53.3351200" lon="-1.6108400"/>
            <trkpt lat="53.3350000" lon="-1.6111600"/>
            <trkpt lat="53.3349800" lon="-1.6113400"/>
            <trkpt lat="53.3349500" lon="-1.6114600"/>
            <trkpt lat="53.3349500" lon="-1.6115600"/>
            <trkpt lat="53.3349200" lon="-1.6116400"/>
            <trkpt lat="53.3349700" lon="-1.6118500"/>
            <trkpt lat="53.3349000" lon="-1.6120300"/>
            <trkpt lat="53.3348700" lon="-1.6122100"/>
            <trkpt lat="53.3347600" lon="-1.6124400"/>
            <trkpt lat="53.3347000" lon="-1.6126400"/>
            <trkpt lat="53.3347000" lon="-1.6127400"/>
            <trkpt lat="53.3347300" lon="-1.6129100"/>
            <trkpt lat="53.3347500" lon="-1.6133800"/>
            <trkpt lat="53.3349000" lon="-1.6142400"/>
            <trkpt lat="53.3350000" lon="-1.6145100"/>
            <trkpt lat="53.3350100" lon="-1.6146700"/>
            <trkpt lat="53.3350600" lon="-1.6149700"/>
            <trkpt lat="53.3350500" lon="-1.6151500"/>
            <trkpt lat="53.3350100" lon="-1.6152500"/>
            <trkpt lat="53.3349300" lon="-1.6153600"/>
            <trkpt lat="53.3348600" lon="-1.6153600"/>
            <trkpt lat="53.3347200" lon="-1.6153100"/>
            <trkpt lat="53.3345600" lon="-1.6153300"/>
            <trkpt lat="53.3344100" lon="-1.6153900"/>
            <trkpt lat="53.3343600" lon="-1.6154400"/>
            <trkpt lat="53.3339500" lon="-1.6154600"/>
            <trkpt lat="53.3339400" lon="-1.6154800"/>
            <trkpt lat="53.3338300" lon="-1.6155300"/>
            <trkpt lat="53.3336900" lon="-1.6155700"/>
            <trkpt lat="53.3336400" lon="-1.6157000"/>
            <trkpt lat="53.3336600" lon="-1.6159300"/>
            <trkpt lat="53.3336800" lon="-1.6160000"/>
            <trkpt lat="53.3338000" lon="-1.6162600"/>
            <trkpt lat="53.3339100" lon="-1.6164000"/>
            <trkpt lat="53.3339600" lon="-1.6164300"/>
            <trkpt lat="53.3341400" lon="-1.6164700"/>
            <trkpt lat="53.3342500" lon="-1.6164600"/>
            <trkpt lat="53.3345000" lon="-1.6163400"/>
            <trkpt lat="53.3346900" lon="-1.6161400"/>
            <trkpt lat="53.3348600" lon="-1.6160200"/>
            <trkpt lat="53.3349600" lon="-1.6158900"/>
            <trkpt lat="53.3350500" lon="-1.6157100"/>
            <trkpt lat="53.3352400" lon="-1.6156400"/>
            <trkpt lat="53.3353000" lon="-1.6156400"/>
            <trkpt lat="53.3354600" lon="-1.6157200"/>
            <trkpt lat="53.3356500" lon="-1.6157200"/>
            <trkpt lat="53.3358000" lon="-1.6157700"/>
            <trkpt lat="53.3361300" lon="-1.6160600"/>
            <trkpt lat="53.3362700" lon="-1.6161300"/>
            <trkpt lat="53.3364600" lon="-1.6162600"/>
            <trkpt lat="53.3366700" lon="-1.6165000"/>
            <trkpt lat="53.3367600" lon="-1.6165200"/>
            <trkpt lat="53.3368500" lon="-1.6165700"/>
            <trkpt lat="53.3374100" lon="-1.6175100"/>
            <trkpt lat="53.3378000" lon="-1.6182600"/>
            <trkpt lat="53.3379700" lon="-1.6186300"/>
            <trkpt lat="53.3381400" lon="-1.6189400"/>
            <trkpt lat="53.3384900" lon="-1.6194700"/>
            <trkpt lat="53.3386300" lon="-1.6197200"/>
            <trkpt lat="53.3393900" lon="-1.6209300"/>
            <trkpt lat="53.3394800" lon="-1.6210500"/>
            <trkpt lat="53.3395100" lon="-1.6210700"/>
            <trkpt lat="53.3396200" lon="-1.6210200"/>
            <trkpt lat="53.3396600" lon="-1.6210300"/>
            <trkpt lat="53.3398500" lon="-1.6212000"/>
            <trkpt lat="53.3399200" lon="-1.6212300"/>
            <trkpt lat="53.3400000" lon="-1.6213000"/>
            <trkpt lat="53.3402200" lon="-1.6213900"/>
            <trkpt lat="53.3403100" lon="-1.6214900"/>
            <trkpt lat="53.3404700" lon="-1.6216800"/>
            <trkpt lat="53.3406100" lon="-1.6220300"/>
            <trkpt lat="53.3411300" lon="-1.6228100"/>
            <trkpt lat="53.3413000" lon="-1.6231300"/>
            <trkpt lat="53.3414200" lon="-1.6232700"/>
            <trkpt lat="53.3415700" lon="-1.6233900"/>
            <trkpt lat="53.3417600" lon="-1.6235100"/>
            <trkpt lat="53.3420300" lon="-1.6233100"/>
            <trkpt lat="53.3422600" lon="-1.6231800"/>
            <trkpt lat="53.3423500" lon="-1.6230100"/>
            <trkpt lat="53.3424400" lon="-1.6229400"/>
            <trkpt lat="53.3427300" lon="-1.6229700"/>
            <trkpt lat="53.3429100" lon="-1.6228200"/>
            <trkpt lat="53.3429400" lon="-1.6227500"/>
            <trkpt lat="53.3432400" lon="-1.6227300"/>
            <trkpt lat="53.3433600" lon="-1.6227700"/>
            <trkpt lat="53.3434800" lon="-1.6227500"/>
            <trkpt lat="53.3435800" lon="-1.6229900"/>
            <trkpt lat="53.3435800" lon="-1.6230400"/>
            <trkpt lat="53.3434600" lon="-1.6233300"/>
            <trkpt lat="53.3434300" lon="-1.6235700"/>
            <trkpt lat="53.3433800" lon="-1.6237200"/>
            <trkpt lat="53.3433600" lon="-1.6238900"/>
            <trkpt lat="53.3434100" lon="-1.6241000"/>
            <trkpt lat="53.3435000" lon="-1.6243300"/>
            <trkpt lat="53.3435900" lon="-1.6246700"/>
            <trkpt lat="53.3436900" lon="-1.6249100"/>
            <trkpt lat="53.3437500" lon="-1.6251100"/>
            <trkpt lat="53.3438700" lon="-1.6257100"/>
            <trkpt lat="53.3439300" lon="-1.6261600"/>
            <trkpt lat="53.3442000" lon="-1.6267300"/>
            <trkpt lat="53.3442800" lon="-1.6270400"/>
            <trkpt lat="53.3442800" lon="-1.6271100"/>
            <trkpt lat="53.3443400" lon="-1.6272200"/>
            <trkpt lat="53.3444100" lon="-1.6274100"/>
            <trkpt lat="53.3444300" lon="-1.6275200"/>
            <trkpt lat="53.3444400" lon="-1.6276900"/>
            <trkpt lat="53.3444800" lon="-1.6277400"/>
            <trkpt lat="53.3445200" lon="-1.6278400"/>
            <trkpt lat="53.3446000" lon="-1.6279400"/>
            <trkpt lat="53.3446500" lon="-1.6280500"/>
            <trkpt lat="53.3448600" lon="-1.6283700"/>
            <trkpt lat="53.3449200" lon="-1.6284400"/>
            <trkpt lat="53.3450000" lon="-1.6286100"/>
            <trkpt lat="53.3450100" lon="-1.6286800"/>
            <trkpt lat="53.3451000" lon="-1.6288900"/>
            <trkpt lat="53.3451800" lon="-1.6292300"/>
            <trkpt lat="53.3452500" lon="-1.6293400"/>
            <trkpt lat="53.3452800" lon="-1.6294800"/>
            <trkpt lat="53.3453700" lon="-1.6297600"/>
            <trkpt lat="53.3455300" lon="-1.6301000"/>
            <trkpt lat="53.3456100" lon="-1.6303200"/>
            <trkpt lat="53.3457700" lon="-1.6306900"/>
            <trkpt lat="53.3459700" lon="-1.6309200"/>
            <trkpt lat="53.3461400" lon="-1.6312000"/>
            <trkpt lat="53.3462700" lon="-1.6312800"/>
            <trkpt lat="53.3463300" lon="-1.6313500"/>
            <trkpt lat="53.3466000" lon="-1.6318200"/>
            <trkpt lat="53.3469700" lon="-1.6323200"/>
            <trkpt lat="53.3471900" lon="-1.6326500"/>
            <trkpt lat="53.3472800" lon="-1.6328200"/>
            <trkpt lat="53.3474800" lon="-1.6330100"/>
            <trkpt lat="53.3476000" lon="-1.6331800"/>
            <trkpt lat="53.3476400" lon="-1.6332900"/>
            <trkpt lat="53.3478200" lon="-1.6334400"/>
            <trkpt lat="53.3479100" lon="-1.6335700"/>
            <trkpt lat="53.3480400" lon="-1.6336400"/>
            <trkpt lat="53.3481100" lon="-1.6337500"/>
            <trkpt lat="53.3481500" lon="-1.6338900"/>
            <trkpt lat="53.3482200" lon="-1.6339900"/>
            <trkpt lat="53.3483600" lon="-1.6340500"/>
            <trkpt lat="53.3484400" lon="-1.6341200"/>
            <trkpt lat="53.3487600" lon="-1.6343200"/>
            <trkpt lat="53.3488200" lon="-1.6344000"/>
            <trkpt lat="53.3489500" lon="-1.6344900"/>
            <trkpt lat="53.3492200" lon="-1.6345700"/>
            <trkpt lat="53.3493900" lon="-1.6347400"/>
            <trkpt lat="53.3496800" lon="-1.6348700"/>
            <trkpt lat="53.3502400" lon="-1.6352500"/>
            <trkpt lat="53.3502900" lon="-1.6353100"/>
            <trkpt lat="53.3503700" lon="-1.6353500"/>
            <trkpt lat="53.3504600" lon="-1.6354400"/>
            <trkpt lat="53.3505700" lon="-1.6355000"/>
            <trkpt lat="53.3506100" lon="-1.6355600"/>
            <trkpt lat="53.3506400" lon="-1.6355600"/>
            <trkpt lat="53.3507100" lon="-1.6356100"/>
            <trkpt lat="53.3507600" lon="-1.6356800"/>
            <trkpt lat="53.3509700" lon="-1.6357300"/>
            <trkpt lat="53.3510600" lon="-1.6357800"/>
            <trkpt lat="53.3513600" lon="-1.6361700"/>
            <trkpt lat="53.3516800" lon="-1.6367000"/>
            <trkpt lat="53.3519100" lon="-1.6369700"/>
            <trkpt lat="53.3520700" lon="-1.6370800"/>
            <trkpt lat="53.3521500" lon="-1.6371800"/>
            <trkpt lat="53.3522100" lon="-1.6372000"/>
            <trkpt lat="53.3523400" lon="-1.6372900"/>
            <trkpt lat="53.3524200" lon="-1.6373900"/>
            <trkpt lat="53.3525200" lon="-1.6374500"/>
            <trkpt lat="53.3526000" lon="-1.6375500"/>
            <trkpt lat="53.3527000" lon="-1.6376400"/>
            <trkpt lat="53.3527600" lon="-1.6377400"/>
            <trkpt lat="53.3529600" lon="-1.6379300"/>
            <trkpt lat="53.3530700" lon="-1.6380600"/>
            <trkpt lat="53.3532300" lon="-1.6382900"/>
            <trkpt lat="53.3534000" lon="-1.6384600"/>
            <trkpt lat="53.3535200" lon="-1.6386100"/>
            <trkpt lat="53.3536600" lon="-1.6388200"/>
            <trkpt lat="53.3537100" lon="-1.6388400"/>
            <trkpt lat="53.3539400" lon="-1.6390600"/>
            <trkpt lat="53.3539900" lon="-1.6391700"/>
            <trkpt lat="53.3540500" lon="-1.6392500"/>
            <trkpt lat="53.3540600" lon="-1.6392900"/>
            <trkpt lat="53.3542400" lon="-1.6394200"/>
            <trkpt lat="53.3544500" lon="-1.6396200"/>
            <trkpt lat="53.3545400" lon="-1.6396700"/>
            <trkpt lat="53.3549200" lon="-1.6400300"/>
            <trkpt lat="53.3549700" lon="-1.6400400"/>
            <trkpt lat="53.3551100" lon="-1.6402600"/>
            <trkpt lat="53.3553000" lon="-1.6403700"/>
            <trkpt lat="53.3554500" lon="-1.6405700"/>
            <trkpt lat="53.3555300" lon="-1.6406500"/>
            <trkpt lat="53.3556900" lon="-1.6407600"/>
            <trkpt lat="53.3558400" lon="-1.6409600"/>
            <trkpt lat="53.3560500" lon="-1.6411500"/>
            <trkpt lat="53.3561600" lon="-1.6413500"/>
            <trkpt lat="53.3563200" lon="-1.6415500"/>
            <trkpt lat="53.3563700" lon="-1.6416800"/>
            <trkpt lat="53.3565800" lon="-1.6419400"/>
            <trkpt lat="53.3566800" lon="-1.6421000"/>
            <trkpt lat="53.3570500" lon="-1.6424800"/>
            <trkpt lat="53.3572800" lon="-1.6428100"/>
            <trkpt lat="53.3573100" lon="-1.6428300"/>
            <trkpt lat="53.3574600" lon="-1.6430400"/>
            <trkpt lat="53.3575900" lon="-1.6431000"/>
            <trkpt lat="53.3577000" lon="-1.6432600"/>
            <trkpt lat="53.3578100" lon="-1.6434900"/>
            <trkpt lat="53.3579300" lon="-1.6436800"/>
            <trkpt lat="53.3579400" lon="-1.6437300"/>
            <trkpt lat="53.3580100" lon="-1.6438600"/>
            <trkpt lat="53.3580900" lon="-1.6439300"/>
            <trkpt lat="53.3581300" lon="-1.6440300"/>
            <trkpt lat="53.3581900" lon="-1.6440800"/>
            <trkpt lat="53.3583000" lon="-1.6442300"/>
            <trkpt lat="53.3584500" lon="-1.6446500"/>
            <trkpt lat="53.3585200" lon="-1.6448800"/>
            <trkpt lat="53.3585300" lon="-1.6449500"/>
            <trkpt lat="53.3586200" lon="-1.6451500"/>
            <trkpt lat="53.3588400" lon="-1.6455300"/>
            <trkpt lat="53.3589300" lon="-1.6457200"/>
            <trkpt lat="53.3589500" lon="-1.6458000"/>
            <trkpt lat="53.3590300" lon="-1.6459900"/>
            <trkpt lat="53.3592100" lon="-1.6465000"/>
            <trkpt lat="53.3593200" lon="-1.6467500"/>
            <trkpt lat="53.3595200" lon="-1.6474400"/>
            <trkpt lat="53.3595800" lon="-1.6475900"/>
            <trkpt lat="53.3596500" lon="-1.6478400"/>
            <trkpt lat="53.3598000" lon="-1.6485000"/>
            <trkpt lat="53.3598900" lon="-1.6488200"/>
            <trkpt lat="53.3599300" lon="-1.6489200"/>
            <trkpt lat="53.3599700" lon="-1.6491700"/>
            <trkpt lat="53.3600000" lon="-1.6492200"/>
            <trkpt lat="53.3600400" lon="-1.6493800"/>
            <trkpt lat="53.3600800" lon="-1.6494700"/>
            <trkpt lat="53.3601800" lon="-1.6498300"/>
            <trkpt lat="53.3601800" lon="-1.6498700"/>
            <trkpt lat="53.3602100" lon="-1.6499100"/>
            <trkpt lat="53.3602700" lon="-1.6501300"/>
            <trkpt lat="53.3603800" lon="-1.6506300"/>
            <trkpt lat="53.3604600" lon="-1.6508800"/>
            <trkpt lat="53.3605400" lon="-1.6510800"/>
            <trkpt lat="53.3607000" lon="-1.6515900"/>
            <trkpt lat="53.3607800" lon="-1.6518700"/>
            <trkpt lat="53.3608000" lon="-1.6520000"/>
            <trkpt lat="53.3608800" lon="-1.6522200"/>
            <trkpt lat="53.3611400" lon="-1.6532100"/>
            <trkpt lat="53.3613600" lon="-1.6537500"/>
            <trkpt lat="53.3614700" lon="-1.6540600"/>
            <trkpt lat="53.3620200" lon="-1.6553300"/>
            <trkpt lat="53.3620400" lon="-1.6554500"/>
            <trkpt lat="53.3620800" lon="-1.6555200"/>
            <trkpt lat="53.3622200" lon="-1.6559000"/>
            <trkpt lat="53.3623300" lon="-1.6563900"/>
            <trkpt lat="53.3623400" lon="-1.6565500"/>
            <trkpt lat="53.3623700" lon="-1.6566700"/>
            <trkpt lat="53.3624100" lon="-1.6569700"/>
            <trkpt lat="53.3624200" lon="-1.6571600"/>
            <trkpt lat="53.3625000" lon="-1.6575000"/>
            <trkpt lat="53.3625500" lon="-1.6576600"/>
            <trkpt lat="53.3625900" lon="-1.6577200"/>
            <trkpt lat="53.3626400" lon="-1.6580100"/>
            <trkpt lat="53.3627800" lon="-1.6582200"/>
            <trkpt lat="53.3629200" lon="-1.6583700"/>
            <trkpt lat="53.3630200" lon="-1.6585400"/>
            <trkpt lat="53.3631500" lon="-1.6586500"/>
            <trkpt lat="53.3632900" lon="-1.6588100"/>
            <trkpt lat="53.3634700" lon="-1.6591400"/>
            <trkpt lat="53.3636000" lon="-1.6593100"/>
            <trkpt lat="53.3640400" lon="-1.6602300"/>
            <trkpt lat="53.3643900" lon="-1.6610400"/>
            <trkpt lat="53.3646200" lon="-1.6616600"/>
            <trkpt lat="53.3646900" lon="-1.6617700"/>
            <trkpt lat="53.3648300" lon="-1.6617700"/>
            <trkpt lat="53.3651100" lon="-1.6618900"/>
            <trkpt lat="53.3653100" lon="-1.6620100"/>
            <trkpt lat="53.3654500" lon="-1.6620600"/>
            <trkpt lat="53.3655000" lon="-1.6620400"/>
            <trkpt lat="53.3655500" lon="-1.6620100"/>
            <trkpt lat="53.3655900" lon="-1.6619600"/>
            <trkpt lat="53.3656100" lon="-1.6619000"/>
            <trkpt lat="53.3656600" lon="-1.6618800"/>
            <trkpt lat="53.3657000" lon="-1.6619000"/>
            <trkpt lat="53.3657700" lon="-1.6617800"/>
            <trkpt lat="53.3658200" lon="-1.6616500"/>
            <trkpt lat="53.3658100" lon="-1.6615700"/>
            <trkpt lat="53.3657500" lon="-1.6614500"/>
            <trkpt lat="53.3656400" lon="-1.6612900"/>
            <trkpt lat="53.3655400" lon="-1.6610100"/>
            <trkpt lat="53.3654500" lon="-1.6608500"/>
            <trkpt lat="53.3653700" lon="-1.6606500"/>
            <trkpt lat="53.3652400" lon="-1.6605100"/>
            <trkpt lat="53.3651700" lon="-1.6603900"/>
            <trkpt lat="53.3649100" lon="-1.6597700"/>
            <trkpt lat="53.3649000" lon="-1.6597000"/>
            <trkpt lat="53.3648400" lon="-1.6595100"/>
            <trkpt lat="53.3647000" lon="-1.6592400"/>
            <trkpt lat="53.3646600" lon="-1.6590600"/>
            <trkpt lat="53.3646200" lon="-1.6589900"/>
            <trkpt lat="53.3645800" lon="-1.6588500"/>
            <trkpt lat="53.3645200" lon="-1.6585800"/>
            <trkpt lat="53.3644900" lon="-1.6585400"/>
            <trkpt lat="53.3644800" lon="-1.6585000"/>
            <trkpt lat="53.3644100" lon="-1.6584100"/>
            <trkpt lat="53.3642300" lon="-1.6580900"/>
            <trkpt lat="53.3641100" lon="-1.6578400"/>
            <trkpt lat="53.3640000" lon="-1.6576600"/>
            <trkpt lat="53.3639300" lon="-1.6574600"/>
            <trkpt lat="53.3638500" lon="-1.6573100"/>
            <trkpt lat="53.3638000" lon="-1.6571200"/>
            <trkpt lat="53.3637700" lon="-1.6569300"/>
            <trkpt lat="53.3637400" lon="-1.6568500"/>
            <trkpt lat="53.3637100" lon="-1.6565100"/>
            <trkpt lat="53.3636900" lon="-1.6564100"/>
            <trkpt lat="53.3635300" lon="-1.6558500"/>
            <trkpt lat="53.3635300" lon="-1.6557700"/>
            <trkpt lat="53.3636300" lon="-1.6554800"/>
            <trkpt lat="53.3637300" lon="-1.6552100"/>
            <trkpt lat="53.3638400" lon="-1.6549900"/>
            <trkpt lat="53.3638700" lon="-1.6548800"/>
            <trkpt lat="53.3638600" lon="-1.6548400"/>
            <trkpt lat="53.3638800" lon="-1.6548000"/>
            <trkpt lat="53.3638700" lon="-1.6547600"/>
            <trkpt lat="53.3639000" lon="-1.6546300"/>
            <trkpt lat="53.3639000" lon="-1.6545600"/>
            <trkpt lat="53.3639400" lon="-1.6545200"/>
            <trkpt lat="53.3639600" lon="-1.6544500"/>
            <trkpt lat="53.3640200" lon="-1.6543600"/>
            <trkpt lat="53.3640600" lon="-1.6542700"/>
            <trkpt lat="53.3641200" lon="-1.6539900"/>
            <trkpt lat="53.3641400" lon="-1.6536800"/>
            <trkpt lat="53.3641800" lon="-1.6533900"/>
            <trkpt lat="53.3642900" lon="-1.6528600"/>
            <trkpt lat="53.3643600" lon="-1.6524400"/>
            <trkpt lat="53.3644100" lon="-1.6520700"/>
            <trkpt lat="53.3643900" lon="-1.6517100"/>
            <trkpt lat="53.3644100" lon="-1.6514500"/>
            <trkpt lat="53.3644100" lon="-1.6512000"/>
            <trkpt lat="53.3645600" lon="-1.6500400"/>
            <trkpt lat="53.3646200" lon="-1.6493000"/>
            <trkpt lat="53.3647100" lon="-1.6484500"/>
            <trkpt lat="53.3647200" lon="-1.6481800"/>
            <trkpt lat="53.3648100" lon="-1.6476100"/>
            <trkpt lat="53.3648000" lon="-1.6473600"/>
            <trkpt lat="53.3648100" lon="-1.6470400"/>
            <trkpt lat="53.3647900" lon="-1.6468800"/>
            <trkpt lat="53.3647800" lon="-1.6466100"/>
            <trkpt lat="53.3648200" lon="-1.6464600"/>
            <trkpt lat="53.3648500" lon="-1.6462200"/>
            <trkpt lat="53.3648500" lon="-1.6460600"/>
            <trkpt lat="53.3649000" lon="-1.6458300"/>
            <trkpt lat="53.3649500" lon="-1.6457300"/>
            <trkpt lat="53.3649600" lon="-1.6453800"/>
            <trkpt lat="53.3648800" lon="-1.6452600"/>
            <trkpt lat="53.3648900" lon="-1.6449900"/>
            <trkpt lat="53.3649100" lon="-1.6448200"/>
            <trkpt lat="53.3649400" lon="-1.6447500"/>
            <trkpt lat="53.3651200" lon="-1.6445200"/>
            <trkpt lat="53.3651400" lon="-1.6444500"/>
            <trkpt lat="53.3651100" lon="-1.6443000"/>
            <trkpt lat="53.3645700" lon="-1.6433000"/>
            <trkpt lat="53.3644000" lon="-1.6429500"/>
            <trkpt lat="53.3643300" lon="-1.6427300"/>
            <trkpt lat="53.3642500" lon="-1.6423500"/>
            <trkpt lat="53.3641900" lon="-1.6421400"/>
            <trkpt lat="53.3637900" lon="-1.6413600"/>
            <trkpt lat="53.3634000" lon="-1.6407300"/>
            <trkpt lat="53.3632900" lon="-1.6405700"/>
            <trkpt lat="53.3632100" lon="-1.6405000"/>
            <trkpt lat="53.3631800" lon="-1.6404500"/>
            <trkpt lat="53.3631000" lon="-1.6402400"/>
            <trkpt lat="53.3630400" lon="-1.6401300"/>
            <trkpt lat="53.3627700" lon="-1.6397000"/>
            <trkpt lat="53.3627000" lon="-1.6394700"/>
            <trkpt lat="53.3626700" lon="-1.6394200"/>
            <trkpt lat="53.3625000" lon="-1.6392600"/>
            <trkpt lat="53.3623500" lon="-1.6390700"/>
            <trkpt lat="53.3622900" lon="-1.6389600"/>
            <trkpt lat="53.3621800" lon="-1.6388400"/>
            <trkpt lat="53.3615900" lon="-1.6380900"/>
            <trkpt lat="53.3615300" lon="-1.6378500"/>
            <trkpt lat="53.3614200" lon="-1.6376100"/>
            <trkpt lat="53.3613400" lon="-1.6375200"/>
            <trkpt lat="53.3612500" lon="-1.6374600"/>
            <trkpt lat="53.3606500" lon="-1.6369300"/>
            <trkpt lat="53.3604100" lon="-1.6366300"/>
            <trkpt lat="53.3603500" lon="-1.6365200"/>
            <trkpt lat="53.3603100" lon="-1.6363800"/>
            <trkpt lat="53.3602600" lon="-1.6361400"/>
            <trkpt lat="53.3602400" lon="-1.6359600"/>
            <trkpt lat="53.3601700" lon="-1.6356900"/>
            <trkpt lat="53.3601600" lon="-1.6356100"/>
            <trkpt lat="53.3601300" lon="-1.6355500"/>
            <trkpt lat="53.3600800" lon="-1.6355300"/>
            <trkpt lat="53.3599900" lon="-1.6355600"/>
            <trkpt lat="53.3599000" lon="-1.6355600"/>
            <trkpt lat="53.3596900" lon="-1.6355300"/>
            <trkpt lat="53.3595000" lon="-1.6353900"/>
            <trkpt lat="53.3593600" lon="-1.6354000"/>
            <trkpt lat="53.3592100" lon="-1.6354700"/>
            <trkpt lat="53.3591600" lon="-1.6354500"/>
            <trkpt lat="53.3590000" lon="-1.6353300"/>
            <trkpt lat="53.3583700" lon="-1.6350000"/>
            <trkpt lat="53.3579900" lon="-1.6348500"/>
            <trkpt lat="53.3575800" lon="-1.6346500"/>
            <trkpt lat="53.3573600" lon="-1.6345700"/>
            <trkpt lat="53.3561400" lon="-1.6349200"/>
            <trkpt lat="53.3560500" lon="-1.6349600"/>
            <trkpt lat="53.3559300" lon="-1.6349800"/>
            <trkpt lat="53.3559100" lon="-1.6349400"/>
            <trkpt lat="53.3559900" lon="-1.6338400"/>
            <trkpt lat="53.3560000" lon="-1.6335000"/>
            <trkpt lat="53.3560900" lon="-1.6323400"/>
            <trkpt lat="53.3561400" lon="-1.6318900"/>
            <trkpt lat="53.3561700" lon="-1.6312500"/>
            <trkpt lat="53.3562100" lon="-1.6308600"/>
            <trkpt lat="53.3562100" lon="-1.6306200"/>
            <trkpt lat="53.3562600" lon="-1.6303900"/>
            <trkpt lat="53.3563500" lon="-1.6302100"/>
            <trkpt lat="53.3563700" lon="-1.6301300"/>
            <trkpt lat="53.3563900" lon="-1.6300300"/>
            <trkpt lat="53.3563900" lon="-1.6298400"/>
            <trkpt lat="53.3563300" lon="-1.6296200"/>
            <trkpt lat="53.3563000" lon="-1.6295500"/>
            <trkpt lat="53.3562700" lon="-1.6295000"/>
            <trkpt lat="53.3561800" lon="-1.6294300"/>
            <trkpt lat="53.3559800" lon="-1.6291300"/>
            <trkpt lat="53.3558800" lon="-1.6288600"/>
            <trkpt lat="53.3558100" lon="-1.6287200"/>
            <trkpt lat="53.3557300" lon="-1.6289300"/>
            <trkpt lat="53.3556100" lon="-1.6290700"/>
            <trkpt lat="53.3555300" lon="-1.6289100"/>
            <trkpt lat="53.3552000" lon="-1.6284700"/>
            <trkpt lat="53.3550700" lon="-1.6282400"/>
            <trkpt lat="53.3549400" lon="-1.6280600"/>
            <trkpt lat="53.3548100" lon="-1.6279700"/>
            <trkpt lat="53.3545500" lon="-1.6275300"/>
            <trkpt lat="53.3544800" lon="-1.6273200"/>
            <trkpt lat="53.3543500" lon="-1.6271600"/>
            <trkpt lat="53.3543400" lon="-1.6271200"/>
            <trkpt lat="53.3542000" lon="-1.6268700"/>
            <trkpt lat="53.3540100" lon="-1.6266400"/>
            <trkpt lat="53.3538800" lon="-1.6264200"/>
            <trkpt lat="53.3537200" lon="-1.6262500"/>
            <trkpt lat="53.3536600" lon="-1.6262100"/>
            <trkpt lat="53.3535800" lon="-1.6260400"/>
            <trkpt lat="53.3536000" lon="-1.6260100"/>
            <trkpt lat="53.3536000" lon="-1.6259000"/>
            <trkpt lat="53.3535700" lon="-1.6257400"/>
            <trkpt lat="53.3535600" lon="-1.6254900"/>
            <trkpt lat="53.3535700" lon="-1.6253200"/>
            <trkpt lat="53.3536100" lon="-1.6251500"/>
            <trkpt lat="53.3536000" lon="-1.6248900"/>
            <trkpt lat="53.3536300" lon="-1.6247600"/>
            <trkpt lat="53.3536300" lon="-1.6247100"/>
            <trkpt lat="53.3536900" lon="-1.6245600"/>
            <trkpt lat="53.3537200" lon="-1.6244300"/>
            <trkpt lat="53.3537600" lon="-1.6243600"/>
            <trkpt lat="53.3537900" lon="-1.6242600"/>
            <trkpt lat="53.3538500" lon="-1.6237700"/>
            <trkpt lat="53.3538400" lon="-1.6236200"/>
            <trkpt lat="53.3538000" lon="-1.6234300"/>
            <trkpt lat="53.3537600" lon="-1.6230000"/>
            <trkpt lat="53.3538000" lon="-1.6226800"/>
            <trkpt lat="53.3538500" lon="-1.6224300"/>
            <trkpt lat="53.3539200" lon="-1.6221800"/>
            <trkpt lat="53.3540000" lon="-1.6219800"/>
            <trkpt lat="53.3542100" lon="-1.6212300"/>
            <trkpt lat="53.3542300" lon="-1.6212000"/>
            <trkpt lat="53.3542500" lon="-1.6210900"/>
            <trkpt lat="53.3543000" lon="-1.6209800"/>
            <trkpt lat="53.3543100" lon="-1.6209000"/>
            <trkpt lat="53.3543900" lon="-1.6206100"/>
            <trkpt lat="53.3544800" lon="-1.6203600"/>
            <trkpt lat="53.3544900" lon="-1.6202900"/>
            <trkpt lat="53.3545400" lon="-1.6201300"/>
            <trkpt lat="53.3545600" lon="-1.6199800"/>
            <trkpt lat="53.3545600" lon="-1.6198500"/>
            <trkpt lat="53.3545900" lon="-1.6196500"/>
            <trkpt lat="53.3545900" lon="-1.6193900"/>
            <trkpt lat="53.3546500" lon="-1.6187700"/>
            <trkpt lat="53.3546600" lon="-1.6185500"/>
            <trkpt lat="53.3546900" lon="-1.6183700"/>
            <trkpt lat="53.3547900" lon="-1.6180200"/>
            <trkpt lat="53.3548200" lon="-1.6178600"/>
            <trkpt lat="53.3548200" lon="-1.6176800"/>
            <trkpt lat="53.3548700" lon="-1.6173200"/>
            <trkpt lat="53.3548600" lon="-1.6172400"/>
            <trkpt lat="53.3548700" lon="-1.6170800"/>
            <trkpt lat="53.3549000" lon="-1.6169300"/>
            <trkpt lat="53.3548900" lon="-1.6168500"/>
            <trkpt lat="53.3549000" lon="-1.6168100"/>
            <trkpt lat="53.3549500" lon="-1.6167400"/>
            <trkpt lat="53.3549800" lon="-1.6166700"/>
            <trkpt lat="53.3550100" lon="-1.6165500"/>
            <trkpt lat="53.3550200" lon="-1.6164200"/>
            <trkpt lat="53.3550600" lon="-1.6162500"/>
            <trkpt lat="53.3551000" lon="-1.6161600"/>
            <trkpt lat="53.3552000" lon="-1.6160200"/>
            <trkpt lat="53.3552800" lon="-1.6157600"/>
            <trkpt lat="53.3552700" lon="-1.6156200"/>
            <trkpt lat="53.3552100" lon="-1.6154200"/>
            <trkpt lat="53.3552100" lon="-1.6152600"/>
            <trkpt lat="53.3551800" lon="-1.6150900"/>
            <trkpt lat="53.3551600" lon="-1.6148000"/>
            <trkpt lat="53.3551300" lon="-1.6147100"/>
            <trkpt lat="53.3551300" lon="-1.6146500"/>
            <trkpt lat="53.3551000" lon="-1.6145200"/>
            <trkpt lat="53.3550600" lon="-1.6141100"/>
            <trkpt lat="53.3550700" lon="-1.6138000"/>
            <trkpt lat="53.3550500" lon="-1.6135400"/>
            <trkpt lat="53.3550700" lon="-1.6133400"/>
            <trkpt lat="53.3550900" lon="-1.6132900"/>
            <trkpt lat="53.3551100" lon="-1.6126100"/>
            <trkpt lat="53.3551400" lon="-1.6124400"/>
            <trkpt lat="53.3551400" lon="-1.6123800"/>
            <trkpt lat="53.3550700" lon="-1.6121300"/>
            <trkpt lat="53.3550500" lon="-1.6120000"/>
            <trkpt lat="53.3550500" lon="-1.6118600"/>
            <trkpt lat="53.3550300" lon="-1.6117400"/>
            <trkpt lat="53.3550000" lon="-1.6116700"/>
            <trkpt lat="53.3547800" lon="-1.6113600"/>
            <trkpt lat="53.3547200" lon="-1.6111800"/>
            <trkpt lat="53.3547100" lon="-1.6110100"/>
            <trkpt lat="53.3546700" lon="-1.6107100"/>
            <trkpt lat="53.3546800" lon="-1.6106600"/>
            <trkpt lat="53.3546600" lon="-1.6105300"/>
            <trkpt lat="53.3546600" lon="-1.6104300"/>
            <trkpt lat="53.3545400" lon="-1.6096200"/>
            <trkpt lat="53.3544400" lon="-1.6091000"/>
            <trkpt lat="53.3543500" lon="-1.6085400"/>
            <trkpt lat="53.3543000" lon="-1.6083500"/>
            <trkpt lat="53.3543000" lon="-1.6082900"/>
            <trkpt lat="53.3542700" lon="-1.6081100"/>
            <trkpt lat="53.3542700" lon="-1.6079700"/>
            <trkpt lat="53.3542500" lon="-1.6078000"/>
            <trkpt lat="53.3541600" lon="-1.6075600"/>
            <trkpt lat="53.3541300" lon="-1.6074300"/>
            <trkpt lat="53.3539900" lon="-1.6070700"/>
            <trkpt lat="53.3539600" lon="-1.6068400"/>
            <trkpt lat="53.3539000" lon="-1.6065600"/>
            <trkpt lat="53.3539000" lon="-1.6064900"/>
            <trkpt lat="53.3538300" lon="-1.6062000"/>
            <trkpt lat="53.3537500" lon="-1.6055200"/>
            <trkpt lat="53.3537300" lon="-1.6050900"/>
            <trkpt lat="53.3537100" lon="-1.6049100"/>
            <trkpt lat="53.3537100" lon="-1.6047500"/>
            <trkpt lat="53.3536700" lon="-1.6043100"/>
            <trkpt lat="53.3537000" lon="-1.6039800"/>
            <trkpt lat="53.3537500" lon="-1.6036700"/>
            <trkpt lat="53.3537700" lon="-1.6033300"/>
            <trkpt lat="53.3539200" lon="-1.6024600"/>
            <trkpt lat="53.3539200" lon="-1.6023500"/>
            <trkpt lat="53.3539900" lon="-1.6018600"/>
            <trkpt lat="53.3540100" lon="-1.6015600"/>
            <trkpt lat="53.3540300" lon="-1.6014800"/>
            <trkpt lat="53.3540700" lon="-1.6010800"/>
            <trkpt lat="53.3540700" lon="-1.6002800"/>
            <trkpt lat="53.3540500" lon="-1.6000800"/>
            <trkpt lat="53.3540600" lon="-1.5997000"/>
            <trkpt lat="53.3540500" lon="-1.5996300"/>
            <trkpt lat="53.3540500" lon="-1.5994100"/>
            <trkpt lat="53.3540600" lon="-1.5992200"/>
            <trkpt lat="53.3540900" lon="-1.5989900"/>
            <trkpt lat="53.3541000" lon="-1.5976900"/>
            <trkpt lat="53.3540800" lon="-1.5975000"/>
            <trkpt lat="53.3540500" lon="-1.5968300"/>
            <trkpt lat="53.3540400" lon="-1.5962700"/>
            <trkpt lat="53.3540600" lon="-1.5960400"/>
            <trkpt lat="53.3541300" lon="-1.5957300"/>
            <trkpt lat="53.3541600" lon="-1.5951300"/>
            <trkpt lat="53.3541800" lon="-1.5949500"/>
            <trkpt lat="53.3542000" lon="-1.5948700"/>
            <trkpt lat="53.3541900" lon="-1.5948300"/>
            <trkpt lat="53.3542500" lon="-1.5945200"/>
            <trkpt lat="53.3542300" lon="-1.5944300"/>
            <trkpt lat="53.3542000" lon="-1.5943700"/>
            <trkpt lat="53.3539100" lon="-1.5939800"/>
            <trkpt lat="53.3538100" lon="-1.5939000"/>
            <trkpt lat="53.3535000" lon="-1.5935500"/>
            <trkpt lat="53.3532600" lon="-1.5933700"/>
            <trkpt lat="53.3530900" lon="-1.5932100"/>
            <trkpt lat="53.3530300" lon="-1.5931900"/>
            <trkpt lat="53.3529800" lon="-1.5931200"/>
            <trkpt lat="53.3527300" lon="-1.5929500"/>
            <trkpt lat="53.3526800" lon="-1.5929200"/>
            <trkpt lat="53.3523400" lon="-1.5928300"/>
            <trkpt lat="53.3522500" lon="-1.5927200"/>
            <trkpt lat="53.3522100" lon="-1.5927100"/>
            <trkpt lat="53.3520400" lon="-1.5925700"/>
            <trkpt lat="53.3518700" lon="-1.5923500"/>
            <trkpt lat="53.3518300" lon="-1.5922500"/>
            <trkpt lat="53.3517300" lon="-1.5921900"/>
            <trkpt lat="53.3512700" lon="-1.5918100"/>
            <trkpt lat="53.3511900" lon="-1.5916500"/>
            <trkpt lat="53.3511700" lon="-1.5915100"/>
            <trkpt lat="53.3511200" lon="-1.5913600"/>
            <trkpt lat="53.3511000" lon="-1.5912000"/>
            <trkpt lat="53.3510600" lon="-1.5911700"/>
            <trkpt lat="53.3510300" lon="-1.5911200"/>
            <trkpt lat="53.3510400" lon="-1.5910500"/>
            <trkpt lat="53.3510400" lon="-1.5907400"/>
            <trkpt lat="53.3510200" lon="-1.5906600"/>
            <trkpt lat="53.3510000" lon="-1.5906300"/>
            <trkpt lat="53.3510100" lon="-1.5905900"/>
            <trkpt lat="53.3510100" lon="-1.5904700"/>
            <trkpt lat="53.3509900" lon="-1.5903800"/>
            <trkpt lat="53.3510500" lon="-1.5901300"/>
            <trkpt lat="53.3510500" lon="-1.5900700"/>
            <trkpt lat="53.3511100" lon="-1.5897500"/>
            <trkpt lat="53.3511300" lon="-1.5893200"/>
            <trkpt lat="53.3511600" lon="-1.5891000"/>
            <trkpt lat="53.3512200" lon="-1.5889100"/>
            <trkpt lat="53.3512400" lon="-1.5886300"/>
            <trkpt lat="53.3513200" lon="-1.5884800"/>
            <trkpt lat="53.3513500" lon="-1.5883400"/>
            <trkpt lat="53.3513400" lon="-1.5882300"/>
            <trkpt lat="53.3513500" lon="-1.5881500"/>
            <trkpt lat="53.3512700" lon="-1.5879300"/>
            <trkpt lat="53.3512400" lon="-1.5877500"/>
            <trkpt lat="53.3512400" lon="-1.5876000"/>
            <trkpt lat="53.3512800" lon="-1.5874900"/>
            <trkpt lat="53.3514000" lon="-1.5873700"/>
            <trkpt lat="53.3514400" lon="-1.5873000"/>
            <trkpt lat="53.3514900" lon="-1.5871600"/>
            <trkpt lat="53.3514800" lon="-1.5866100"/>
            <trkpt lat="53.3514900" lon="-1.5864200"/>
            <trkpt lat="53.3515100" lon="-1.5862900"/>
            <trkpt lat="53.3515000" lon="-1.5861200"/>
            <trkpt lat="53.3515200" lon="-1.5858500"/>
            <trkpt lat="53.3515200" lon="-1.5855100"/>
            <trkpt lat="53.3515300" lon="-1.5854400"/>
            <trkpt lat="53.3515200" lon="-1.5851100"/>
            <trkpt lat="53.3515000" lon="-1.5848600"/>
            <trkpt lat="53.3514100" lon="-1.5843900"/>
            <trkpt lat="53.3513500" lon="-1.5838500"/>
            <trkpt lat="53.3513100" lon="-1.5836800"/>
            <trkpt lat="53.3513100" lon="-1.5836300"/>
            <trkpt lat="53.3515000" lon="-1.5835900"/>
            <trkpt lat="53.3515300" lon="-1.5835500"/>
            <trkpt lat="53.3516000" lon="-1.5834000"/>
            <trkpt lat="53.3517000" lon="-1.5830300"/>
            <trkpt lat="53.3518100" lon="-1.5823700"/>
            <trkpt lat="53.3518300" lon="-1.5821600"/>
            <trkpt lat="53.3519300" lon="-1.5815500"/>
            <trkpt lat="53.3519600" lon="-1.5812300"/>
            <trkpt lat="53.3519600" lon="-1.5811200"/>
            <trkpt lat="53.3519800" lon="-1.5809900"/>
            <trkpt lat="53.3520500" lon="-1.5806900"/>
            <trkpt lat="53.3521000" lon="-1.5803900"/>
            <trkpt lat="53.3521700" lon="-1.5801200"/>
            <trkpt lat="53.3522000" lon="-1.5799400"/>
            <trkpt lat="53.3521900" lon="-1.5798800"/>
            <trkpt lat="53.3522200" lon="-1.5796500"/>
            <trkpt lat="53.3522500" lon="-1.5791000"/>
            <trkpt lat="53.3522800" lon="-1.5788500"/>
            <trkpt lat="53.3522600" lon="-1.5786800"/>
            <trkpt lat="53.3522400" lon="-1.5785800"/>
            <trkpt lat="53.3522100" lon="-1.5785100"/>
            <trkpt lat="53.3521600" lon="-1.5781800"/>
            <trkpt lat="53.3521200" lon="-1.5780300"/>
            <trkpt lat="53.3520300" lon="-1.5778300"/>
            <trkpt lat="53.3520100" lon="-1.5777400"/>
            <trkpt lat="53.3518600" lon="-1.5773600"/>
            <trkpt lat="53.3516600" lon="-1.5767100"/>
            <trkpt lat="53.3515900" lon="-1.5766200"/>
            <trkpt lat="53.3515300" lon="-1.5763900"/>
            <trkpt lat="53.3512600" lon="-1.5756900"/>
            <trkpt lat="53.3512400" lon="-1.5755000"/>
            <trkpt lat="53.3511700" lon="-1.5752400"/>
            <trkpt lat="53.3511500" lon="-1.5750600"/>
            <trkpt lat="53.3510900" lon="-1.5747500"/>
            <trkpt lat="53.3510600" lon="-1.5744300"/>
            <trkpt lat="53.3510600" lon="-1.5743100"/>
            <trkpt lat="53.3510400" lon="-1.5742000"/>
            <trkpt lat="53.3509600" lon="-1.5738800"/>
            <trkpt lat="53.3508900" lon="-1.5737300"/>
            <trkpt lat="53.3508500" lon="-1.5736800"/>
            <trkpt lat="53.3508400" lon="-1.5736300"/>
            <trkpt lat="53.3508600" lon="-1.5735200"/>
            <trkpt lat="53.3508600" lon="-1.5734500"/>
            <trkpt lat="53.3506800" lon="-1.5730200"/>
            <trkpt lat="53.3504400" lon="-1.5728700"/>
            <trkpt lat="53.3503500" lon="-1.5728600"/>
            <trkpt lat="53.3502800" lon="-1.5728300"/>
            <trkpt lat="53.3502500" lon="-1.5727600"/>
            <trkpt lat="53.3502000" lon="-1.5727800"/>
            <trkpt lat="53.3497900" lon="-1.5725400"/>
            <trkpt lat="53.3495200" lon="-1.5724900"/>
            <trkpt lat="53.3494300" lon="-1.5723500"/>
            <trkpt lat="53.3492800" lon="-1.5722600"/>
            <trkpt lat="53.3491200" lon="-1.5722100"/>
            <trkpt lat="53.3489600" lon="-1.5720500"/>
            <trkpt lat="53.3488700" lon="-1.5721000"/>
            <trkpt lat="53.3488600" lon="-1.5720700"/>
            <trkpt lat="53.3488800" lon="-1.5718600"/>
            <trkpt lat="53.3488700" lon="-1.5717500"/>
            <trkpt lat="53.3489300" lon="-1.5714400"/>
            <trkpt lat="53.3489300" lon="-1.5713100"/>
            <trkpt lat="53.3490300" lon="-1.5704900"/>
            <trkpt lat="53.3490300" lon="-1.5703800"/>
            <trkpt lat="53.3490500" lon="-1.5703100"/>
            <trkpt lat="53.3490600" lon="-1.5701100"/>
            <trkpt lat="53.3490900" lon="-1.5699200"/>
            <trkpt lat="53.3491600" lon="-1.5689500"/>
            <trkpt lat="53.3492100" lon="-1.5687000"/>
            <trkpt lat="53.3492400" lon="-1.5686300"/>
            <trkpt lat="53.3492500" lon="-1.5685700"/>
            <trkpt lat="53.3492500" lon="-1.5683300"/>
            <trkpt lat="53.3493000" lon="-1.5680500"/>
            <trkpt lat="53.3493200" lon="-1.5678200"/>
            <trkpt lat="53.3493200" lon="-1.5675500"/>
            <trkpt lat="53.3493400" lon="-1.5672300"/>
            <trkpt lat="53.3494100" lon="-1.5665600"/>
            <trkpt lat="53.3494900" lon="-1.5660500"/>
            <trkpt lat="53.3498500" lon="-1.5632900"/>
        </trkseg>
    </trk>
</gpx>
