<?xml version="1.0" encoding="UTF-8" standalone="yes"?>
<gpx version="1.1" creator="OS Maps - Web" xmlns="http://www.topografix.com/GPX/1/1"
xmlns:xsi="http://www.w3.org/2001/XMLSchema-instance"
xsi:schemaLocation="http://www.topografix.com/GPX/1/1 http://www.topografix.com/GPX/1/1/gpx.xsd"
xmlns:gs="http://www.topografix.com/GPX/gpx_style/0/2"
xmlns:gh="https://graphhopper.com/public/schema/gpx/1.1"
xmlns:os="https://ordnancesurvey.co.uk/public/schema/route/0.1">
    <metadata>
        <name>High Edge (Ethel) - Circular (www.thelostpeak.co.uk)</name>
        <desc>www.thelostpeak.co.uk</desc>
        <bounds minlat="53.2160000" minlon="-1.9143600" maxlat="53.2372700" maxlon="-1.8990400"/>
        <extensions>
            <os:version>2.0</os:version>
            <os:point lat="53.2372300" lon="-1.9067800" type="start"/>
            <os:point lat="53.2372300" lon="-1.9067800" type="end"/>
            <os:activity>ON_FOOT_WALKING</os:activity>
            <os:difficulty>MODERATE</os:difficulty>
            <os:paths/>
            <os:distance>6547.1869649</os:distance>
            <os:elevation_ascent>169.1000000</os:elevation_ascent>
        </extensions>
    </metadata>
    <wpt lat="53.2372300" lon="-1.9067800"/>
    <wpt lat="53.2370500" lon="-1.9070000"/>
    <wpt lat="53.2367700" lon="-1.9069100"/>
    <wpt lat="53.2364900" lon="-1.9074800"/>
    <wpt lat="53.2361600" lon="-1.9094300"/>
    <wpt lat="53.2342600" lon="-1.9110300"/>
    <wpt lat="53.2340200" lon="-1.9114600"/>
    <wpt lat="53.2334300" lon="-1.9143600"/>
    <wpt lat="53.2330200" lon="-1.9139600"/>
    <wpt lat="53.2315900" lon="-1.9141000"/>
    <wpt lat="53.2308900" lon="-1.9137900"/>
    <wpt lat="53.2308100" lon="-1.9121800"/>
    <wpt lat="53.2303900" lon="-1.9102900"/>
    <wpt lat="53.2273800" lon="-1.9112200"/>
    <wpt lat="53.2263800" lon="-1.9107600"/>
    <wpt lat="53.2253800" lon="-1.9110000"/>
    <wpt lat="53.2244200" lon="-1.9109100"/>
    <wpt lat="53.2231800" lon="-1.9101700"/>
    <wpt lat="53.2215600" lon="-1.9107000"/>
    <wpt lat="53.2213500" lon="-1.9104900"/>
    <wpt lat="53.2209700" lon="-1.9106000"/>
    <wpt lat="53.2206800" lon="-1.9100400"/>
    <wpt lat="53.2189100" lon="-1.9091500"/>
    <wpt lat="53.2170800" lon="-1.9087100"/>
    <wpt lat="53.2166900" lon="-1.9077900"/>
    <wpt lat="53.2160000" lon="-1.9072400"/>
    <wpt lat="53.2166900" lon="-1.9077900"/>
    <wpt lat="53.2170800" lon="-1.9087100"/>
    <wpt lat="53.2189100" lon="-1.9091500"/>
    <wpt lat="53.2207200" lon="-1.9100800"/>
    <wpt lat="53.2202000" lon="-1.9079500"/>
    <wpt lat="53.2204700" lon="-1.9081300"/>
    <wpt lat="53.2208000" lon="-1.9075300"/>
    <wpt lat="53.2217500" lon="-1.9069200"/>
    <wpt lat="53.2222800" lon="-1.9060400"/>
    <wpt lat="53.2235900" lon="-1.9062200"/>
    <wpt lat="53.2250100" lon="-1.9060900"/>
    <wpt lat="53.2261200" lon="-1.9054500"/>
    <wpt lat="53.2270700" lon="-1.9035400"/>
    <wpt lat="53.2292400" lon="-1.9017900"/>
    <wpt lat="53.2293800" lon="-1.8990400"/>
    <wpt lat="53.2296300" lon="-1.9000700"/>
    <wpt lat="53.2299500" lon="-1.9005300"/>
    <wpt lat="53.2316500" lon="-1.9016100"/>
    <wpt lat="53.2331500" lon="-1.9015100"/>
    <wpt lat="53.2343400" lon="-1.9025400"/>
    <wpt lat="53.2356300" lon="-1.9066400"/>
    <wpt lat="53.2356000" lon="-1.9080300"/>
    <wpt lat="53.2352400" lon="-1.9090000"/>
    <wpt lat="53.2355800" lon="-1.9086400"/>
    <wpt lat="53.2363200" lon="-1.9084800"/>
    <wpt lat="53.2364900" lon="-1.9074800"/>
    <wpt lat="53.2372300" lon="-1.9067800"/>
    <trk>
        <name>High Edge (Ethel) - Circular (www.thelostpeak.co.uk)</name>
        <trkseg>
            <trkpt lat="53.2372300" lon="-1.9067800"/>
            <trkpt lat="53.2372700" lon="-1.9067700"/>
            <trkpt lat="53.2372000" lon="-1.9068000"/>
            <trkpt lat="53.2372200" lon="-1.9069200"/>
            <trkpt lat="53.2371200" lon="-1.9069800"/>
            <trkpt lat="53.2370500" lon="-1.9070000"/>
            <trkpt lat="53.2369100" lon="-1.9069100"/>
            <trkpt lat="53.2367700" lon="-1.9069100"/>
            <trkpt lat="53.2367400" lon="-1.9069600"/>
            <trkpt lat="53.2366900" lon="-1.9071000"/>
            <trkpt lat="53.2364900" lon="-1.9074800"/>
            <trkpt lat="53.2364700" lon="-1.9078500"/>
            <trkpt lat="53.2364500" lon="-1.9080200"/>
            <trkpt lat="53.2364300" lon="-1.9081700"/>
            <trkpt lat="53.2363700" lon="-1.9083900"/>
            <trkpt lat="53.2364000" lon="-1.9083900"/>
            <trkpt lat="53.2364000" lon="-1.9085500"/>
            <trkpt lat="53.2362600" lon="-1.9092000"/>
            <trkpt lat="53.2362100" lon="-1.9093500"/>
            <trkpt lat="53.2361600" lon="-1.9094300"/>
            <trkpt lat="53.2359800" lon="-1.9096100"/>
            <trkpt lat="53.2358800" lon="-1.9097500"/>
            <trkpt lat="53.2357700" lon="-1.9098700"/>
            <trkpt lat="53.2356600" lon="-1.9099500"/>
            <trkpt lat="53.2353200" lon="-1.9102900"/>
            <trkpt lat="53.2347600" lon="-1.9106400"/>
            <trkpt lat="53.2342600" lon="-1.9110300"/>
            <trkpt lat="53.2341600" lon="-1.9112100"/>
            <trkpt lat="53.2341000" lon="-1.9113800"/>
            <trkpt lat="53.2340500" lon="-1.9114500"/>
            <trkpt lat="53.2340200" lon="-1.9114600"/>
            <trkpt lat="53.2338700" lon="-1.9120100"/>
            <trkpt lat="53.2338100" lon="-1.9122900"/>
            <trkpt lat="53.2335700" lon="-1.9139000"/>
            <trkpt lat="53.2335300" lon="-1.9140700"/>
            <trkpt lat="53.2335100" lon="-1.9142400"/>
            <trkpt lat="53.2335000" lon="-1.9142800"/>
            <trkpt lat="53.2334300" lon="-1.9143600"/>
            <trkpt lat="53.2333900" lon="-1.9143500"/>
            <trkpt lat="53.2333200" lon="-1.9142900"/>
            <trkpt lat="53.2331800" lon="-1.9141300"/>
            <trkpt lat="53.2331000" lon="-1.9140100"/>
            <trkpt lat="53.2330200" lon="-1.9139600"/>
            <trkpt lat="53.2326400" lon="-1.9139600"/>
            <trkpt lat="53.2320700" lon="-1.9140900"/>
            <trkpt lat="53.2318700" lon="-1.9140900"/>
            <trkpt lat="53.2317600" lon="-1.9141100"/>
            <trkpt lat="53.2315900" lon="-1.9141000"/>
            <trkpt lat="53.2313500" lon="-1.9140700"/>
            <trkpt lat="53.2311400" lon="-1.9139900"/>
            <trkpt lat="53.2309700" lon="-1.9138700"/>
            <trkpt lat="53.2308900" lon="-1.9137900"/>
            <trkpt lat="53.2309000" lon="-1.9136400"/>
            <trkpt lat="53.2308700" lon="-1.9135000"/>
            <trkpt lat="53.2308100" lon="-1.9133700"/>
            <trkpt lat="53.2308200" lon="-1.9132500"/>
            <trkpt lat="53.2308200" lon="-1.9122800"/>
            <trkpt lat="53.2308100" lon="-1.9121800"/>
            <trkpt lat="53.2307200" lon="-1.9117300"/>
            <trkpt lat="53.2305800" lon="-1.9112100"/>
            <trkpt lat="53.2305600" lon="-1.9110700"/>
            <trkpt lat="53.2305500" lon="-1.9108700"/>
            <trkpt lat="53.2305000" lon="-1.9106100"/>
            <trkpt lat="53.2304900" lon="-1.9104600"/>
            <trkpt lat="53.2304700" lon="-1.9103600"/>
            <trkpt lat="53.2304300" lon="-1.9103100"/>
            <trkpt lat="53.2303900" lon="-1.9102900"/>
            <trkpt lat="53.2303400" lon="-1.9102700"/>
            <trkpt lat="53.2302500" lon="-1.9102700"/>
            <trkpt lat="53.2301200" lon="-1.9102900"/>
            <trkpt lat="53.2298400" lon="-1.9104100"/>
            <trkpt lat="53.2293700" lon="-1.9105500"/>
            <trkpt lat="53.2291000" lon="-1.9106800"/>
            <trkpt lat="53.2290200" lon="-1.9106900"/>
            <trkpt lat="53.2286500" lon="-1.9108200"/>
            <trkpt lat="53.2283000" lon="-1.9109100"/>
            <trkpt lat="53.2281200" lon="-1.9110000"/>
            <trkpt lat="53.2279400" lon="-1.9111300"/>
            <trkpt lat="53.2278100" lon="-1.9110900"/>
            <trkpt lat="53.2277200" lon="-1.9110900"/>
            <trkpt lat="53.2273800" lon="-1.9112200"/>
            <trkpt lat="53.2273300" lon="-1.9112200"/>
            <trkpt lat="53.2272700" lon="-1.9111800"/>
            <trkpt lat="53.2270500" lon="-1.9109800"/>
            <trkpt lat="53.2269500" lon="-1.9109100"/>
            <trkpt lat="53.2267900" lon="-1.9108400"/>
            <trkpt lat="53.2263800" lon="-1.9107600"/>
            <trkpt lat="53.2261100" lon="-1.9107800"/>
            <trkpt lat="53.2253800" lon="-1.9110000"/>
            <trkpt lat="53.2251500" lon="-1.9109900"/>
            <trkpt lat="53.2246700" lon="-1.9109000"/>
            <trkpt lat="53.2244200" lon="-1.9109100"/>
            <trkpt lat="53.2242400" lon="-1.9107700"/>
            <trkpt lat="53.2238500" lon="-1.9105800"/>
            <trkpt lat="53.2237600" lon="-1.9104700"/>
            <trkpt lat="53.2236700" lon="-1.9104000"/>
            <trkpt lat="53.2231800" lon="-1.9101700"/>
            <trkpt lat="53.2230500" lon="-1.9101900"/>
            <trkpt lat="53.2226600" lon="-1.9103200"/>
            <trkpt lat="53.2222800" lon="-1.9105000"/>
            <trkpt lat="53.2221600" lon="-1.9104700"/>
            <trkpt lat="53.2220600" lon="-1.9104800"/>
            <trkpt lat="53.2217400" lon="-1.9105900"/>
            <trkpt lat="53.2216900" lon="-1.9105900"/>
            <trkpt lat="53.2216100" lon="-1.9106200"/>
            <trkpt lat="53.2215600" lon="-1.9107000"/>
            <trkpt lat="53.2215200" lon="-1.9106900"/>
            <trkpt lat="53.2214800" lon="-1.9106500"/>
            <trkpt lat="53.2214400" lon="-1.9105700"/>
            <trkpt lat="53.2213500" lon="-1.9104900"/>
            <trkpt lat="53.2210900" lon="-1.9105300"/>
            <trkpt lat="53.2209700" lon="-1.9106000"/>
            <trkpt lat="53.2208700" lon="-1.9105400"/>
            <trkpt lat="53.2207400" lon="-1.9101100"/>
            <trkpt lat="53.2206800" lon="-1.9100400"/>
            <trkpt lat="53.2205800" lon="-1.9100100"/>
            <trkpt lat="53.2204100" lon="-1.9099000"/>
            <trkpt lat="53.2201400" lon="-1.9097800"/>
            <trkpt lat="53.2198500" lon="-1.9096200"/>
            <trkpt lat="53.2196600" lon="-1.9095800"/>
            <trkpt lat="53.2195400" lon="-1.9094900"/>
            <trkpt lat="53.2192200" lon="-1.9093400"/>
            <trkpt lat="53.2189100" lon="-1.9091500"/>
            <trkpt lat="53.2188100" lon="-1.9091400"/>
            <trkpt lat="53.2187000" lon="-1.9090800"/>
            <trkpt lat="53.2180900" lon="-1.9088700"/>
            <trkpt lat="53.2176100" lon="-1.9087700"/>
            <trkpt lat="53.2173200" lon="-1.9087500"/>
            <trkpt lat="53.2170800" lon="-1.9087100"/>
            <trkpt lat="53.2166900" lon="-1.9077900"/>
            <trkpt lat="53.2165600" lon="-1.9076200"/>
            <trkpt lat="53.2163700" lon="-1.9074400"/>
            <trkpt lat="53.2160000" lon="-1.9072400"/>
            <trkpt lat="53.2163700" lon="-1.9074400"/>
            <trkpt lat="53.2165600" lon="-1.9076200"/>
            <trkpt lat="53.2166900" lon="-1.9077900"/>
            <trkpt lat="53.2170800" lon="-1.9087100"/>
            <trkpt lat="53.2173200" lon="-1.9087500"/>
            <trkpt lat="53.2176100" lon="-1.9087700"/>
            <trkpt lat="53.2180900" lon="-1.9088700"/>
            <trkpt lat="53.2187000" lon="-1.9090800"/>
            <trkpt lat="53.2188100" lon="-1.9091400"/>
            <trkpt lat="53.2189100" lon="-1.9091500"/>
            <trkpt lat="53.2192200" lon="-1.9093400"/>
            <trkpt lat="53.2195400" lon="-1.9094900"/>
            <trkpt lat="53.2196600" lon="-1.9095800"/>
            <trkpt lat="53.2198500" lon="-1.9096200"/>
            <trkpt lat="53.2201400" lon="-1.9097800"/>
            <trkpt lat="53.2204100" lon="-1.9099000"/>
            <trkpt lat="53.2205800" lon="-1.9100100"/>
            <trkpt lat="53.2206800" lon="-1.9100400"/>
            <trkpt lat="53.2207200" lon="-1.9100800"/>
            <trkpt lat="53.2206000" lon="-1.9096900"/>
            <trkpt lat="53.2203600" lon="-1.9088000"/>
            <trkpt lat="53.2202500" lon="-1.9082500"/>
            <trkpt lat="53.2202000" lon="-1.9080800"/>
            <trkpt lat="53.2201900" lon="-1.9080100"/>
            <trkpt lat="53.2202000" lon="-1.9079500"/>
            <trkpt lat="53.2202400" lon="-1.9079300"/>
            <trkpt lat="53.2202600" lon="-1.9079400"/>
            <trkpt lat="53.2204000" lon="-1.9081400"/>
            <trkpt lat="53.2204700" lon="-1.9081300"/>
            <trkpt lat="53.2205400" lon="-1.9080500"/>
            <trkpt lat="53.2206300" lon="-1.9079000"/>
            <trkpt lat="53.2207400" lon="-1.9076100"/>
            <trkpt lat="53.2208000" lon="-1.9075300"/>
            <trkpt lat="53.2210900" lon="-1.9073300"/>
            <trkpt lat="53.2214600" lon="-1.9072000"/>
            <trkpt lat="53.2217500" lon="-1.9069200"/>
            <trkpt lat="53.2218000" lon="-1.9068300"/>
            <trkpt lat="53.2219500" lon="-1.9064400"/>
            <trkpt lat="53.2219900" lon="-1.9063700"/>
            <trkpt lat="53.2221000" lon="-1.9062000"/>
            <trkpt lat="53.2222800" lon="-1.9060400"/>
            <trkpt lat="53.2224200" lon="-1.9059900"/>
            <trkpt lat="53.2225600" lon="-1.9059800"/>
            <trkpt lat="53.2229300" lon="-1.9060800"/>
            <trkpt lat="53.2232100" lon="-1.9061800"/>
            <trkpt lat="53.2235900" lon="-1.9062200"/>
            <trkpt lat="53.2239800" lon="-1.9062000"/>
            <trkpt lat="53.2245300" lon="-1.9061100"/>
            <trkpt lat="53.2248700" lon="-1.9061100"/>
            <trkpt lat="53.2250100" lon="-1.9060900"/>
            <trkpt lat="53.2253600" lon="-1.9060000"/>
            <trkpt lat="53.2256400" lon="-1.9058700"/>
            <trkpt lat="53.2257700" lon="-1.9057700"/>
            <trkpt lat="53.2261200" lon="-1.9054500"/>
            <trkpt lat="53.2262300" lon="-1.9053100"/>
            <trkpt lat="53.2263300" lon="-1.9051300"/>
            <trkpt lat="53.2268900" lon="-1.9040600"/>
            <trkpt lat="53.2270100" lon="-1.9037900"/>
            <trkpt lat="53.2270700" lon="-1.9035400"/>
            <trkpt lat="53.2271100" lon="-1.9035000"/>
            <trkpt lat="53.2277000" lon="-1.9031200"/>
            <trkpt lat="53.2288900" lon="-1.9021200"/>
            <trkpt lat="53.2291900" lon="-1.9018600"/>
            <trkpt lat="53.2292400" lon="-1.9017900"/>
            <trkpt lat="53.2292900" lon="-1.9016200"/>
            <trkpt lat="53.2293300" lon="-1.9011500"/>
            <trkpt lat="53.2293200" lon="-1.9010600"/>
            <trkpt lat="53.2293300" lon="-1.9009500"/>
            <trkpt lat="53.2293100" lon="-1.9004200"/>
            <trkpt lat="53.2292900" lon="-1.9001100"/>
            <trkpt lat="53.2292800" lon="-1.8994600"/>
            <trkpt lat="53.2293200" lon="-1.8991300"/>
            <trkpt lat="53.2293400" lon="-1.8990700"/>
            <trkpt lat="53.2293800" lon="-1.8990400"/>
            <trkpt lat="53.2294200" lon="-1.8991300"/>
            <trkpt lat="53.2294300" lon="-1.8993100"/>
            <trkpt lat="53.2295000" lon="-1.8996800"/>
            <trkpt lat="53.2296300" lon="-1.9000700"/>
            <trkpt lat="53.2297900" lon="-1.9003800"/>
            <trkpt lat="53.2299500" lon="-1.9005300"/>
            <trkpt lat="53.2303300" lon="-1.9007800"/>
            <trkpt lat="53.2303800" lon="-1.9008300"/>
            <trkpt lat="53.2310900" lon="-1.9012600"/>
            <trkpt lat="53.2314300" lon="-1.9014900"/>
            <trkpt lat="53.2316500" lon="-1.9016100"/>
            <trkpt lat="53.2318900" lon="-1.9016600"/>
            <trkpt lat="53.2320500" lon="-1.9016700"/>
            <trkpt lat="53.2322400" lon="-1.9016000"/>
            <trkpt lat="53.2326200" lon="-1.9014200"/>
            <trkpt lat="53.2327100" lon="-1.9014100"/>
            <trkpt lat="53.2328600" lon="-1.9014200"/>
            <trkpt lat="53.2331500" lon="-1.9015100"/>
            <trkpt lat="53.2336000" lon="-1.9017600"/>
            <trkpt lat="53.2339100" lon="-1.9020000"/>
            <trkpt lat="53.2341500" lon="-1.9022600"/>
            <trkpt lat="53.2343400" lon="-1.9025400"/>
            <trkpt lat="53.2344700" lon="-1.9028300"/>
            <trkpt lat="53.2346000" lon="-1.9032300"/>
            <trkpt lat="53.2348900" lon="-1.9039900"/>
            <trkpt lat="53.2354300" lon="-1.9057800"/>
            <trkpt lat="53.2354500" lon="-1.9059100"/>
            <trkpt lat="53.2355900" lon="-1.9064200"/>
            <trkpt lat="53.2356300" lon="-1.9066400"/>
            <trkpt lat="53.2356500" lon="-1.9069300"/>
            <trkpt lat="53.2356400" lon="-1.9070900"/>
            <trkpt lat="53.2356600" lon="-1.9073600"/>
            <trkpt lat="53.2356600" lon="-1.9075500"/>
            <trkpt lat="53.2356000" lon="-1.9080300"/>
            <trkpt lat="53.2355300" lon="-1.9083300"/>
            <trkpt lat="53.2354400" lon="-1.9085500"/>
            <trkpt lat="53.2354000" lon="-1.9086400"/>
            <trkpt lat="53.2352300" lon="-1.9088900"/>
            <trkpt lat="53.2352100" lon="-1.9089700"/>
            <trkpt lat="53.2352400" lon="-1.9090000"/>
            <trkpt lat="53.2353200" lon="-1.9089700"/>
            <trkpt lat="53.2353800" lon="-1.9089000"/>
            <trkpt lat="53.2355000" lon="-1.9087000"/>
            <trkpt lat="53.2355800" lon="-1.9086400"/>
            <trkpt lat="53.2357500" lon="-1.9086100"/>
            <trkpt lat="53.2358700" lon="-1.9086200"/>
            <trkpt lat="53.2361300" lon="-1.9085600"/>
            <trkpt lat="53.2363200" lon="-1.9084800"/>
            <trkpt lat="53.2363600" lon="-1.9084300"/>
            <trkpt lat="53.2364300" lon="-1.9081700"/>
            <trkpt lat="53.2364700" lon="-1.9078500"/>
            <trkpt lat="53.2364900" lon="-1.9074800"/>
            <trkpt lat="53.2366900" lon="-1.9071000"/>
            <trkpt lat="53.2367400" lon="-1.9069600"/>
            <trkpt lat="53.2367700" lon="-1.9069100"/>
            <trkpt lat="53.2368500" lon="-1.9069000"/>
            <trkpt lat="53.2369100" lon="-1.9069100"/>
            <trkpt lat="53.2370500" lon="-1.9070000"/>
            <trkpt lat="53.2371200" lon="-1.9069800"/>
            <trkpt lat="53.2372200" lon="-1.9069200"/>
            <trkpt lat="53.2372000" lon="-1.9068000"/>
            <trkpt lat="53.2372700" lon="-1.9067700"/>
            <trkpt lat="53.2372300" lon="-1.9067800"/>
        </trkseg>
    </trk>
</gpx>
