<?xml version="1.0" encoding="UTF-8" standalone="yes"?>
<gpx version="1.1" creator="OS Maps - Web" xmlns="http://www.topografix.com/GPX/1/1"
xmlns:xsi="http://www.w3.org/2001/XMLSchema-instance"
xsi:schemaLocation="http://www.topografix.com/GPX/1/1 http://www.topografix.com/GPX/1/1/gpx.xsd"
xmlns:gs="http://www.topografix.com/GPX/gpx_style/0/2"
xmlns:gh="https://graphhopper.com/public/schema/gpx/1.1"
xmlns:os="https://ordnancesurvey.co.uk/public/schema/route/0.1">
    <metadata>
        <name>High Stones &amp; Margery Hill (Ethels) - There &amp; Back (www.thelostpeak.co.uk)</name>
        <desc>www.thelostpeak.co.uk</desc>
        <bounds minlat="53.4002100" minlon="-1.7462400" maxlat="53.4577100" maxlon="-1.7160900"/>
        <extensions>
            <os:version>2.0</os:version>
            <os:point lat="53.4002200" lon="-1.7425400" type="start"/>
            <os:point lat="53.4003500" lon="-1.7423500" type="end"/>
            <os:activity>ON_FOOT_WALKING</os:activity>
            <os:difficulty>DIFFICULT</os:difficulty>
            <os:paths/>
            <os:distance>16569.5935549</os:distance>
            <os:elevation_ascent>475.0400000</os:elevation_ascent>
        </extensions>
    </metadata>
    <wpt lat="53.4002200" lon="-1.7425400"/>
    <wpt lat="53.4049400" lon="-1.7403400"/>
    <wpt lat="53.4101400" lon="-1.7412400"/>
    <wpt lat="53.4455400" lon="-1.7185800"/>
    <wpt lat="53.4573300" lon="-1.7190700"/>
    <wpt lat="53.4577100" lon="-1.7168300"/>
    <wpt lat="53.4573300" lon="-1.7190700"/>
    <wpt lat="53.4455400" lon="-1.7185800"/>
    <wpt lat="53.4101400" lon="-1.7412400"/>
    <wpt lat="53.4049400" lon="-1.7403400"/>
    <wpt lat="53.4002100" lon="-1.7425200"/>
    <wpt lat="53.4003500" lon="-1.7423500"/>
    <trk>
        <name>High Stones &amp; Margery Hill (Ethels) - There &amp; Back (www.thelostpeak.co.uk)</name>
        <trkseg>
            <trkpt lat="53.4002200" lon="-1.7425400"/>
            <trkpt lat="53.4003100" lon="-1.7424800"/>
            <trkpt lat="53.4004400" lon="-1.7422300"/>
            <trkpt lat="53.4008400" lon="-1.7418100"/>
            <trkpt lat="53.4009200" lon="-1.7419100"/>
            <trkpt lat="53.4009800" lon="-1.7420500"/>
            <trkpt lat="53.4009700" lon="-1.7421800"/>
            <trkpt lat="53.4012300" lon="-1.7422200"/>
            <trkpt lat="53.4013900" lon="-1.7423800"/>
            <trkpt lat="53.4017900" lon="-1.7426000"/>
            <trkpt lat="53.4018100" lon="-1.7426900"/>
            <trkpt lat="53.4020900" lon="-1.7425700"/>
            <trkpt lat="53.4023900" lon="-1.7423200"/>
            <trkpt lat="53.4027300" lon="-1.7420900"/>
            <trkpt lat="53.4028400" lon="-1.7419900"/>
            <trkpt lat="53.4030800" lon="-1.7418600"/>
            <trkpt lat="53.4032300" lon="-1.7418800"/>
            <trkpt lat="53.4035200" lon="-1.7417800"/>
            <trkpt lat="53.4039400" lon="-1.7414600"/>
            <trkpt lat="53.4042900" lon="-1.7411000"/>
            <trkpt lat="53.4048700" lon="-1.7404500"/>
            <trkpt lat="53.4049400" lon="-1.7403400"/>
            <trkpt lat="53.4049500" lon="-1.7402700"/>
            <trkpt lat="53.4049200" lon="-1.7402500"/>
            <trkpt lat="53.4049900" lon="-1.7399900"/>
            <trkpt lat="53.4051400" lon="-1.7397800"/>
            <trkpt lat="53.4052900" lon="-1.7392000"/>
            <trkpt lat="53.4057900" lon="-1.7393100"/>
            <trkpt lat="53.4059300" lon="-1.7392400"/>
            <trkpt lat="53.4067900" lon="-1.7395000"/>
            <trkpt lat="53.4069300" lon="-1.7395900"/>
            <trkpt lat="53.4070400" lon="-1.7395900"/>
            <trkpt lat="53.4071500" lon="-1.7395600"/>
            <trkpt lat="53.4072300" lon="-1.7394900"/>
            <trkpt lat="53.4073700" lon="-1.7394200"/>
            <trkpt lat="53.4075300" lon="-1.7394100"/>
            <trkpt lat="53.4076600" lon="-1.7394300"/>
            <trkpt lat="53.4077300" lon="-1.7394900"/>
            <trkpt lat="53.4078400" lon="-1.7396400"/>
            <trkpt lat="53.4079900" lon="-1.7399300"/>
            <trkpt lat="53.4082100" lon="-1.7402600"/>
            <trkpt lat="53.4086700" lon="-1.7406700"/>
            <trkpt lat="53.4095200" lon="-1.7410200"/>
            <trkpt lat="53.4097500" lon="-1.7410700"/>
            <trkpt lat="53.4101400" lon="-1.7412400"/>
            <trkpt lat="53.4103900" lon="-1.7413200"/>
            <trkpt lat="53.4106400" lon="-1.7413200"/>
            <trkpt lat="53.4113300" lon="-1.7411000"/>
            <trkpt lat="53.4118200" lon="-1.7409800"/>
            <trkpt lat="53.4122500" lon="-1.7408100"/>
            <trkpt lat="53.4128300" lon="-1.7405300"/>
            <trkpt lat="53.4130800" lon="-1.7404700"/>
            <trkpt lat="53.4145700" lon="-1.7403400"/>
            <trkpt lat="53.4147100" lon="-1.7404200"/>
            <trkpt lat="53.4149100" lon="-1.7405800"/>
            <trkpt lat="53.4157800" lon="-1.7414600"/>
            <trkpt lat="53.4159300" lon="-1.7416500"/>
            <trkpt lat="53.4161800" lon="-1.7421100"/>
            <trkpt lat="53.4164800" lon="-1.7427300"/>
            <trkpt lat="53.4168900" lon="-1.7435200"/>
            <trkpt lat="53.4174300" lon="-1.7445000"/>
            <trkpt lat="53.4177800" lon="-1.7450700"/>
            <trkpt lat="53.4179900" lon="-1.7453000"/>
            <trkpt lat="53.4185000" lon="-1.7457800"/>
            <trkpt lat="53.4188400" lon="-1.7460100"/>
            <trkpt lat="53.4190700" lon="-1.7461300"/>
            <trkpt lat="53.4195100" lon="-1.7462200"/>
            <trkpt lat="53.4198900" lon="-1.7462400"/>
            <trkpt lat="53.4215400" lon="-1.7458500"/>
            <trkpt lat="53.4217600" lon="-1.7457800"/>
            <trkpt lat="53.4223500" lon="-1.7454800"/>
            <trkpt lat="53.4225100" lon="-1.7453000"/>
            <trkpt lat="53.4226900" lon="-1.7453100"/>
            <trkpt lat="53.4237500" lon="-1.7448200"/>
            <trkpt lat="53.4241900" lon="-1.7444700"/>
            <trkpt lat="53.4243600" lon="-1.7441700"/>
            <trkpt lat="53.4247000" lon="-1.7432100"/>
            <trkpt lat="53.4250700" lon="-1.7426900"/>
            <trkpt lat="53.4251700" lon="-1.7426000"/>
            <trkpt lat="53.4254700" lon="-1.7425800"/>
            <trkpt lat="53.4255300" lon="-1.7426200"/>
            <trkpt lat="53.4258700" lon="-1.7438000"/>
            <trkpt lat="53.4260200" lon="-1.7441400"/>
            <trkpt lat="53.4261800" lon="-1.7444200"/>
            <trkpt lat="53.4263100" lon="-1.7445500"/>
            <trkpt lat="53.4264800" lon="-1.7445700"/>
            <trkpt lat="53.4268100" lon="-1.7445200"/>
            <trkpt lat="53.4269700" lon="-1.7444700"/>
            <trkpt lat="53.4276300" lon="-1.7441100"/>
            <trkpt lat="53.4279200" lon="-1.7438700"/>
            <trkpt lat="53.4281000" lon="-1.7436600"/>
            <trkpt lat="53.4289400" lon="-1.7429900"/>
            <trkpt lat="53.4291800" lon="-1.7428200"/>
            <trkpt lat="53.4297100" lon="-1.7425200"/>
            <trkpt lat="53.4309700" lon="-1.7419200"/>
            <trkpt lat="53.4329200" lon="-1.7411600"/>
            <trkpt lat="53.4337100" lon="-1.7407100"/>
            <trkpt lat="53.4339800" lon="-1.7405100"/>
            <trkpt lat="53.4346200" lon="-1.7397000"/>
            <trkpt lat="53.4350300" lon="-1.7392300"/>
            <trkpt lat="53.4349900" lon="-1.7390700"/>
            <trkpt lat="53.4358600" lon="-1.7381500"/>
            <trkpt lat="53.4373600" lon="-1.7369900"/>
            <trkpt lat="53.4384900" lon="-1.7360000"/>
            <trkpt lat="53.4387000" lon="-1.7356900"/>
            <trkpt lat="53.4388300" lon="-1.7353700"/>
            <trkpt lat="53.4388900" lon="-1.7337500"/>
            <trkpt lat="53.4388200" lon="-1.7332300"/>
            <trkpt lat="53.4389000" lon="-1.7316700"/>
            <trkpt lat="53.4388800" lon="-1.7310000"/>
            <trkpt lat="53.4389900" lon="-1.7306000"/>
            <trkpt lat="53.4391800" lon="-1.7304100"/>
            <trkpt lat="53.4394200" lon="-1.7303200"/>
            <trkpt lat="53.4397200" lon="-1.7303500"/>
            <trkpt lat="53.4401200" lon="-1.7300800"/>
            <trkpt lat="53.4405000" lon="-1.7296900"/>
            <trkpt lat="53.4405700" lon="-1.7293900"/>
            <trkpt lat="53.4408500" lon="-1.7290000"/>
            <trkpt lat="53.4412400" lon="-1.7288000"/>
            <trkpt lat="53.4414600" lon="-1.7287300"/>
            <trkpt lat="53.4418900" lon="-1.7287100"/>
            <trkpt lat="53.4429500" lon="-1.7288800"/>
            <trkpt lat="53.4441600" lon="-1.7284600"/>
            <trkpt lat="53.4450000" lon="-1.7283500"/>
            <trkpt lat="53.4452900" lon="-1.7283700"/>
            <trkpt lat="53.4453400" lon="-1.7281700"/>
            <trkpt lat="53.4453100" lon="-1.7273300"/>
            <trkpt lat="53.4453300" lon="-1.7252900"/>
            <trkpt lat="53.4453800" lon="-1.7238300"/>
            <trkpt lat="53.4453400" lon="-1.7233600"/>
            <trkpt lat="53.4452300" lon="-1.7229100"/>
            <trkpt lat="53.4452600" lon="-1.7225800"/>
            <trkpt lat="53.4452900" lon="-1.7218200"/>
            <trkpt lat="53.4453600" lon="-1.7207500"/>
            <trkpt lat="53.4453500" lon="-1.7204100"/>
            <trkpt lat="53.4452600" lon="-1.7201200"/>
            <trkpt lat="53.4452200" lon="-1.7193300"/>
            <trkpt lat="53.4452800" lon="-1.7190300"/>
            <trkpt lat="53.4453800" lon="-1.7188700"/>
            <trkpt lat="53.4455100" lon="-1.7187000"/>
            <trkpt lat="53.4455400" lon="-1.7185800"/>
            <trkpt lat="53.4456900" lon="-1.7186800"/>
            <trkpt lat="53.4462400" lon="-1.7186700"/>
            <trkpt lat="53.4470000" lon="-1.7183100"/>
            <trkpt lat="53.4481200" lon="-1.7176500"/>
            <trkpt lat="53.4482400" lon="-1.7175200"/>
            <trkpt lat="53.4487400" lon="-1.7168500"/>
            <trkpt lat="53.4488300" lon="-1.7167800"/>
            <trkpt lat="53.4496400" lon="-1.7164800"/>
            <trkpt lat="53.4505200" lon="-1.7162900"/>
            <trkpt lat="53.4507600" lon="-1.7162700"/>
            <trkpt lat="53.4508900" lon="-1.7163100"/>
            <trkpt lat="53.4510400" lon="-1.7164200"/>
            <trkpt lat="53.4512000" lon="-1.7164500"/>
            <trkpt lat="53.4512900" lon="-1.7164300"/>
            <trkpt lat="53.4515600" lon="-1.7165300"/>
            <trkpt lat="53.4516900" lon="-1.7165100"/>
            <trkpt lat="53.4518300" lon="-1.7164400"/>
            <trkpt lat="53.4521800" lon="-1.7161200"/>
            <trkpt lat="53.4522500" lon="-1.7160900"/>
            <trkpt lat="53.4525100" lon="-1.7161500"/>
            <trkpt lat="53.4531000" lon="-1.7161400"/>
            <trkpt lat="53.4535300" lon="-1.7162200"/>
            <trkpt lat="53.4543100" lon="-1.7169500"/>
            <trkpt lat="53.4546000" lon="-1.7171700"/>
            <trkpt lat="53.4549900" lon="-1.7173100"/>
            <trkpt lat="53.4559200" lon="-1.7178900"/>
            <trkpt lat="53.4567800" lon="-1.7183300"/>
            <trkpt lat="53.4570400" lon="-1.7187300"/>
            <trkpt lat="53.4573300" lon="-1.7190700"/>
            <trkpt lat="53.4570400" lon="-1.7187300"/>
            <trkpt lat="53.4570900" lon="-1.7184000"/>
            <trkpt lat="53.4572600" lon="-1.7176400"/>
            <trkpt lat="53.4573000" lon="-1.7171700"/>
            <trkpt lat="53.4574300" lon="-1.7169700"/>
            <trkpt lat="53.4576600" lon="-1.7167300"/>
            <trkpt lat="53.4577100" lon="-1.7168300"/>
            <trkpt lat="53.4576600" lon="-1.7167300"/>
            <trkpt lat="53.4574300" lon="-1.7169700"/>
            <trkpt lat="53.4573000" lon="-1.7171700"/>
            <trkpt lat="53.4572600" lon="-1.7176400"/>
            <trkpt lat="53.4570900" lon="-1.7184000"/>
            <trkpt lat="53.4570400" lon="-1.7187300"/>
            <trkpt lat="53.4573300" lon="-1.7190700"/>
            <trkpt lat="53.4570400" lon="-1.7187300"/>
            <trkpt lat="53.4567800" lon="-1.7183300"/>
            <trkpt lat="53.4559200" lon="-1.7178900"/>
            <trkpt lat="53.4549900" lon="-1.7173100"/>
            <trkpt lat="53.4546000" lon="-1.7171700"/>
            <trkpt lat="53.4543100" lon="-1.7169500"/>
            <trkpt lat="53.4535300" lon="-1.7162200"/>
            <trkpt lat="53.4531000" lon="-1.7161400"/>
            <trkpt lat="53.4525100" lon="-1.7161500"/>
            <trkpt lat="53.4522500" lon="-1.7160900"/>
            <trkpt lat="53.4521800" lon="-1.7161200"/>
            <trkpt lat="53.4518300" lon="-1.7164400"/>
            <trkpt lat="53.4516900" lon="-1.7165100"/>
            <trkpt lat="53.4515600" lon="-1.7165300"/>
            <trkpt lat="53.4512900" lon="-1.7164300"/>
            <trkpt lat="53.4512000" lon="-1.7164500"/>
            <trkpt lat="53.4510400" lon="-1.7164200"/>
            <trkpt lat="53.4508900" lon="-1.7163100"/>
            <trkpt lat="53.4507600" lon="-1.7162700"/>
            <trkpt lat="53.4505200" lon="-1.7162900"/>
            <trkpt lat="53.4496400" lon="-1.7164800"/>
            <trkpt lat="53.4488300" lon="-1.7167800"/>
            <trkpt lat="53.4487400" lon="-1.7168500"/>
            <trkpt lat="53.4482400" lon="-1.7175200"/>
            <trkpt lat="53.4481200" lon="-1.7176500"/>
            <trkpt lat="53.4470000" lon="-1.7183100"/>
            <trkpt lat="53.4462400" lon="-1.7186700"/>
            <trkpt lat="53.4456900" lon="-1.7186800"/>
            <trkpt lat="53.4455400" lon="-1.7185800"/>
            <trkpt lat="53.4455100" lon="-1.7187000"/>
            <trkpt lat="53.4453800" lon="-1.7188700"/>
            <trkpt lat="53.4452800" lon="-1.7190300"/>
            <trkpt lat="53.4452200" lon="-1.7193300"/>
            <trkpt lat="53.4452600" lon="-1.7201200"/>
            <trkpt lat="53.4453500" lon="-1.7204100"/>
            <trkpt lat="53.4453600" lon="-1.7207500"/>
            <trkpt lat="53.4452900" lon="-1.7218200"/>
            <trkpt lat="53.4452600" lon="-1.7225800"/>
            <trkpt lat="53.4452300" lon="-1.7229100"/>
            <trkpt lat="53.4453400" lon="-1.7233600"/>
            <trkpt lat="53.4453800" lon="-1.7238300"/>
            <trkpt lat="53.4453300" lon="-1.7252900"/>
            <trkpt lat="53.4453100" lon="-1.7273300"/>
            <trkpt lat="53.4453400" lon="-1.7281700"/>
            <trkpt lat="53.4452900" lon="-1.7283700"/>
            <trkpt lat="53.4450000" lon="-1.7283500"/>
            <trkpt lat="53.4441600" lon="-1.7284600"/>
            <trkpt lat="53.4429500" lon="-1.7288800"/>
            <trkpt lat="53.4418900" lon="-1.7287100"/>
            <trkpt lat="53.4414600" lon="-1.7287300"/>
            <trkpt lat="53.4412400" lon="-1.7288000"/>
            <trkpt lat="53.4408500" lon="-1.7290000"/>
            <trkpt lat="53.4405700" lon="-1.7293900"/>
            <trkpt lat="53.4405000" lon="-1.7296900"/>
            <trkpt lat="53.4401200" lon="-1.7300800"/>
            <trkpt lat="53.4397200" lon="-1.7303500"/>
            <trkpt lat="53.4394200" lon="-1.7303200"/>
            <trkpt lat="53.4391800" lon="-1.7304100"/>
            <trkpt lat="53.4389900" lon="-1.7306000"/>
            <trkpt lat="53.4388800" lon="-1.7310000"/>
            <trkpt lat="53.4389000" lon="-1.7316700"/>
            <trkpt lat="53.4388200" lon="-1.7332300"/>
            <trkpt lat="53.4388900" lon="-1.7337500"/>
            <trkpt lat="53.4388300" lon="-1.7353700"/>
            <trkpt lat="53.4387000" lon="-1.7356900"/>
            <trkpt lat="53.4384900" lon="-1.7360000"/>
            <trkpt lat="53.4373600" lon="-1.7369900"/>
            <trkpt lat="53.4358600" lon="-1.7381500"/>
            <trkpt lat="53.4349900" lon="-1.7390700"/>
            <trkpt lat="53.4350300" lon="-1.7392300"/>
            <trkpt lat="53.4346200" lon="-1.7397000"/>
            <trkpt lat="53.4339800" lon="-1.7405100"/>
            <trkpt lat="53.4337100" lon="-1.7407100"/>
            <trkpt lat="53.4329200" lon="-1.7411600"/>
            <trkpt lat="53.4309700" lon="-1.7419200"/>
            <trkpt lat="53.4297100" lon="-1.7425200"/>
            <trkpt lat="53.4291800" lon="-1.7428200"/>
            <trkpt lat="53.4289400" lon="-1.7429900"/>
            <trkpt lat="53.4281000" lon="-1.7436600"/>
            <trkpt lat="53.4279200" lon="-1.7438700"/>
            <trkpt lat="53.4276300" lon="-1.7441100"/>
            <trkpt lat="53.4269700" lon="-1.7444700"/>
            <trkpt lat="53.4268100" lon="-1.7445200"/>
            <trkpt lat="53.4264800" lon="-1.7445700"/>
            <trkpt lat="53.4263100" lon="-1.7445500"/>
            <trkpt lat="53.4261800" lon="-1.7444200"/>
            <trkpt lat="53.4260200" lon="-1.7441400"/>
            <trkpt lat="53.4258700" lon="-1.7438000"/>
            <trkpt lat="53.4255300" lon="-1.7426200"/>
            <trkpt lat="53.4254700" lon="-1.7425800"/>
            <trkpt lat="53.4251700" lon="-1.7426000"/>
            <trkpt lat="53.4250700" lon="-1.7426900"/>
            <trkpt lat="53.4247000" lon="-1.7432100"/>
            <trkpt lat="53.4243600" lon="-1.7441700"/>
            <trkpt lat="53.4241900" lon="-1.7444700"/>
            <trkpt lat="53.4237500" lon="-1.7448200"/>
            <trkpt lat="53.4226900" lon="-1.7453100"/>
            <trkpt lat="53.4225100" lon="-1.7453000"/>
            <trkpt lat="53.4223500" lon="-1.7454800"/>
            <trkpt lat="53.4217600" lon="-1.7457800"/>
            <trkpt lat="53.4215400" lon="-1.7458500"/>
            <trkpt lat="53.4198900" lon="-1.7462400"/>
            <trkpt lat="53.4195100" lon="-1.7462200"/>
            <trkpt lat="53.4190700" lon="-1.7461300"/>
            <trkpt lat="53.4188400" lon="-1.7460100"/>
            <trkpt lat="53.4185000" lon="-1.7457800"/>
            <trkpt lat="53.4179900" lon="-1.7453000"/>
            <trkpt lat="53.4177800" lon="-1.7450700"/>
            <trkpt lat="53.4174300" lon="-1.7445000"/>
            <trkpt lat="53.4168900" lon="-1.7435200"/>
            <trkpt lat="53.4164800" lon="-1.7427300"/>
            <trkpt lat="53.4161800" lon="-1.7421100"/>
            <trkpt lat="53.4159300" lon="-1.7416500"/>
            <trkpt lat="53.4157800" lon="-1.7414600"/>
            <trkpt lat="53.4149100" lon="-1.7405800"/>
            <trkpt lat="53.4147100" lon="-1.7404200"/>
            <trkpt lat="53.4145700" lon="-1.7403400"/>
            <trkpt lat="53.4130800" lon="-1.7404700"/>
            <trkpt lat="53.4128300" lon="-1.7405300"/>
            <trkpt lat="53.4122500" lon="-1.7408100"/>
            <trkpt lat="53.4118200" lon="-1.7409800"/>
            <trkpt lat="53.4113300" lon="-1.7411000"/>
            <trkpt lat="53.4106400" lon="-1.7413200"/>
            <trkpt lat="53.4103900" lon="-1.7413200"/>
            <trkpt lat="53.4101400" lon="-1.7412400"/>
            <trkpt lat="53.4097500" lon="-1.7410700"/>
            <trkpt lat="53.4095200" lon="-1.7410200"/>
            <trkpt lat="53.4086700" lon="-1.7406700"/>
            <trkpt lat="53.4082100" lon="-1.7402600"/>
            <trkpt lat="53.4079900" lon="-1.7399300"/>
            <trkpt lat="53.4078400" lon="-1.7396400"/>
            <trkpt lat="53.4077300" lon="-1.7394900"/>
            <trkpt lat="53.4076600" lon="-1.7394300"/>
            <trkpt lat="53.4075300" lon="-1.7394100"/>
            <trkpt lat="53.4073700" lon="-1.7394200"/>
            <trkpt lat="53.4072300" lon="-1.7394900"/>
            <trkpt lat="53.4071500" lon="-1.7395600"/>
            <trkpt lat="53.4070400" lon="-1.7395900"/>
            <trkpt lat="53.4069300" lon="-1.7395900"/>
            <trkpt lat="53.4067900" lon="-1.7395000"/>
            <trkpt lat="53.4059300" lon="-1.7392400"/>
            <trkpt lat="53.4057900" lon="-1.7393100"/>
            <trkpt lat="53.4052900" lon="-1.7392000"/>
            <trkpt lat="53.4051400" lon="-1.7397800"/>
            <trkpt lat="53.4049900" lon="-1.7399900"/>
            <trkpt lat="53.4049200" lon="-1.7402500"/>
            <trkpt lat="53.4049500" lon="-1.7402700"/>
            <trkpt lat="53.4049400" lon="-1.7403400"/>
            <trkpt lat="53.4048700" lon="-1.7404500"/>
            <trkpt lat="53.4042900" lon="-1.7411000"/>
            <trkpt lat="53.4039400" lon="-1.7414600"/>
            <trkpt lat="53.4035200" lon="-1.7417800"/>
            <trkpt lat="53.4032300" lon="-1.7418800"/>
            <trkpt lat="53.4030800" lon="-1.7418600"/>
            <trkpt lat="53.4028400" lon="-1.7419900"/>
            <trkpt lat="53.4027300" lon="-1.7420900"/>
            <trkpt lat="53.4023900" lon="-1.7423200"/>
            <trkpt lat="53.4020900" lon="-1.7425700"/>
            <trkpt lat="53.4018100" lon="-1.7426900"/>
            <trkpt lat="53.4017900" lon="-1.7426000"/>
            <trkpt lat="53.4013900" lon="-1.7423800"/>
            <trkpt lat="53.4012300" lon="-1.7422200"/>
            <trkpt lat="53.4009700" lon="-1.7421800"/>
            <trkpt lat="53.4009800" lon="-1.7420500"/>
            <trkpt lat="53.4009200" lon="-1.7419100"/>
            <trkpt lat="53.4008400" lon="-1.7418100"/>
            <trkpt lat="53.4004400" lon="-1.7422300"/>
            <trkpt lat="53.4003100" lon="-1.7424800"/>
            <trkpt lat="53.4002100" lon="-1.7425200"/>
            <trkpt lat="53.4003500" lon="-1.7423500"/>
        </trkseg>
    </trk>
</gpx>
