<?xml version="1.0" encoding="UTF-8" standalone="yes"?>
<gpx version="1.1" creator="OS Maps - Web" xmlns="http://www.topografix.com/GPX/1/1"
xmlns:xsi="http://www.w3.org/2001/XMLSchema-instance"
xsi:schemaLocation="http://www.topografix.com/GPX/1/1 http://www.topografix.com/GPX/1/1/gpx.xsd"
xmlns:gs="http://www.topografix.com/GPX/gpx_style/0/2"
xmlns:gh="https://graphhopper.com/public/schema/gpx/1.1"
xmlns:os="https://ordnancesurvey.co.uk/public/schema/route/0.1">
    <metadata>
        <name>Higher Shelf Stones &amp; Bleaklow Head (Ethels) - Circular (www.thelostpeak.co.uk)</name>
        <desc>www.thelostpeak.co.uk</desc>
        <bounds minlat="53.4329000" minlon="-1.8693640" maxlat="53.4612820" maxlon="-1.8523420"/>
        <extensions>
            <os:version>2.0</os:version>
            <os:point lat="53.4329060" lon="-1.8693640" type="start"/>
            <os:point lat="53.4329060" lon="-1.8693640" type="end"/>
            <os:activity>ON_FOOT_WALKING</os:activity>
            <os:difficulty>MODERATE</os:difficulty>
            <os:paths/>
            <os:distance>8237.8887172</os:distance>
            <os:elevation_ascent>175.7500000</os:elevation_ascent>
        </extensions>
    </metadata>
    <wpt lat="53.4329060" lon="-1.8693640"/>
    <wpt lat="53.4329060" lon="-1.8693640"/>
    <trk>
        <name>Higher Shelf Stones &amp; Bleaklow Head (Ethels) - Circular (www.thelostpeak.co.uk)</name>
        <trkseg>
            <trkpt lat="53.4329060" lon="-1.8693640"/>
            <trkpt lat="53.4329000" lon="-1.8688990"/>
            <trkpt lat="53.4332970" lon="-1.8687670"/>
            <trkpt lat="53.4336200" lon="-1.8686290"/>
            <trkpt lat="53.4355120" lon="-1.8671210"/>
            <trkpt lat="53.4361840" lon="-1.8666340"/>
            <trkpt lat="53.4364890" lon="-1.8664500"/>
            <trkpt lat="53.4366300" lon="-1.8663180"/>
            <trkpt lat="53.4368070" lon="-1.8662130"/>
            <trkpt lat="53.4368890" lon="-1.8660500"/>
            <trkpt lat="53.4372150" lon="-1.8655720"/>
            <trkpt lat="53.4379730" lon="-1.8647370"/>
            <trkpt lat="53.4382110" lon="-1.8643130"/>
            <trkpt lat="53.4384550" lon="-1.8639480"/>
            <trkpt lat="53.4386130" lon="-1.8636370"/>
            <trkpt lat="53.4389670" lon="-1.8632980"/>
            <trkpt lat="53.4392030" lon="-1.8628390"/>
            <trkpt lat="53.4395390" lon="-1.8623980"/>
            <trkpt lat="53.4402710" lon="-1.8609080"/>
            <trkpt lat="53.4410430" lon="-1.8594580"/>
            <trkpt lat="53.4411290" lon="-1.8591760"/>
            <trkpt lat="53.4412210" lon="-1.8590610"/>
            <trkpt lat="53.4413100" lon="-1.8588520"/>
            <trkpt lat="53.4413240" lon="-1.8587530"/>
            <trkpt lat="53.4417770" lon="-1.8578440"/>
            <trkpt lat="53.4422750" lon="-1.8569370"/>
            <trkpt lat="53.4423270" lon="-1.8567420"/>
            <trkpt lat="53.4423840" lon="-1.8566280"/>
            <trkpt lat="53.4424730" lon="-1.8565000"/>
            <trkpt lat="53.4425290" lon="-1.8564680"/>
            <trkpt lat="53.4427410" lon="-1.8561140"/>
            <trkpt lat="53.4428770" lon="-1.8559700"/>
            <trkpt lat="53.4429400" lon="-1.8558330"/>
            <trkpt lat="53.4431730" lon="-1.8555530"/>
            <trkpt lat="53.4435570" lon="-1.8549520"/>
            <trkpt lat="53.4436570" lon="-1.8548830"/>
            <trkpt lat="53.4437710" lon="-1.8546280"/>
            <trkpt lat="53.4439060" lon="-1.8544620"/>
            <trkpt lat="53.4439420" lon="-1.8543590"/>
            <trkpt lat="53.4440630" lon="-1.8542590"/>
            <trkpt lat="53.4442970" lon="-1.8539330"/>
            <trkpt lat="53.4443390" lon="-1.8538030"/>
            <trkpt lat="53.4444540" lon="-1.8537050"/>
            <trkpt lat="53.4445010" lon="-1.8536390"/>
            <trkpt lat="53.4445240" lon="-1.8535460"/>
            <trkpt lat="53.4446840" lon="-1.8533950"/>
            <trkpt lat="53.4448330" lon="-1.8532020"/>
            <trkpt lat="53.4449440" lon="-1.8531140"/>
            <trkpt lat="53.4449700" lon="-1.8530440"/>
            <trkpt lat="53.4452820" lon="-1.8528730"/>
            <trkpt lat="53.4454980" lon="-1.8528140"/>
            <trkpt lat="53.4456400" lon="-1.8526850"/>
            <trkpt lat="53.4460640" lon="-1.8525850"/>
            <trkpt lat="53.4461020" lon="-1.8525290"/>
            <trkpt lat="53.4462560" lon="-1.8525600"/>
            <trkpt lat="53.4463040" lon="-1.8527120"/>
            <trkpt lat="53.4463440" lon="-1.8527490"/>
            <trkpt lat="53.4465880" lon="-1.8526160"/>
            <trkpt lat="53.4466630" lon="-1.8526230"/>
            <trkpt lat="53.4467510" lon="-1.8525310"/>
            <trkpt lat="53.4467870" lon="-1.8525560"/>
            <trkpt lat="53.4468650" lon="-1.8527270"/>
            <trkpt lat="53.4469360" lon="-1.8527490"/>
            <trkpt lat="53.4471770" lon="-1.8525090"/>
            <trkpt lat="53.4473580" lon="-1.8523770"/>
            <trkpt lat="53.4475070" lon="-1.8523420"/>
            <trkpt lat="53.4476520" lon="-1.8524670"/>
            <trkpt lat="53.4476880" lon="-1.8526130"/>
            <trkpt lat="53.4477490" lon="-1.8526960"/>
            <trkpt lat="53.4478540" lon="-1.8527130"/>
            <trkpt lat="53.4480160" lon="-1.8528570"/>
            <trkpt lat="53.4480760" lon="-1.8529840"/>
            <trkpt lat="53.4481090" lon="-1.8531960"/>
            <trkpt lat="53.4482660" lon="-1.8534900"/>
            <trkpt lat="53.4483130" lon="-1.8536800"/>
            <trkpt lat="53.4484130" lon="-1.8538590"/>
            <trkpt lat="53.4485350" lon="-1.8539250"/>
            <trkpt lat="53.4486880" lon="-1.8538590"/>
            <trkpt lat="53.4487560" lon="-1.8537830"/>
            <trkpt lat="53.4488060" lon="-1.8536070"/>
            <trkpt lat="53.4488720" lon="-1.8534940"/>
            <trkpt lat="53.4489490" lon="-1.8534560"/>
            <trkpt lat="53.4490360" lon="-1.8534640"/>
            <trkpt lat="53.4491160" lon="-1.8535540"/>
            <trkpt lat="53.4492130" lon="-1.8538300"/>
            <trkpt lat="53.4492660" lon="-1.8540360"/>
            <trkpt lat="53.4492800" lon="-1.8541850"/>
            <trkpt lat="53.4494710" lon="-1.8546820"/>
            <trkpt lat="53.4494990" lon="-1.8548880"/>
            <trkpt lat="53.4497710" lon="-1.8554640"/>
            <trkpt lat="53.4498010" lon="-1.8554720"/>
            <trkpt lat="53.4498230" lon="-1.8555310"/>
            <trkpt lat="53.4498120" lon="-1.8555710"/>
            <trkpt lat="53.4498270" lon="-1.8556420"/>
            <trkpt lat="53.4498120" lon="-1.8555710"/>
            <trkpt lat="53.4498230" lon="-1.8555310"/>
            <trkpt lat="53.4498670" lon="-1.8555690"/>
            <trkpt lat="53.4500040" lon="-1.8555900"/>
            <trkpt lat="53.4501080" lon="-1.8555500"/>
            <trkpt lat="53.4501810" lon="-1.8555910"/>
            <trkpt lat="53.4504310" lon="-1.8555700"/>
            <trkpt lat="53.4505260" lon="-1.8556420"/>
            <trkpt lat="53.4507260" lon="-1.8555540"/>
            <trkpt lat="53.4508550" lon="-1.8556270"/>
            <trkpt lat="53.4509440" lon="-1.8556410"/>
            <trkpt lat="53.4509960" lon="-1.8556050"/>
            <trkpt lat="53.4510510" lon="-1.8556320"/>
            <trkpt lat="53.4511960" lon="-1.8558170"/>
            <trkpt lat="53.4512990" lon="-1.8557940"/>
            <trkpt lat="53.4514730" lon="-1.8560040"/>
            <trkpt lat="53.4516000" lon="-1.8560300"/>
            <trkpt lat="53.4517710" lon="-1.8559910"/>
            <trkpt lat="53.4518730" lon="-1.8561720"/>
            <trkpt lat="53.4521410" lon="-1.8563240"/>
            <trkpt lat="53.4522350" lon="-1.8564890"/>
            <trkpt lat="53.4524850" lon="-1.8566710"/>
            <trkpt lat="53.4525820" lon="-1.8568440"/>
            <trkpt lat="53.4526900" lon="-1.8569070"/>
            <trkpt lat="53.4527340" lon="-1.8569860"/>
            <trkpt lat="53.4527960" lon="-1.8572010"/>
            <trkpt lat="53.4528540" lon="-1.8572690"/>
            <trkpt lat="53.4530310" lon="-1.8576750"/>
            <trkpt lat="53.4530360" lon="-1.8577840"/>
            <trkpt lat="53.4531680" lon="-1.8582490"/>
            <trkpt lat="53.4532860" lon="-1.8584560"/>
            <trkpt lat="53.4533870" lon="-1.8585260"/>
            <trkpt lat="53.4537390" lon="-1.8591030"/>
            <trkpt lat="53.4539770" lon="-1.8593260"/>
            <trkpt lat="53.4540520" lon="-1.8594460"/>
            <trkpt lat="53.4541440" lon="-1.8594580"/>
            <trkpt lat="53.4542190" lon="-1.8595560"/>
            <trkpt lat="53.4543030" lon="-1.8597560"/>
            <trkpt lat="53.4544230" lon="-1.8598510"/>
            <trkpt lat="53.4544840" lon="-1.8599430"/>
            <trkpt lat="53.4546000" lon="-1.8599440"/>
            <trkpt lat="53.4547380" lon="-1.8597970"/>
            <trkpt lat="53.4548250" lon="-1.8598380"/>
            <trkpt lat="53.4549290" lon="-1.8598330"/>
            <trkpt lat="53.4551100" lon="-1.8596950"/>
            <trkpt lat="53.4554630" lon="-1.8596900"/>
            <trkpt lat="53.4555440" lon="-1.8597680"/>
            <trkpt lat="53.4555850" lon="-1.8598860"/>
            <trkpt lat="53.4556330" lon="-1.8598930"/>
            <trkpt lat="53.4556970" lon="-1.8600050"/>
            <trkpt lat="53.4557160" lon="-1.8601100"/>
            <trkpt lat="53.4557740" lon="-1.8601370"/>
            <trkpt lat="53.4558090" lon="-1.8602390"/>
            <trkpt lat="53.4558840" lon="-1.8602840"/>
            <trkpt lat="53.4559850" lon="-1.8605830"/>
            <trkpt lat="53.4560040" lon="-1.8607960"/>
            <trkpt lat="53.4559830" lon="-1.8608710"/>
            <trkpt lat="53.4560430" lon="-1.8609950"/>
            <trkpt lat="53.4560910" lon="-1.8610070"/>
            <trkpt lat="53.4561530" lon="-1.8609330"/>
            <trkpt lat="53.4562590" lon="-1.8609240"/>
            <trkpt lat="53.4564100" lon="-1.8610650"/>
            <trkpt lat="53.4564890" lon="-1.8610490"/>
            <trkpt lat="53.4566440" lon="-1.8607900"/>
            <trkpt lat="53.4567460" lon="-1.8608600"/>
            <trkpt lat="53.4567890" lon="-1.8609640"/>
            <trkpt lat="53.4568560" lon="-1.8609910"/>
            <trkpt lat="53.4568930" lon="-1.8609680"/>
            <trkpt lat="53.4569260" lon="-1.8608850"/>
            <trkpt lat="53.4570730" lon="-1.8608580"/>
            <trkpt lat="53.4571730" lon="-1.8606940"/>
            <trkpt lat="53.4572000" lon="-1.8605350"/>
            <trkpt lat="53.4574460" lon="-1.8602530"/>
            <trkpt lat="53.4576590" lon="-1.8602140"/>
            <trkpt lat="53.4578360" lon="-1.8600730"/>
            <trkpt lat="53.4578920" lon="-1.8600710"/>
            <trkpt lat="53.4579580" lon="-1.8601620"/>
            <trkpt lat="53.4579990" lon="-1.8601540"/>
            <trkpt lat="53.4580630" lon="-1.8600730"/>
            <trkpt lat="53.4581840" lon="-1.8600690"/>
            <trkpt lat="53.4582930" lon="-1.8600110"/>
            <trkpt lat="53.4583270" lon="-1.8599160"/>
            <trkpt lat="53.4583580" lon="-1.8599360"/>
            <trkpt lat="53.4584530" lon="-1.8598470"/>
            <trkpt lat="53.4585090" lon="-1.8598490"/>
            <trkpt lat="53.4585900" lon="-1.8598860"/>
            <trkpt lat="53.4586040" lon="-1.8598530"/>
            <trkpt lat="53.4586460" lon="-1.8598700"/>
            <trkpt lat="53.4586870" lon="-1.8598280"/>
            <trkpt lat="53.4587390" lon="-1.8598720"/>
            <trkpt lat="53.4587990" lon="-1.8598370"/>
            <trkpt lat="53.4589750" lon="-1.8598910"/>
            <trkpt lat="53.4590490" lon="-1.8601380"/>
            <trkpt lat="53.4591620" lon="-1.8602760"/>
            <trkpt lat="53.4592770" lon="-1.8601340"/>
            <trkpt lat="53.4593870" lon="-1.8601370"/>
            <trkpt lat="53.4594620" lon="-1.8601880"/>
            <trkpt lat="53.4595260" lon="-1.8602780"/>
            <trkpt lat="53.4596280" lon="-1.8603440"/>
            <trkpt lat="53.4596900" lon="-1.8604690"/>
            <trkpt lat="53.4597400" lon="-1.8606860"/>
            <trkpt lat="53.4598170" lon="-1.8608570"/>
            <trkpt lat="53.4601870" lon="-1.8608950"/>
            <trkpt lat="53.4602760" lon="-1.8607500"/>
            <trkpt lat="53.4603800" lon="-1.8606550"/>
            <trkpt lat="53.4604910" lon="-1.8604370"/>
            <trkpt lat="53.4608510" lon="-1.8601240"/>
            <trkpt lat="53.4610360" lon="-1.8598250"/>
            <trkpt lat="53.4612820" lon="-1.8596610"/>
            <trkpt lat="53.4608140" lon="-1.8606450"/>
            <trkpt lat="53.4603920" lon="-1.8614550"/>
            <trkpt lat="53.4601250" lon="-1.8622650"/>
            <trkpt lat="53.4600710" lon="-1.8628260"/>
            <trkpt lat="53.4598420" lon="-1.8631400"/>
            <trkpt lat="53.4598490" lon="-1.8629070"/>
            <trkpt lat="53.4596720" lon="-1.8631320"/>
            <trkpt lat="53.4594660" lon="-1.8631750"/>
            <trkpt lat="53.4570150" lon="-1.8628120"/>
            <trkpt lat="53.4565860" lon="-1.8626610"/>
            <trkpt lat="53.4558280" lon="-1.8628260"/>
            <trkpt lat="53.4549390" lon="-1.8625350"/>
            <trkpt lat="53.4549150" lon="-1.8624690"/>
            <trkpt lat="53.4549390" lon="-1.8625350"/>
            <trkpt lat="53.4548450" lon="-1.8626690"/>
            <trkpt lat="53.4547860" lon="-1.8628750"/>
            <trkpt lat="53.4543120" lon="-1.8634540"/>
            <trkpt lat="53.4542400" lon="-1.8636710"/>
            <trkpt lat="53.4539490" lon="-1.8641460"/>
            <trkpt lat="53.4533980" lon="-1.8648710"/>
            <trkpt lat="53.4522890" lon="-1.8651870"/>
            <trkpt lat="53.4517800" lon="-1.8653680"/>
            <trkpt lat="53.4513470" lon="-1.8657400"/>
            <trkpt lat="53.4511030" lon="-1.8656830"/>
            <trkpt lat="53.4506760" lon="-1.8655140"/>
            <trkpt lat="53.4505280" lon="-1.8660950"/>
            <trkpt lat="53.4503750" lon="-1.8662590"/>
            <trkpt lat="53.4502500" lon="-1.8664940"/>
            <trkpt lat="53.4498280" lon="-1.8674650"/>
            <trkpt lat="53.4494700" lon="-1.8674410"/>
            <trkpt lat="53.4493450" lon="-1.8674000"/>
            <trkpt lat="53.4493170" lon="-1.8671850"/>
            <trkpt lat="53.4492740" lon="-1.8670360"/>
            <trkpt lat="53.4490320" lon="-1.8669310"/>
            <trkpt lat="53.4487910" lon="-1.8668930"/>
            <trkpt lat="53.4484110" lon="-1.8667470"/>
            <trkpt lat="53.4483080" lon="-1.8667410"/>
            <trkpt lat="53.4480190" lon="-1.8666570"/>
            <trkpt lat="53.4479490" lon="-1.8665530"/>
            <trkpt lat="53.4477740" lon="-1.8665130"/>
            <trkpt lat="53.4476400" lon="-1.8659220"/>
            <trkpt lat="53.4474870" lon="-1.8656040"/>
            <trkpt lat="53.4473220" lon="-1.8651810"/>
            <trkpt lat="53.4471150" lon="-1.8648100"/>
            <trkpt lat="53.4466790" lon="-1.8641670"/>
            <trkpt lat="53.4465890" lon="-1.8638800"/>
            <trkpt lat="53.4465290" lon="-1.8637670"/>
            <trkpt lat="53.4460960" lon="-1.8631060"/>
            <trkpt lat="53.4458630" lon="-1.8626900"/>
            <trkpt lat="53.4457170" lon="-1.8623580"/>
            <trkpt lat="53.4452750" lon="-1.8618310"/>
            <trkpt lat="53.4450970" lon="-1.8614630"/>
            <trkpt lat="53.4449220" lon="-1.8612940"/>
            <trkpt lat="53.4447120" lon="-1.8609130"/>
            <trkpt lat="53.4446090" lon="-1.8608060"/>
            <trkpt lat="53.4444950" lon="-1.8607830"/>
            <trkpt lat="53.4444460" lon="-1.8607270"/>
            <trkpt lat="53.4444610" lon="-1.8605410"/>
            <trkpt lat="53.4444340" lon="-1.8604370"/>
            <trkpt lat="53.4442430" lon="-1.8602370"/>
            <trkpt lat="53.4441220" lon="-1.8600550"/>
            <trkpt lat="53.4438200" lon="-1.8598820"/>
            <trkpt lat="53.4437110" lon="-1.8598800"/>
            <trkpt lat="53.4435410" lon="-1.8601310"/>
            <trkpt lat="53.4433320" lon="-1.8605890"/>
            <trkpt lat="53.4431870" lon="-1.8608390"/>
            <trkpt lat="53.4430690" lon="-1.8609200"/>
            <trkpt lat="53.4426300" lon="-1.8614920"/>
            <trkpt lat="53.4424470" lon="-1.8618210"/>
            <trkpt lat="53.4421880" lon="-1.8621420"/>
            <trkpt lat="53.4420420" lon="-1.8624370"/>
            <trkpt lat="53.4418640" lon="-1.8627160"/>
            <trkpt lat="53.4415360" lon="-1.8631150"/>
            <trkpt lat="53.4413040" lon="-1.8633300"/>
            <trkpt lat="53.4412080" lon="-1.8634720"/>
            <trkpt lat="53.4410570" lon="-1.8636220"/>
            <trkpt lat="53.4406940" lon="-1.8638440"/>
            <trkpt lat="53.4398670" lon="-1.8642440"/>
            <trkpt lat="53.4396350" lon="-1.8644340"/>
            <trkpt lat="53.4390350" lon="-1.8651680"/>
            <trkpt lat="53.4386920" lon="-1.8658170"/>
            <trkpt lat="53.4383340" lon="-1.8666010"/>
            <trkpt lat="53.4382240" lon="-1.8669380"/>
            <trkpt lat="53.4380340" lon="-1.8678350"/>
            <trkpt lat="53.4380010" lon="-1.8680710"/>
            <trkpt lat="53.4379770" lon="-1.8685960"/>
            <trkpt lat="53.4379530" lon="-1.8686960"/>
            <trkpt lat="53.4378370" lon="-1.8690260"/>
            <trkpt lat="53.4378210" lon="-1.8691280"/>
            <trkpt lat="53.4376880" lon="-1.8689800"/>
            <trkpt lat="53.4373940" lon="-1.8685540"/>
            <trkpt lat="53.4368570" lon="-1.8672890"/>
            <trkpt lat="53.4367060" lon="-1.8667860"/>
            <trkpt lat="53.4366300" lon="-1.8663180"/>
            <trkpt lat="53.4364890" lon="-1.8664500"/>
            <trkpt lat="53.4361840" lon="-1.8666340"/>
            <trkpt lat="53.4355120" lon="-1.8671210"/>
            <trkpt lat="53.4336200" lon="-1.8686290"/>
            <trkpt lat="53.4332970" lon="-1.8687670"/>
            <trkpt lat="53.4329000" lon="-1.8688990"/>
            <trkpt lat="53.4329060" lon="-1.8693640"/>
        </trkseg>
    </trk>
</gpx>
