<?xml version="1.0" encoding="UTF-8" standalone="yes"?>
<gpx version="1.1" creator="OS Maps - Web" xmlns="http://www.topografix.com/GPX/1/1"
xmlns:xsi="http://www.w3.org/2001/XMLSchema-instance"
xsi:schemaLocation="http://www.topografix.com/GPX/1/1 http://www.topografix.com/GPX/1/1/gpx.xsd"
xmlns:gs="http://www.topografix.com/GPX/gpx_style/0/2"
xmlns:gh="https://graphhopper.com/public/schema/gpx/1.1"
xmlns:os="https://ordnancesurvey.co.uk/public/schema/route/0.1">
    <metadata>
        <name>High Wheeldon, Pilsbury Hill &amp; Carder Low (Ethels) - Circular (www.thelostpeak.co.uk)</name>
        <desc></desc>
        <bounds minlat="53.1606400" minlon="-1.8559500" maxlat="53.1941300" maxlon="-1.8068800"/>
        <extensions>
            <os:version>2.0</os:version>
            <os:point lat="53.1940400" lon="-1.8546800" type="start"/>
            <os:point lat="53.1940400" lon="-1.8546800" type="end"/>
            <os:activity>ON_FOOT_WALKING</os:activity>
            <os:difficulty>MODERATE</os:difficulty>
            <os:paths/>
            <os:distance>11507.4706723</os:distance>
            <os:elevation_ascent>428.1800000</os:elevation_ascent>
        </extensions>
    </metadata>
    <wpt lat="53.1940400" lon="-1.8546800"/>
    <wpt lat="53.1941300" lon="-1.8534700"/>
    <wpt lat="53.1938000" lon="-1.8536100"/>
    <wpt lat="53.1932400" lon="-1.8533700"/>
    <wpt lat="53.1920300" lon="-1.8512300"/>
    <wpt lat="53.1909200" lon="-1.8506900"/>
    <wpt lat="53.1899900" lon="-1.8499000"/>
    <wpt lat="53.1885100" lon="-1.8478500"/>
    <wpt lat="53.1860100" lon="-1.8474600"/>
    <wpt lat="53.1846900" lon="-1.8468600"/>
    <wpt lat="53.1832700" lon="-1.8467600"/>
    <wpt lat="53.1829200" lon="-1.8462100"/>
    <wpt lat="53.1817600" lon="-1.8429000"/>
    <wpt lat="53.1817700" lon="-1.8415200"/>
    <wpt lat="53.1821100" lon="-1.8407400"/>
    <wpt lat="53.1820500" lon="-1.8398100"/>
    <wpt lat="53.1800400" lon="-1.8374500"/>
    <wpt lat="53.1785100" lon="-1.8362900"/>
    <wpt lat="53.1773500" lon="-1.8338400"/>
    <wpt lat="53.1767300" lon="-1.8331100"/>
    <wpt lat="53.1763000" lon="-1.8301100"/>
    <wpt lat="53.1760900" lon="-1.8295300"/>
    <wpt lat="53.1745500" lon="-1.8269000"/>
    <wpt lat="53.1724400" lon="-1.8245800"/>
    <wpt lat="53.1714300" lon="-1.8227300"/>
    <wpt lat="53.1729300" lon="-1.8196000"/>
    <wpt lat="53.1718200" lon="-1.8195300"/>
    <wpt lat="53.1700300" lon="-1.8163100"/>
    <wpt lat="53.1700200" lon="-1.8158100"/>
    <wpt lat="53.1695200" lon="-1.8152900"/>
    <wpt lat="53.1666200" lon="-1.8143300"/>
    <wpt lat="53.1645400" lon="-1.8145800"/>
    <wpt lat="53.1631000" lon="-1.8134000"/>
    <wpt lat="53.1622700" lon="-1.8131400"/>
    <wpt lat="53.1611000" lon="-1.8132700"/>
    <wpt lat="53.1608600" lon="-1.8102200"/>
    <wpt lat="53.1611400" lon="-1.8091900"/>
    <wpt lat="53.1606500" lon="-1.8077400"/>
    <wpt lat="53.1607100" lon="-1.8068800"/>
    <wpt lat="53.1606500" lon="-1.8077300"/>
    <wpt lat="53.1611400" lon="-1.8092000"/>
    <wpt lat="53.1608600" lon="-1.8102200"/>
    <wpt lat="53.1611000" lon="-1.8132700"/>
    <wpt lat="53.1622700" lon="-1.8131400"/>
    <wpt lat="53.1631000" lon="-1.8134000"/>
    <wpt lat="53.1645400" lon="-1.8145800"/>
    <wpt lat="53.1662500" lon="-1.8144000"/>
    <wpt lat="53.1669500" lon="-1.8166800"/>
    <wpt lat="53.1669800" lon="-1.8173100"/>
    <wpt lat="53.1668400" lon="-1.8178100"/>
    <wpt lat="53.1670900" lon="-1.8182500"/>
    <wpt lat="53.1675000" lon="-1.8208600"/>
    <wpt lat="53.1679200" lon="-1.8205300"/>
    <wpt lat="53.1678800" lon="-1.8224500"/>
    <wpt lat="53.1681300" lon="-1.8232800"/>
    <wpt lat="53.1707300" lon="-1.8283900"/>
    <wpt lat="53.1714700" lon="-1.8289800"/>
    <wpt lat="53.1718600" lon="-1.8296500"/>
    <wpt lat="53.1724900" lon="-1.8300700"/>
    <wpt lat="53.1727000" lon="-1.8311100"/>
    <wpt lat="53.1751800" lon="-1.8352200"/>
    <wpt lat="53.1773200" lon="-1.8393500"/>
    <wpt lat="53.1782500" lon="-1.8429000"/>
    <wpt lat="53.1787500" lon="-1.8442600"/>
    <wpt lat="53.1793600" lon="-1.8454000"/>
    <wpt lat="53.1805700" lon="-1.8466900"/>
    <wpt lat="53.1817500" lon="-1.8488400"/>
    <wpt lat="53.1823100" lon="-1.8492200"/>
    <wpt lat="53.1833700" lon="-1.8506000"/>
    <wpt lat="53.1840100" lon="-1.8507900"/>
    <wpt lat="53.1842700" lon="-1.8512700"/>
    <wpt lat="53.1850800" lon="-1.8514400"/>
    <wpt lat="53.1894800" lon="-1.8552000"/>
    <wpt lat="53.1904500" lon="-1.8557900"/>
    <wpt lat="53.1916700" lon="-1.8559500"/>
    <wpt lat="53.1940400" lon="-1.8546800"/>
    <trk>
        <name>High Wheeldon, Pilsbury Hill &amp; Carder Low (Ethels) - Circular (www.thelostpeak.co.uk)</name>
        <trkseg>
            <trkpt lat="53.1940400" lon="-1.8546800"><ele>308.2</ele></trkpt>
            <trkpt lat="53.1940300" lon="-1.8546200"><ele>307.2</ele></trkpt>
            <trkpt lat="53.1940300" lon="-1.8543100"><ele>305.1</ele></trkpt>
            <trkpt lat="53.1940500" lon="-1.8538200"><ele>308.9</ele></trkpt>
            <trkpt lat="53.1941300" lon="-1.8534700"><ele>315.2</ele></trkpt>
            <trkpt lat="53.1938000" lon="-1.8536100"><ele>313.7</ele></trkpt>
            <trkpt lat="53.1934500" lon="-1.8534100"><ele>335.8</ele></trkpt>
            <trkpt lat="53.1932400" lon="-1.8533700"><ele>350.5</ele></trkpt>
            <trkpt lat="53.1924500" lon="-1.8519100"><ele>395.5</ele></trkpt>
            <trkpt lat="53.1920300" lon="-1.8512300"><ele>408.6</ele></trkpt>
            <trkpt lat="53.1919500" lon="-1.8512200"><ele>408.6</ele></trkpt>
            <trkpt lat="53.1917000" lon="-1.8510200"><ele>407.7</ele></trkpt>
            <trkpt lat="53.1912200" lon="-1.8508200"><ele>398.6</ele></trkpt>
            <trkpt lat="53.1911400" lon="-1.8508200"><ele>396.6</ele></trkpt>
            <trkpt lat="53.1910300" lon="-1.8507300"><ele>395.0</ele></trkpt>
            <trkpt lat="53.1909200" lon="-1.8506900"><ele>392.9</ele></trkpt>
            <trkpt lat="53.1905500" lon="-1.8504100"><ele>385.7</ele></trkpt>
            <trkpt lat="53.1904100" lon="-1.8502600"><ele>383.2</ele></trkpt>
            <trkpt lat="53.1899900" lon="-1.8499000"><ele>377.2</ele></trkpt>
            <trkpt lat="53.1895300" lon="-1.8493300"><ele>379.5</ele></trkpt>
            <trkpt lat="53.1889800" lon="-1.8486000"><ele>377.6</ele></trkpt>
            <trkpt lat="53.1889000" lon="-1.8484200"><ele>377.7</ele></trkpt>
            <trkpt lat="53.1885100" lon="-1.8478500"><ele>373.3</ele></trkpt>
            <trkpt lat="53.1883900" lon="-1.8478200"><ele>370.3</ele></trkpt>
            <trkpt lat="53.1883000" lon="-1.8478200"><ele>368.1</ele></trkpt>
            <trkpt lat="53.1880500" lon="-1.8478900"><ele>360.1</ele></trkpt>
            <trkpt lat="53.1878700" lon="-1.8478100"><ele>355.1</ele></trkpt>
            <trkpt lat="53.1877700" lon="-1.8477900"><ele>352.4</ele></trkpt>
            <trkpt lat="53.1876400" lon="-1.8477200"><ele>350.9</ele></trkpt>
            <trkpt lat="53.1874800" lon="-1.8477300"><ele>347.5</ele></trkpt>
            <trkpt lat="53.1871600" lon="-1.8476300"><ele>348.5</ele></trkpt>
            <trkpt lat="53.1870400" lon="-1.8475700"><ele>349.1</ele></trkpt>
            <trkpt lat="53.1866700" lon="-1.8475500"><ele>347.0</ele></trkpt>
            <trkpt lat="53.1864700" lon="-1.8474900"><ele>345.7</ele></trkpt>
            <trkpt lat="53.1863400" lon="-1.8475200"><ele>342.6</ele></trkpt>
            <trkpt lat="53.1860100" lon="-1.8474600"><ele>339.3</ele></trkpt>
            <trkpt lat="53.1858300" lon="-1.8474000"><ele>338.3</ele></trkpt>
            <trkpt lat="53.1855500" lon="-1.8472400"><ele>340.7</ele></trkpt>
            <trkpt lat="53.1854300" lon="-1.8471900"><ele>339.4</ele></trkpt>
            <trkpt lat="53.1850500" lon="-1.8470700"><ele>331.7</ele></trkpt>
            <trkpt lat="53.1850200" lon="-1.8470100"><ele>331.9</ele></trkpt>
            <trkpt lat="53.1846900" lon="-1.8468600"><ele>329.0</ele></trkpt>
            <trkpt lat="53.1841000" lon="-1.8468600"><ele>321.4</ele></trkpt>
            <trkpt lat="53.1836400" lon="-1.8468000"><ele>318.2</ele></trkpt>
            <trkpt lat="53.1834900" lon="-1.8468000"><ele>317.2</ele></trkpt>
            <trkpt lat="53.1832700" lon="-1.8467600"><ele>316.3</ele></trkpt>
            <trkpt lat="53.1832500" lon="-1.8466700"><ele>317.0</ele></trkpt>
            <trkpt lat="53.1830600" lon="-1.8463200"><ele>318.1</ele></trkpt>
            <trkpt lat="53.1829800" lon="-1.8463300"><ele>316.5</ele></trkpt>
            <trkpt lat="53.1829200" lon="-1.8462100"><ele>317.2</ele></trkpt>
            <trkpt lat="53.1824300" lon="-1.8447300"><ele>323.2</ele></trkpt>
            <trkpt lat="53.1822700" lon="-1.8443700"><ele>323.8</ele></trkpt>
            <trkpt lat="53.1820500" lon="-1.8439400"><ele>321.8</ele></trkpt>
            <trkpt lat="53.1818800" lon="-1.8435000"><ele>321.5</ele></trkpt>
            <trkpt lat="53.1817600" lon="-1.8429000"><ele>327.8</ele></trkpt>
            <trkpt lat="53.1817100" lon="-1.8425300"><ele>331.8</ele></trkpt>
            <trkpt lat="53.1817200" lon="-1.8419600"><ele>335.4</ele></trkpt>
            <trkpt lat="53.1817700" lon="-1.8415200"><ele>337.1</ele></trkpt>
            <trkpt lat="53.1819400" lon="-1.8411400"><ele>339.7</ele></trkpt>
            <trkpt lat="53.1820700" lon="-1.8408100"><ele>342.4</ele></trkpt>
            <trkpt lat="53.1821100" lon="-1.8407400"><ele>343.3</ele></trkpt>
            <trkpt lat="53.1821100" lon="-1.8403700"><ele>346.3</ele></trkpt>
            <trkpt lat="53.1820800" lon="-1.8401800"><ele>348.0</ele></trkpt>
            <trkpt lat="53.1820500" lon="-1.8398100"><ele>351.5</ele></trkpt>
            <trkpt lat="53.1812300" lon="-1.8389200"><ele>348.1</ele></trkpt>
            <trkpt lat="53.1807600" lon="-1.8384600"><ele>339.6</ele></trkpt>
            <trkpt lat="53.1800400" lon="-1.8374500"><ele>335.0</ele></trkpt>
            <trkpt lat="53.1793000" lon="-1.8368700"><ele>331.4</ele></trkpt>
            <trkpt lat="53.1791100" lon="-1.8367900"><ele>329.4</ele></trkpt>
            <trkpt lat="53.1786800" lon="-1.8365000"><ele>326.0</ele></trkpt>
            <trkpt lat="53.1785100" lon="-1.8362900"><ele>323.6</ele></trkpt>
            <trkpt lat="53.1783500" lon="-1.8359900"><ele>324.0</ele></trkpt>
            <trkpt lat="53.1779600" lon="-1.8351800"><ele>329.3</ele></trkpt>
            <trkpt lat="53.1777700" lon="-1.8347500"><ele>332.5</ele></trkpt>
            <trkpt lat="53.1776700" lon="-1.8344200"><ele>338.0</ele></trkpt>
            <trkpt lat="53.1773500" lon="-1.8338400"><ele>345.8</ele></trkpt>
            <trkpt lat="53.1772100" lon="-1.8336000"><ele>347.0</ele></trkpt>
            <trkpt lat="53.1770300" lon="-1.8334000"><ele>346.6</ele></trkpt>
            <trkpt lat="53.1768600" lon="-1.8332700"><ele>345.0</ele></trkpt>
            <trkpt lat="53.1767300" lon="-1.8331100"><ele>343.9</ele></trkpt>
            <trkpt lat="53.1766800" lon="-1.8328400"><ele>345.1</ele></trkpt>
            <trkpt lat="53.1763000" lon="-1.8301100"><ele>349.2</ele></trkpt>
            <trkpt lat="53.1761500" lon="-1.8296700"><ele>348.0</ele></trkpt>
            <trkpt lat="53.1760900" lon="-1.8295300"><ele>347.9</ele></trkpt>
            <trkpt lat="53.1758000" lon="-1.8290700"><ele>347.4</ele></trkpt>
            <trkpt lat="53.1755900" lon="-1.8286600"><ele>348.5</ele></trkpt>
            <trkpt lat="53.1748400" lon="-1.8274400"><ele>362.2</ele></trkpt>
            <trkpt lat="53.1745500" lon="-1.8269000"><ele>369.5</ele></trkpt>
            <trkpt lat="53.1742100" lon="-1.8265200"><ele>373.0</ele></trkpt>
            <trkpt lat="53.1740500" lon="-1.8264200"><ele>372.6</ele></trkpt>
            <trkpt lat="53.1739600" lon="-1.8263400"><ele>372.1</ele></trkpt>
            <trkpt lat="53.1735200" lon="-1.8256600"><ele>373.3</ele></trkpt>
            <trkpt lat="53.1732300" lon="-1.8253300"><ele>371.4</ele></trkpt>
            <trkpt lat="53.1730700" lon="-1.8252100"><ele>369.9</ele></trkpt>
            <trkpt lat="53.1724400" lon="-1.8245800"><ele>368.1</ele></trkpt>
            <trkpt lat="53.1722000" lon="-1.8240800"><ele>367.0</ele></trkpt>
            <trkpt lat="53.1718300" lon="-1.8234100"><ele>364.3</ele></trkpt>
            <trkpt lat="53.1716500" lon="-1.8231600"><ele>362.8</ele></trkpt>
            <trkpt lat="53.1714300" lon="-1.8227300"><ele>361.2</ele></trkpt>
            <trkpt lat="53.1729300" lon="-1.8196000"><ele>391.8</ele></trkpt>
            <trkpt lat="53.1723200" lon="-1.8194600"><ele>390.8</ele></trkpt>
            <trkpt lat="53.1718200" lon="-1.8195300"><ele>386.7</ele></trkpt>
            <trkpt lat="53.1700300" lon="-1.8163100"><ele>357.1</ele></trkpt>
            <trkpt lat="53.1700200" lon="-1.8158100"><ele>357.7</ele></trkpt>
            <trkpt lat="53.1697800" lon="-1.8156400"><ele>354.0</ele></trkpt>
            <trkpt lat="53.1697800" lon="-1.8156000"><ele>354.1</ele></trkpt>
            <trkpt lat="53.1696500" lon="-1.8153900"><ele>352.6</ele></trkpt>
            <trkpt lat="53.1695200" lon="-1.8152900"><ele>350.1</ele></trkpt>
            <trkpt lat="53.1692200" lon="-1.8151700"><ele>344.2</ele></trkpt>
            <trkpt lat="53.1689100" lon="-1.8151100"><ele>336.9</ele></trkpt>
            <trkpt lat="53.1686900" lon="-1.8150100"><ele>331.8</ele></trkpt>
            <trkpt lat="53.1667600" lon="-1.8144200"><ele>329.5</ele></trkpt>
            <trkpt lat="53.1666200" lon="-1.8143300"><ele>332.3</ele></trkpt>
            <trkpt lat="53.1662200" lon="-1.8144000"><ele>335.0</ele></trkpt>
            <trkpt lat="53.1656900" lon="-1.8145400"><ele>332.9</ele></trkpt>
            <trkpt lat="53.1651000" lon="-1.8144800"><ele>328.7</ele></trkpt>
            <trkpt lat="53.1648200" lon="-1.8145100"><ele>327.2</ele></trkpt>
            <trkpt lat="53.1645400" lon="-1.8145800"><ele>324.4</ele></trkpt>
            <trkpt lat="53.1638600" lon="-1.8139900"><ele>320.6</ele></trkpt>
            <trkpt lat="53.1637500" lon="-1.8139800"><ele>320.2</ele></trkpt>
            <trkpt lat="53.1637100" lon="-1.8139500"><ele>320.0</ele></trkpt>
            <trkpt lat="53.1631000" lon="-1.8134000"><ele>316.0</ele></trkpt>
            <trkpt lat="53.1624000" lon="-1.8131600"><ele>311.4</ele></trkpt>
            <trkpt lat="53.1622700" lon="-1.8131400"><ele>310.3</ele></trkpt>
            <trkpt lat="53.1613000" lon="-1.8132800"><ele>304.9</ele></trkpt>
            <trkpt lat="53.1611000" lon="-1.8132700"><ele>306.0</ele></trkpt>
            <trkpt lat="53.1610300" lon="-1.8127200"><ele>312.3</ele></trkpt>
            <trkpt lat="53.1610300" lon="-1.8124300"><ele>315.8</ele></trkpt>
            <trkpt lat="53.1610100" lon="-1.8122400"><ele>317.9</ele></trkpt>
            <trkpt lat="53.1610200" lon="-1.8115600"><ele>326.3</ele></trkpt>
            <trkpt lat="53.1609500" lon="-1.8111200"><ele>332.0</ele></trkpt>
            <trkpt lat="53.1609300" lon="-1.8110600"><ele>333.2</ele></trkpt>
            <trkpt lat="53.1609200" lon="-1.8107700"><ele>337.1</ele></trkpt>
            <trkpt lat="53.1608600" lon="-1.8102200"><ele>344.1</ele></trkpt>
            <trkpt lat="53.1609100" lon="-1.8099700"><ele>347.7</ele></trkpt>
            <trkpt lat="53.1609600" lon="-1.8098000"><ele>349.9</ele></trkpt>
            <trkpt lat="53.1609800" lon="-1.8096500"><ele>352.0</ele></trkpt>
            <trkpt lat="53.1610500" lon="-1.8094300"><ele>354.7</ele></trkpt>
            <trkpt lat="53.1611300" lon="-1.8092900"><ele>356.2</ele></trkpt>
            <trkpt lat="53.1611400" lon="-1.8091900"><ele>357.4</ele></trkpt>
            <trkpt lat="53.1611300" lon="-1.8090600"><ele>359.5</ele></trkpt>
            <trkpt lat="53.1610800" lon="-1.8089100"><ele>362.0</ele></trkpt>
            <trkpt lat="53.1610700" lon="-1.8089100"><ele>362.1</ele></trkpt>
            <trkpt lat="53.1607300" lon="-1.8081000"><ele>370.9</ele></trkpt>
            <trkpt lat="53.1606500" lon="-1.8077400"><ele>373.3</ele></trkpt>
            <trkpt lat="53.1606500" lon="-1.8073200"><ele>375.2</ele></trkpt>
            <trkpt lat="53.1607200" lon="-1.8070700"><ele>375.8</ele></trkpt>
            <trkpt lat="53.1607100" lon="-1.8068800"><ele>375.4</ele></trkpt>
            <trkpt lat="53.1607100" lon="-1.8070600"><ele>375.8</ele></trkpt>
            <trkpt lat="53.1606400" lon="-1.8073300"><ele>375.2</ele></trkpt>
            <trkpt lat="53.1606500" lon="-1.8077300"><ele>373.3</ele></trkpt>
            <trkpt lat="53.1607400" lon="-1.8081100"><ele>370.5</ele></trkpt>
            <trkpt lat="53.1608800" lon="-1.8084600"><ele>366.6</ele></trkpt>
            <trkpt lat="53.1609800" lon="-1.8086700"><ele>364.5</ele></trkpt>
            <trkpt lat="53.1611200" lon="-1.8090400"><ele>360.1</ele></trkpt>
            <trkpt lat="53.1611400" lon="-1.8092000"><ele>357.4</ele></trkpt>
            <trkpt lat="53.1611300" lon="-1.8092900"><ele>356.2</ele></trkpt>
            <trkpt lat="53.1610500" lon="-1.8094300"><ele>354.7</ele></trkpt>
            <trkpt lat="53.1610100" lon="-1.8095300"><ele>353.0</ele></trkpt>
            <trkpt lat="53.1609800" lon="-1.8096500"><ele>352.0</ele></trkpt>
            <trkpt lat="53.1609600" lon="-1.8098000"><ele>349.9</ele></trkpt>
            <trkpt lat="53.1609300" lon="-1.8098900"><ele>348.8</ele></trkpt>
            <trkpt lat="53.1609200" lon="-1.8099800"><ele>347.7</ele></trkpt>
            <trkpt lat="53.1608600" lon="-1.8102200"><ele>344.1</ele></trkpt>
            <trkpt lat="53.1609100" lon="-1.8106500"><ele>338.4</ele></trkpt>
            <trkpt lat="53.1609300" lon="-1.8110400"><ele>333.2</ele></trkpt>
            <trkpt lat="53.1609800" lon="-1.8112400"><ele>330.6</ele></trkpt>
            <trkpt lat="53.1610200" lon="-1.8115700"><ele>326.3</ele></trkpt>
            <trkpt lat="53.1610100" lon="-1.8122300"><ele>317.9</ele></trkpt>
            <trkpt lat="53.1610300" lon="-1.8124300"><ele>315.8</ele></trkpt>
            <trkpt lat="53.1610300" lon="-1.8127200"><ele>312.3</ele></trkpt>
            <trkpt lat="53.1611000" lon="-1.8132700"><ele>306.0</ele></trkpt>
            <trkpt lat="53.1613000" lon="-1.8132800"><ele>304.9</ele></trkpt>
            <trkpt lat="53.1622700" lon="-1.8131400"><ele>310.3</ele></trkpt>
            <trkpt lat="53.1624000" lon="-1.8131600"><ele>311.4</ele></trkpt>
            <trkpt lat="53.1631000" lon="-1.8134000"><ele>316.0</ele></trkpt>
            <trkpt lat="53.1637100" lon="-1.8139500"><ele>320.0</ele></trkpt>
            <trkpt lat="53.1637500" lon="-1.8139800"><ele>320.2</ele></trkpt>
            <trkpt lat="53.1638600" lon="-1.8139900"><ele>320.6</ele></trkpt>
            <trkpt lat="53.1645400" lon="-1.8145800"><ele>324.4</ele></trkpt>
            <trkpt lat="53.1648200" lon="-1.8145100"><ele>327.2</ele></trkpt>
            <trkpt lat="53.1651000" lon="-1.8144800"><ele>328.7</ele></trkpt>
            <trkpt lat="53.1656900" lon="-1.8145400"><ele>332.9</ele></trkpt>
            <trkpt lat="53.1662500" lon="-1.8144000"><ele>334.9</ele></trkpt>
            <trkpt lat="53.1667500" lon="-1.8157500"><ele>321.9</ele></trkpt>
            <trkpt lat="53.1669500" lon="-1.8166800"><ele>314.3</ele></trkpt>
            <trkpt lat="53.1669800" lon="-1.8173100"><ele>309.8</ele></trkpt>
            <trkpt lat="53.1668500" lon="-1.8176500"><ele>307.9</ele></trkpt>
            <trkpt lat="53.1668400" lon="-1.8178100"><ele>306.6</ele></trkpt>
            <trkpt lat="53.1669900" lon="-1.8180500"><ele>305.7</ele></trkpt>
            <trkpt lat="53.1670900" lon="-1.8182500"><ele>305.4</ele></trkpt>
            <trkpt lat="53.1672400" lon="-1.8191900"><ele>304.2</ele></trkpt>
            <trkpt lat="53.1672300" lon="-1.8195800"><ele>304.2</ele></trkpt>
            <trkpt lat="53.1673000" lon="-1.8198900"><ele>304.2</ele></trkpt>
            <trkpt lat="53.1674300" lon="-1.8202700"><ele>303.9</ele></trkpt>
            <trkpt lat="53.1674700" lon="-1.8205300"><ele>303.3</ele></trkpt>
            <trkpt lat="53.1674700" lon="-1.8207000"><ele>302.4</ele></trkpt>
            <trkpt lat="53.1675000" lon="-1.8208600"><ele>301.7</ele></trkpt>
            <trkpt lat="53.1675200" lon="-1.8208200"><ele>302.1</ele></trkpt>
            <trkpt lat="53.1676200" lon="-1.8207400"><ele>303.3</ele></trkpt>
            <trkpt lat="53.1679200" lon="-1.8205300"><ele>306.7</ele></trkpt>
            <trkpt lat="53.1679100" lon="-1.8206000"><ele>306.4</ele></trkpt>
            <trkpt lat="53.1678800" lon="-1.8224500"><ele>300.3</ele></trkpt>
            <trkpt lat="53.1680500" lon="-1.8230900"><ele>297.9</ele></trkpt>
            <trkpt lat="53.1681300" lon="-1.8232800"><ele>297.2</ele></trkpt>
            <trkpt lat="53.1687800" lon="-1.8244500"><ele>293.0</ele></trkpt>
            <trkpt lat="53.1696600" lon="-1.8261000"><ele>297.4</ele></trkpt>
            <trkpt lat="53.1700200" lon="-1.8269100"><ele>301.7</ele></trkpt>
            <trkpt lat="53.1707300" lon="-1.8283900"><ele>286.0</ele></trkpt>
            <trkpt lat="53.1708700" lon="-1.8285500"><ele>282.0</ele></trkpt>
            <trkpt lat="53.1712200" lon="-1.8287600"><ele>277.7</ele></trkpt>
            <trkpt lat="53.1714700" lon="-1.8289800"><ele>272.7</ele></trkpt>
            <trkpt lat="53.1715900" lon="-1.8291300"><ele>270.6</ele></trkpt>
            <trkpt lat="53.1717200" lon="-1.8293800"><ele>267.4</ele></trkpt>
            <trkpt lat="53.1717200" lon="-1.8294200"><ele>266.9</ele></trkpt>
            <trkpt lat="53.1717700" lon="-1.8295300"><ele>266.0</ele></trkpt>
            <trkpt lat="53.1718600" lon="-1.8296500"><ele>266.0</ele></trkpt>
            <trkpt lat="53.1719500" lon="-1.8297100"><ele>265.7</ele></trkpt>
            <trkpt lat="53.1722100" lon="-1.8298100"><ele>264.8</ele></trkpt>
            <trkpt lat="53.1723800" lon="-1.8299400"><ele>263.6</ele></trkpt>
            <trkpt lat="53.1724900" lon="-1.8300700"><ele>262.2</ele></trkpt>
            <trkpt lat="53.1725200" lon="-1.8301800"><ele>260.3</ele></trkpt>
            <trkpt lat="53.1725500" lon="-1.8303800"><ele>257.7</ele></trkpt>
            <trkpt lat="53.1725900" lon="-1.8305200"><ele>255.2</ele></trkpt>
            <trkpt lat="53.1726700" lon="-1.8309900"><ele>245.9</ele></trkpt>
            <trkpt lat="53.1727000" lon="-1.8311100"><ele>244.5</ele></trkpt>
            <trkpt lat="53.1728300" lon="-1.8313200"><ele>242.3</ele></trkpt>
            <trkpt lat="53.1729600" lon="-1.8315800"><ele>240.7</ele></trkpt>
            <trkpt lat="53.1734100" lon="-1.8323800"><ele>239.9</ele></trkpt>
            <trkpt lat="53.1741700" lon="-1.8336500"><ele>240.8</ele></trkpt>
            <trkpt lat="53.1745200" lon="-1.8342600"><ele>241.4</ele></trkpt>
            <trkpt lat="53.1748300" lon="-1.8346800"><ele>242.8</ele></trkpt>
            <trkpt lat="53.1751800" lon="-1.8352200"><ele>244.9</ele></trkpt>
            <trkpt lat="53.1752800" lon="-1.8354800"><ele>244.8</ele></trkpt>
            <trkpt lat="53.1763200" lon="-1.8375000"><ele>241.8</ele></trkpt>
            <trkpt lat="53.1767500" lon="-1.8383700"><ele>241.9</ele></trkpt>
            <trkpt lat="53.1773200" lon="-1.8393500"><ele>244.1</ele></trkpt>
            <trkpt lat="53.1773300" lon="-1.8394800"><ele>243.4</ele></trkpt>
            <trkpt lat="53.1774000" lon="-1.8397100"><ele>243.0</ele></trkpt>
            <trkpt lat="53.1779400" lon="-1.8417800"><ele>243.0</ele></trkpt>
            <trkpt lat="53.1782500" lon="-1.8429000"><ele>243.9</ele></trkpt>
            <trkpt lat="53.1787500" lon="-1.8442600"><ele>243.5</ele></trkpt>
            <trkpt lat="53.1792200" lon="-1.8452000"><ele>245.1</ele></trkpt>
            <trkpt lat="53.1793600" lon="-1.8454000"><ele>245.7</ele></trkpt>
            <trkpt lat="53.1795800" lon="-1.8456400"><ele>246.8</ele></trkpt>
            <trkpt lat="53.1798100" lon="-1.8458400"><ele>246.7</ele></trkpt>
            <trkpt lat="53.1800000" lon="-1.8459600"><ele>246.4</ele></trkpt>
            <trkpt lat="53.1800900" lon="-1.8460700"><ele>246.7</ele></trkpt>
            <trkpt lat="53.1801700" lon="-1.8462300"><ele>246.8</ele></trkpt>
            <trkpt lat="53.1805700" lon="-1.8466900"><ele>247.7</ele></trkpt>
            <trkpt lat="53.1807500" lon="-1.8469800"><ele>247.4</ele></trkpt>
            <trkpt lat="53.1811700" lon="-1.8477400"><ele>250.4</ele></trkpt>
            <trkpt lat="53.1814200" lon="-1.8481200"><ele>251.6</ele></trkpt>
            <trkpt lat="53.1815300" lon="-1.8483400"><ele>250.8</ele></trkpt>
            <trkpt lat="53.1816300" lon="-1.8486100"><ele>249.6</ele></trkpt>
            <trkpt lat="53.1817500" lon="-1.8488400"><ele>248.5</ele></trkpt>
            <trkpt lat="53.1820400" lon="-1.8491500"><ele>249.1</ele></trkpt>
            <trkpt lat="53.1822200" lon="-1.8492100"><ele>251.3</ele></trkpt>
            <trkpt lat="53.1823100" lon="-1.8492200"><ele>253.2</ele></trkpt>
            <trkpt lat="53.1823600" lon="-1.8493000"><ele>253.4</ele></trkpt>
            <trkpt lat="53.1829100" lon="-1.8499300"><ele>254.8</ele></trkpt>
            <trkpt lat="53.1833400" lon="-1.8503900"><ele>257.6</ele></trkpt>
            <trkpt lat="53.1833700" lon="-1.8506000"><ele>256.2</ele></trkpt>
            <trkpt lat="53.1835000" lon="-1.8506000"><ele>256.6</ele></trkpt>
            <trkpt lat="53.1836900" lon="-1.8506300"><ele>257.6</ele></trkpt>
            <trkpt lat="53.1837800" lon="-1.8506600"><ele>258.1</ele></trkpt>
            <trkpt lat="53.1840100" lon="-1.8507900"><ele>258.8</ele></trkpt>
            <trkpt lat="53.1840300" lon="-1.8509500"><ele>257.9</ele></trkpt>
            <trkpt lat="53.1840800" lon="-1.8510800"><ele>257.2</ele></trkpt>
            <trkpt lat="53.1841300" lon="-1.8511600"><ele>256.8</ele></trkpt>
            <trkpt lat="53.1842700" lon="-1.8512700"><ele>256.6</ele></trkpt>
            <trkpt lat="53.1843800" lon="-1.8512900"><ele>256.8</ele></trkpt>
            <trkpt lat="53.1846700" lon="-1.8512500"><ele>258.1</ele></trkpt>
            <trkpt lat="53.1848900" lon="-1.8513200"><ele>258.5</ele></trkpt>
            <trkpt lat="53.1850800" lon="-1.8514400"><ele>257.8</ele></trkpt>
            <trkpt lat="53.1854800" lon="-1.8517700"><ele>256.1</ele></trkpt>
            <trkpt lat="53.1857500" lon="-1.8520200"><ele>256.2</ele></trkpt>
            <trkpt lat="53.1861400" lon="-1.8523100"><ele>257.4</ele></trkpt>
            <trkpt lat="53.1864000" lon="-1.8524400"><ele>257.1</ele></trkpt>
            <trkpt lat="53.1869300" lon="-1.8528600"><ele>257.7</ele></trkpt>
            <trkpt lat="53.1878000" lon="-1.8537400"><ele>262.8</ele></trkpt>
            <trkpt lat="53.1882000" lon="-1.8540700"><ele>263.2</ele></trkpt>
            <trkpt lat="53.1884200" lon="-1.8542000"><ele>265.3</ele></trkpt>
            <trkpt lat="53.1887000" lon="-1.8544400"><ele>267.2</ele></trkpt>
            <trkpt lat="53.1888200" lon="-1.8546000"><ele>267.8</ele></trkpt>
            <trkpt lat="53.1889600" lon="-1.8547500"><ele>269.4</ele></trkpt>
            <trkpt lat="53.1894800" lon="-1.8552000"><ele>270.8</ele></trkpt>
            <trkpt lat="53.1904500" lon="-1.8557900"><ele>270.8</ele></trkpt>
            <trkpt lat="53.1905700" lon="-1.8558400"><ele>270.9</ele></trkpt>
            <trkpt lat="53.1907600" lon="-1.8558700"><ele>271.8</ele></trkpt>
            <trkpt lat="53.1913900" lon="-1.8559500"><ele>275.7</ele></trkpt>
            <trkpt lat="53.1916700" lon="-1.8559500"><ele>277.8</ele></trkpt>
            <trkpt lat="53.1924300" lon="-1.8556800"><ele>290.5</ele></trkpt>
            <trkpt lat="53.1931000" lon="-1.8553400"><ele>304.7</ele></trkpt>
            <trkpt lat="53.1933200" lon="-1.8551800"><ele>306.9</ele></trkpt>
            <trkpt lat="53.1936000" lon="-1.8548800"><ele>305.2</ele></trkpt>
            <trkpt lat="53.1940400" lon="-1.8546800"><ele>308.2</ele></trkpt>
            <trkpt lat="53.1940400" lon="-1.8546800"><ele>308.2</ele></trkpt>
        </trkseg>
    </trk>
<!-- ele-hash:4c6e524f560d5aeb -->
</gpx>
