<?xml version="1.0" encoding="UTF-8" standalone="yes"?>
<gpx version="1.1" creator="OS Maps - Web" xmlns="http://www.topografix.com/GPX/1/1"
xmlns:xsi="http://www.w3.org/2001/XMLSchema-instance"
xsi:schemaLocation="http://www.topografix.com/GPX/1/1 http://www.topografix.com/GPX/1/1/gpx.xsd"
xmlns:gs="http://www.topografix.com/GPX/gpx_style/0/2"
xmlns:gh="https://graphhopper.com/public/schema/gpx/1.1"
xmlns:os="https://ordnancesurvey.co.uk/public/schema/route/0.1">
    <metadata>
        <name>Lees Moor (Ethel) - Circular (www.thelostpeak.co.uk)</name>
        <desc>www.thelostpeak.co.uk</desc>
        <bounds minlat="53.1922340" minlon="-1.6836030" maxlat="53.2160340" maxlon="-1.6271910"/>
        <extensions>
            <os:version>2.0</os:version>
            <os:point lat="53.2140460" lon="-1.6709740" type="start"/>
            <os:point lat="53.2144580" lon="-1.6712210" type="end"/>
            <os:activity>ON_FOOT_WALKING</os:activity>
            <os:difficulty>MODERATE</os:difficulty>
            <os:paths/>
            <os:distance>13812.3938693</os:distance>
            <os:elevation_ascent>339.5700000</os:elevation_ascent>
        </extensions>
    </metadata>
    <wpt lat="53.2140460" lon="-1.6709740"/>
    <wpt lat="53.2144090" lon="-1.6705930"/>
    <wpt lat="53.2141030" lon="-1.6694290"/>
    <wpt lat="53.2140970" lon="-1.6676990"/>
    <wpt lat="53.2146820" lon="-1.6662290"/>
    <wpt lat="53.2146290" lon="-1.6651050"/>
    <wpt lat="53.2150560" lon="-1.6631440"/>
    <wpt lat="53.2150410" lon="-1.6618950"/>
    <wpt lat="53.2148160" lon="-1.6607590"/>
    <wpt lat="53.2150790" lon="-1.6596080"/>
    <wpt lat="53.2153350" lon="-1.6591890"/>
    <wpt lat="53.2150940" lon="-1.6583750"/>
    <wpt lat="53.2154790" lon="-1.6568610"/>
    <wpt lat="53.2157590" lon="-1.6565480"/>
    <wpt lat="53.2156290" lon="-1.6556660"/>
    <wpt lat="53.2160340" lon="-1.6547820"/>
    <wpt lat="53.2158920" lon="-1.6526170"/>
    <wpt lat="53.2155830" lon="-1.6511350"/>
    <wpt lat="53.2132780" lon="-1.6488660"/>
    <wpt lat="53.2115680" lon="-1.6451870"/>
    <wpt lat="53.2102500" lon="-1.6454120"/>
    <wpt lat="53.2101760" lon="-1.6452360"/>
    <wpt lat="53.2103950" lon="-1.6445310"/>
    <wpt lat="53.2111970" lon="-1.6436670"/>
    <wpt lat="53.2111510" lon="-1.6435110"/>
    <wpt lat="53.2097750" lon="-1.6406210"/>
    <wpt lat="53.2092810" lon="-1.6387010"/>
    <wpt lat="53.2085030" lon="-1.6386510"/>
    <wpt lat="53.2078220" lon="-1.6381560"/>
    <wpt lat="53.2065280" lon="-1.6359370"/>
    <wpt lat="53.2059410" lon="-1.6343090"/>
    <wpt lat="53.2057170" lon="-1.6331100"/>
    <wpt lat="53.2057190" lon="-1.6312260"/>
    <wpt lat="53.2049980" lon="-1.6298480"/>
    <wpt lat="53.2043960" lon="-1.6271910"/>
    <wpt lat="53.2035730" lon="-1.6276810"/>
    <wpt lat="53.2034990" lon="-1.6278970"/>
    <wpt lat="53.2039520" lon="-1.6295620"/>
    <wpt lat="53.2045210" lon="-1.6300640"/>
    <wpt lat="53.2036820" lon="-1.6331050"/>
    <wpt lat="53.2058420" lon="-1.6367760"/>
    <wpt lat="53.2055400" lon="-1.6370800"/>
    <wpt lat="53.2044180" lon="-1.6356260"/>
    <wpt lat="53.2034050" lon="-1.6351090"/>
    <wpt lat="53.2030410" lon="-1.6353530"/>
    <wpt lat="53.2028260" lon="-1.6360230"/>
    <wpt lat="53.2021650" lon="-1.6352650"/>
    <wpt lat="53.2013220" lon="-1.6354490"/>
    <wpt lat="53.2003700" lon="-1.6369700"/>
    <wpt lat="53.1993860" lon="-1.6360830"/>
    <wpt lat="53.1992100" lon="-1.6361970"/>
    <wpt lat="53.1986700" lon="-1.6379100"/>
    <wpt lat="53.1979940" lon="-1.6387370"/>
    <wpt lat="53.1980120" lon="-1.6396910"/>
    <wpt lat="53.1986960" lon="-1.6426310"/>
    <wpt lat="53.1987600" lon="-1.6440590"/>
    <wpt lat="53.1970900" lon="-1.6469820"/>
    <wpt lat="53.1969500" lon="-1.6475160"/>
    <wpt lat="53.1975170" lon="-1.6509350"/>
    <wpt lat="53.1985180" lon="-1.6532470"/>
    <wpt lat="53.1981760" lon="-1.6536150"/>
    <wpt lat="53.1973640" lon="-1.6532550"/>
    <wpt lat="53.1973440" lon="-1.6536950"/>
    <wpt lat="53.1981410" lon="-1.6550530"/>
    <wpt lat="53.1992360" lon="-1.6562650"/>
    <wpt lat="53.1997890" lon="-1.6575810"/>
    <wpt lat="53.1997260" lon="-1.6583620"/>
    <wpt lat="53.1993400" lon="-1.6587370"/>
    <wpt lat="53.1989470" lon="-1.6608980"/>
    <wpt lat="53.1994990" lon="-1.6611500"/>
    <wpt lat="53.2037170" lon="-1.6649570"/>
    <wpt lat="53.2050490" lon="-1.6659280"/>
    <wpt lat="53.2055120" lon="-1.6665500"/>
    <wpt lat="53.2055280" lon="-1.6668270"/>
    <wpt lat="53.2045400" lon="-1.6676800"/>
    <wpt lat="53.2040020" lon="-1.6675140"/>
    <wpt lat="53.2021040" lon="-1.6684670"/>
    <wpt lat="53.2018930" lon="-1.6694990"/>
    <wpt lat="53.2005450" lon="-1.6733850"/>
    <wpt lat="53.2001600" lon="-1.6753480"/>
    <wpt lat="53.1974870" lon="-1.6794420"/>
    <wpt lat="53.1970770" lon="-1.6790140"/>
    <wpt lat="53.1947990" lon="-1.6786350"/>
    <wpt lat="53.1935140" lon="-1.6779830"/>
    <wpt lat="53.1924760" lon="-1.6777350"/>
    <wpt lat="53.1922340" lon="-1.6772700"/>
    <wpt lat="53.1925180" lon="-1.6776890"/>
    <wpt lat="53.1935600" lon="-1.6779420"/>
    <wpt lat="53.1947470" lon="-1.6785600"/>
    <wpt lat="53.1970060" lon="-1.6789660"/>
    <wpt lat="53.1973470" lon="-1.6792730"/>
    <wpt lat="53.1977780" lon="-1.6801560"/>
    <wpt lat="53.1989030" lon="-1.6813940"/>
    <wpt lat="53.2011740" lon="-1.6831610"/>
    <wpt lat="53.2015320" lon="-1.6834000"/>
    <wpt lat="53.2030670" lon="-1.6835470"/>
    <wpt lat="53.2056840" lon="-1.6826210"/>
    <wpt lat="53.2064030" lon="-1.6810020"/>
    <wpt lat="53.2072430" lon="-1.6799320"/>
    <wpt lat="53.2082110" lon="-1.6778700"/>
    <wpt lat="53.2094500" lon="-1.6775100"/>
    <wpt lat="53.2098280" lon="-1.6776930"/>
    <wpt lat="53.2100770" lon="-1.6781280"/>
    <wpt lat="53.2114390" lon="-1.6769290"/>
    <wpt lat="53.2125990" lon="-1.6766730"/>
    <wpt lat="53.2128340" lon="-1.6758820"/>
    <wpt lat="53.2124860" lon="-1.6752720"/>
    <wpt lat="53.2128290" lon="-1.6755980"/>
    <wpt lat="53.2133330" lon="-1.6755020"/>
    <wpt lat="53.2135860" lon="-1.6743680"/>
    <wpt lat="53.2141060" lon="-1.6737000"/>
    <wpt lat="53.2145950" lon="-1.6725090"/>
    <wpt lat="53.2145890" lon="-1.6715610"/>
    <wpt lat="53.2144580" lon="-1.6712210"/>
    <trk>
        <name>Lees Moor (Ethel) - Circular (www.thelostpeak.co.uk)</name>
        <trkseg>
            <trkpt lat="53.2140460" lon="-1.6709740"/>
            <trkpt lat="53.2142400" lon="-1.6709100"/>
            <trkpt lat="53.2144060" lon="-1.6707560"/>
            <trkpt lat="53.2144090" lon="-1.6705930"/>
            <trkpt lat="53.2142880" lon="-1.6703210"/>
            <trkpt lat="53.2142430" lon="-1.6701890"/>
            <trkpt lat="53.2141780" lon="-1.6698840"/>
            <trkpt lat="53.2141030" lon="-1.6694290"/>
            <trkpt lat="53.2141270" lon="-1.6691000"/>
            <trkpt lat="53.2141390" lon="-1.6686220"/>
            <trkpt lat="53.2141190" lon="-1.6684750"/>
            <trkpt lat="53.2140800" lon="-1.6678690"/>
            <trkpt lat="53.2140970" lon="-1.6676990"/>
            <trkpt lat="53.2141910" lon="-1.6674080"/>
            <trkpt lat="53.2143640" lon="-1.6670110"/>
            <trkpt lat="53.2145460" lon="-1.6666500"/>
            <trkpt lat="53.2146820" lon="-1.6662290"/>
            <trkpt lat="53.2146090" lon="-1.6655660"/>
            <trkpt lat="53.2146290" lon="-1.6651050"/>
            <trkpt lat="53.2146770" lon="-1.6647910"/>
            <trkpt lat="53.2147860" lon="-1.6645330"/>
            <trkpt lat="53.2148720" lon="-1.6642480"/>
            <trkpt lat="53.2149330" lon="-1.6637350"/>
            <trkpt lat="53.2150190" lon="-1.6634490"/>
            <trkpt lat="53.2150560" lon="-1.6631440"/>
            <trkpt lat="53.2150750" lon="-1.6628460"/>
            <trkpt lat="53.2150670" lon="-1.6625390"/>
            <trkpt lat="53.2150310" lon="-1.6620580"/>
            <trkpt lat="53.2150410" lon="-1.6618950"/>
            <trkpt lat="53.2149810" lon="-1.6616410"/>
            <trkpt lat="53.2149190" lon="-1.6615140"/>
            <trkpt lat="53.2148530" lon="-1.6612290"/>
            <trkpt lat="53.2148160" lon="-1.6607590"/>
            <trkpt lat="53.2148430" lon="-1.6604520"/>
            <trkpt lat="53.2149000" lon="-1.6603130"/>
            <trkpt lat="53.2149630" lon="-1.6600230"/>
            <trkpt lat="53.2150790" lon="-1.6596080"/>
            <trkpt lat="53.2152120" lon="-1.6594060"/>
            <trkpt lat="53.2152900" lon="-1.6593220"/>
            <trkpt lat="53.2153350" lon="-1.6591890"/>
            <trkpt lat="53.2153240" lon="-1.6590210"/>
            <trkpt lat="53.2152620" lon="-1.6589110"/>
            <trkpt lat="53.2152190" lon="-1.6587710"/>
            <trkpt lat="53.2151480" lon="-1.6586690"/>
            <trkpt lat="53.2151110" lon="-1.6585230"/>
            <trkpt lat="53.2150940" lon="-1.6583750"/>
            <trkpt lat="53.2151160" lon="-1.6582190"/>
            <trkpt lat="53.2151530" lon="-1.6580800"/>
            <trkpt lat="53.2151910" lon="-1.6577570"/>
            <trkpt lat="53.2152270" lon="-1.6576080"/>
            <trkpt lat="53.2152740" lon="-1.6574800"/>
            <trkpt lat="53.2153430" lon="-1.6573750"/>
            <trkpt lat="53.2154300" lon="-1.6573200"/>
            <trkpt lat="53.2155480" lon="-1.6569600"/>
            <trkpt lat="53.2154790" lon="-1.6568610"/>
            <trkpt lat="53.2157590" lon="-1.6565480"/>
            <trkpt lat="53.2157290" lon="-1.6563960"/>
            <trkpt lat="53.2156740" lon="-1.6562730"/>
            <trkpt lat="53.2156390" lon="-1.6561260"/>
            <trkpt lat="53.2156350" lon="-1.6559720"/>
            <trkpt lat="53.2156510" lon="-1.6558240"/>
            <trkpt lat="53.2156290" lon="-1.6556660"/>
            <trkpt lat="53.2158050" lon="-1.6552350"/>
            <trkpt lat="53.2159540" lon="-1.6550510"/>
            <trkpt lat="53.2160060" lon="-1.6549270"/>
            <trkpt lat="53.2160340" lon="-1.6547820"/>
            <trkpt lat="53.2160070" lon="-1.6546390"/>
            <trkpt lat="53.2159730" lon="-1.6543300"/>
            <trkpt lat="53.2159760" lon="-1.6541700"/>
            <trkpt lat="53.2159550" lon="-1.6540150"/>
            <trkpt lat="53.2159280" lon="-1.6535360"/>
            <trkpt lat="53.2159360" lon="-1.6532330"/>
            <trkpt lat="53.2159100" lon="-1.6527650"/>
            <trkpt lat="53.2158920" lon="-1.6526170"/>
            <trkpt lat="53.2158660" lon="-1.6524690"/>
            <trkpt lat="53.2156580" lon="-1.6515940"/>
            <trkpt lat="53.2155830" lon="-1.6511350"/>
            <trkpt lat="53.2155250" lon="-1.6510140"/>
            <trkpt lat="53.2149950" lon="-1.6505960"/>
            <trkpt lat="53.2139730" lon="-1.6496880"/>
            <trkpt lat="53.2136510" lon="-1.6493450"/>
            <trkpt lat="53.2134230" lon="-1.6490690"/>
            <trkpt lat="53.2132780" lon="-1.6488660"/>
            <trkpt lat="53.2130020" lon="-1.6483940"/>
            <trkpt lat="53.2126300" lon="-1.6476230"/>
            <trkpt lat="53.2121560" lon="-1.6466030"/>
            <trkpt lat="53.2120480" lon="-1.6463440"/>
            <trkpt lat="53.2119780" lon="-1.6462390"/>
            <trkpt lat="53.2118690" lon="-1.6459900"/>
            <trkpt lat="53.2115680" lon="-1.6451870"/>
            <trkpt lat="53.2110960" lon="-1.6451810"/>
            <trkpt lat="53.2108010" lon="-1.6452370"/>
            <trkpt lat="53.2104320" lon="-1.6454180"/>
            <trkpt lat="53.2103410" lon="-1.6454290"/>
            <trkpt lat="53.2102500" lon="-1.6454120"/>
            <trkpt lat="53.2101760" lon="-1.6452360"/>
            <trkpt lat="53.2102860" lon="-1.6447930"/>
            <trkpt lat="53.2103950" lon="-1.6445310"/>
            <trkpt lat="53.2105500" lon="-1.6443310"/>
            <trkpt lat="53.2106390" lon="-1.6442480"/>
            <trkpt lat="53.2107110" lon="-1.6441290"/>
            <trkpt lat="53.2108590" lon="-1.6439500"/>
            <trkpt lat="53.2111150" lon="-1.6437540"/>
            <trkpt lat="53.2111970" lon="-1.6436670"/>
            <trkpt lat="53.2111510" lon="-1.6435110"/>
            <trkpt lat="53.2110250" lon="-1.6432640"/>
            <trkpt lat="53.2106880" lon="-1.6424710"/>
            <trkpt lat="53.2105500" lon="-1.6422320"/>
            <trkpt lat="53.2103080" lon="-1.6417490"/>
            <trkpt lat="53.2101430" lon="-1.6413660"/>
            <trkpt lat="53.2100100" lon="-1.6411280"/>
            <trkpt lat="53.2097750" lon="-1.6406210"/>
            <trkpt lat="53.2096550" lon="-1.6401920"/>
            <trkpt lat="53.2095060" lon="-1.6394130"/>
            <trkpt lat="53.2093770" lon="-1.6389770"/>
            <trkpt lat="53.2092810" lon="-1.6387010"/>
            <trkpt lat="53.2091960" lon="-1.6386070"/>
            <trkpt lat="53.2090950" lon="-1.6385940"/>
            <trkpt lat="53.2088090" lon="-1.6385850"/>
            <trkpt lat="53.2087130" lon="-1.6386010"/>
            <trkpt lat="53.2086280" lon="-1.6386740"/>
            <trkpt lat="53.2085030" lon="-1.6386510"/>
            <trkpt lat="53.2084300" lon="-1.6385650"/>
            <trkpt lat="53.2083380" lon="-1.6385150"/>
            <trkpt lat="53.2082630" lon="-1.6384310"/>
            <trkpt lat="53.2081640" lon="-1.6384150"/>
            <trkpt lat="53.2080830" lon="-1.6383420"/>
            <trkpt lat="53.2079860" lon="-1.6382990"/>
            <trkpt lat="53.2078220" lon="-1.6381560"/>
            <trkpt lat="53.2076620" lon="-1.6379450"/>
            <trkpt lat="53.2075710" lon="-1.6378890"/>
            <trkpt lat="53.2075330" lon="-1.6377470"/>
            <trkpt lat="53.2074710" lon="-1.6376300"/>
            <trkpt lat="53.2073180" lon="-1.6374450"/>
            <trkpt lat="53.2071220" lon="-1.6371130"/>
            <trkpt lat="53.2070700" lon="-1.6369800"/>
            <trkpt lat="53.2069250" lon="-1.6367960"/>
            <trkpt lat="53.2068760" lon="-1.6366440"/>
            <trkpt lat="53.2068100" lon="-1.6365290"/>
            <trkpt lat="53.2067160" lon="-1.6362540"/>
            <trkpt lat="53.2065280" lon="-1.6359370"/>
            <trkpt lat="53.2064290" lon="-1.6356670"/>
            <trkpt lat="53.2064000" lon="-1.6355150"/>
            <trkpt lat="53.2062970" lon="-1.6352500"/>
            <trkpt lat="53.2062300" lon="-1.6351280"/>
            <trkpt lat="53.2061470" lon="-1.6348330"/>
            <trkpt lat="53.2060320" lon="-1.6345840"/>
            <trkpt lat="53.2059410" lon="-1.6343090"/>
            <trkpt lat="53.2059030" lon="-1.6341660"/>
            <trkpt lat="53.2058460" lon="-1.6338590"/>
            <trkpt lat="53.2058010" lon="-1.6335640"/>
            <trkpt lat="53.2057960" lon="-1.6333990"/>
            <trkpt lat="53.2057440" lon="-1.6332660"/>
            <trkpt lat="53.2057170" lon="-1.6331100"/>
            <trkpt lat="53.2057420" lon="-1.6329470"/>
            <trkpt lat="53.2057100" lon="-1.6327910"/>
            <trkpt lat="53.2057120" lon="-1.6326220"/>
            <trkpt lat="53.2056730" lon="-1.6323170"/>
            <trkpt lat="53.2056950" lon="-1.6316860"/>
            <trkpt lat="53.2057200" lon="-1.6315350"/>
            <trkpt lat="53.2057190" lon="-1.6312260"/>
            <trkpt lat="53.2055940" lon="-1.6309540"/>
            <trkpt lat="53.2055250" lon="-1.6308500"/>
            <trkpt lat="53.2053480" lon="-1.6305020"/>
            <trkpt lat="53.2052100" lon="-1.6302890"/>
            <trkpt lat="53.2051220" lon="-1.6302230"/>
            <trkpt lat="53.2051310" lon="-1.6300540"/>
            <trkpt lat="53.2050790" lon="-1.6299300"/>
            <trkpt lat="53.2049980" lon="-1.6298480"/>
            <trkpt lat="53.2049930" lon="-1.6296930"/>
            <trkpt lat="53.2049600" lon="-1.6295420"/>
            <trkpt lat="53.2049450" lon="-1.6293930"/>
            <trkpt lat="53.2049020" lon="-1.6292350"/>
            <trkpt lat="53.2048480" lon="-1.6290950"/>
            <trkpt lat="53.2048390" lon="-1.6289250"/>
            <trkpt lat="53.2046570" lon="-1.6281900"/>
            <trkpt lat="53.2046130" lon="-1.6278940"/>
            <trkpt lat="53.2043960" lon="-1.6271910"/>
            <trkpt lat="53.2043060" lon="-1.6272260"/>
            <trkpt lat="53.2041330" lon="-1.6273660"/>
            <trkpt lat="53.2039540" lon="-1.6274780"/>
            <trkpt lat="53.2035730" lon="-1.6276810"/>
            <trkpt lat="53.2034890" lon="-1.6277450"/>
            <trkpt lat="53.2034990" lon="-1.6278970"/>
            <trkpt lat="53.2035490" lon="-1.6280440"/>
            <trkpt lat="53.2036770" lon="-1.6285670"/>
            <trkpt lat="53.2037980" lon="-1.6288260"/>
            <trkpt lat="53.2038460" lon="-1.6289710"/>
            <trkpt lat="53.2038630" lon="-1.6291290"/>
            <trkpt lat="53.2039320" lon="-1.6294150"/>
            <trkpt lat="53.2039520" lon="-1.6295620"/>
            <trkpt lat="53.2041270" lon="-1.6296760"/>
            <trkpt lat="53.2042170" lon="-1.6297570"/>
            <trkpt lat="53.2043150" lon="-1.6297910"/>
            <trkpt lat="53.2044910" lon="-1.6299200"/>
            <trkpt lat="53.2045210" lon="-1.6300640"/>
            <trkpt lat="53.2044980" lon="-1.6302110"/>
            <trkpt lat="53.2044120" lon="-1.6305030"/>
            <trkpt lat="53.2043490" lon="-1.6307890"/>
            <trkpt lat="53.2042640" lon="-1.6310970"/>
            <trkpt lat="53.2042120" lon="-1.6312290"/>
            <trkpt lat="53.2041450" lon="-1.6315320"/>
            <trkpt lat="53.2040850" lon="-1.6316600"/>
            <trkpt lat="53.2040150" lon="-1.6319460"/>
            <trkpt lat="53.2039600" lon="-1.6320810"/>
            <trkpt lat="53.2038750" lon="-1.6323630"/>
            <trkpt lat="53.2037560" lon="-1.6328150"/>
            <trkpt lat="53.2037030" lon="-1.6329520"/>
            <trkpt lat="53.2036820" lon="-1.6331050"/>
            <trkpt lat="53.2037270" lon="-1.6332460"/>
            <trkpt lat="53.2037980" lon="-1.6333700"/>
            <trkpt lat="53.2040120" lon="-1.6336800"/>
            <trkpt lat="53.2040710" lon="-1.6338170"/>
            <trkpt lat="53.2041040" lon="-1.6339600"/>
            <trkpt lat="53.2042410" lon="-1.6340180"/>
            <trkpt lat="53.2043130" lon="-1.6341140"/>
            <trkpt lat="53.2043810" lon="-1.6342380"/>
            <trkpt lat="53.2044840" lon="-1.6344960"/>
            <trkpt lat="53.2048810" lon="-1.6351420"/>
            <trkpt lat="53.2049590" lon="-1.6352340"/>
            <trkpt lat="53.2052210" lon="-1.6357010"/>
            <trkpt lat="53.2052920" lon="-1.6357940"/>
            <trkpt lat="53.2053790" lon="-1.6358600"/>
            <trkpt lat="53.2055140" lon="-1.6360890"/>
            <trkpt lat="53.2055720" lon="-1.6362140"/>
            <trkpt lat="53.2056490" lon="-1.6362960"/>
            <trkpt lat="53.2057730" lon="-1.6364890"/>
            <trkpt lat="53.2058420" lon="-1.6367760"/>
            <trkpt lat="53.2057070" lon="-1.6370090"/>
            <trkpt lat="53.2056290" lon="-1.6371010"/>
            <trkpt lat="53.2055400" lon="-1.6370800"/>
            <trkpt lat="53.2054580" lon="-1.6370120"/>
            <trkpt lat="53.2053890" lon="-1.6369060"/>
            <trkpt lat="53.2052260" lon="-1.6367150"/>
            <trkpt lat="53.2050300" lon="-1.6363940"/>
            <trkpt lat="53.2048680" lon="-1.6362170"/>
            <trkpt lat="53.2044180" lon="-1.6356260"/>
            <trkpt lat="53.2042360" lon="-1.6354870"/>
            <trkpt lat="53.2039580" lon="-1.6353240"/>
            <trkpt lat="53.2038620" lon="-1.6352950"/>
            <trkpt lat="53.2037730" lon="-1.6352350"/>
            <trkpt lat="53.2036770" lon="-1.6352290"/>
            <trkpt lat="53.2034990" lon="-1.6351340"/>
            <trkpt lat="53.2034050" lon="-1.6351090"/>
            <trkpt lat="53.2033080" lon="-1.6351070"/>
            <trkpt lat="53.2031180" lon="-1.6352610"/>
            <trkpt lat="53.2030410" lon="-1.6353530"/>
            <trkpt lat="53.2029870" lon="-1.6354810"/>
            <trkpt lat="53.2029990" lon="-1.6356420"/>
            <trkpt lat="53.2029630" lon="-1.6357980"/>
            <trkpt lat="53.2028260" lon="-1.6360230"/>
            <trkpt lat="53.2027350" lon="-1.6360200"/>
            <trkpt lat="53.2026510" lon="-1.6359590"/>
            <trkpt lat="53.2026120" lon="-1.6358030"/>
            <trkpt lat="53.2025510" lon="-1.6356810"/>
            <trkpt lat="53.2024770" lon="-1.6355890"/>
            <trkpt lat="53.2024170" lon="-1.6354730"/>
            <trkpt lat="53.2023410" lon="-1.6353910"/>
            <trkpt lat="53.2022480" lon="-1.6353420"/>
            <trkpt lat="53.2021650" lon="-1.6352650"/>
            <trkpt lat="53.2020750" lon="-1.6352590"/>
            <trkpt lat="53.2019820" lon="-1.6352980"/>
            <trkpt lat="53.2016900" lon="-1.6353030"/>
            <trkpt lat="53.2013220" lon="-1.6354490"/>
            <trkpt lat="53.2012400" lon="-1.6355300"/>
            <trkpt lat="53.2011730" lon="-1.6356540"/>
            <trkpt lat="53.2010340" lon="-1.6358600"/>
            <trkpt lat="53.2009170" lon="-1.6360950"/>
            <trkpt lat="53.2007290" lon="-1.6363690"/>
            <trkpt lat="53.2004650" lon="-1.6369390"/>
            <trkpt lat="53.2003700" lon="-1.6369700"/>
            <trkpt lat="53.2002800" lon="-1.6369620"/>
            <trkpt lat="53.2001930" lon="-1.6369160"/>
            <trkpt lat="53.2000560" lon="-1.6366880"/>
            <trkpt lat="53.1999800" lon="-1.6366050"/>
            <trkpt lat="53.1997420" lon="-1.6363780"/>
            <trkpt lat="53.1996460" lon="-1.6363190"/>
            <trkpt lat="53.1995690" lon="-1.6362170"/>
            <trkpt lat="53.1994670" lon="-1.6361660"/>
            <trkpt lat="53.1993860" lon="-1.6360830"/>
            <trkpt lat="53.1992890" lon="-1.6361150"/>
            <trkpt lat="53.1992100" lon="-1.6361970"/>
            <trkpt lat="53.1991000" lon="-1.6364790"/>
            <trkpt lat="53.1987740" lon="-1.6376250"/>
            <trkpt lat="53.1986700" lon="-1.6379100"/>
            <trkpt lat="53.1985230" lon="-1.6381110"/>
            <trkpt lat="53.1981670" lon="-1.6383480"/>
            <trkpt lat="53.1980430" lon="-1.6385830"/>
            <trkpt lat="53.1979940" lon="-1.6387370"/>
            <trkpt lat="53.1979950" lon="-1.6392210"/>
            <trkpt lat="53.1980110" lon="-1.6393850"/>
            <trkpt lat="53.1980120" lon="-1.6396910"/>
            <trkpt lat="53.1981450" lon="-1.6402420"/>
            <trkpt lat="53.1982370" lon="-1.6408690"/>
            <trkpt lat="53.1982780" lon="-1.6410230"/>
            <trkpt lat="53.1983210" lon="-1.6413310"/>
            <trkpt lat="53.1983790" lon="-1.6416200"/>
            <trkpt lat="53.1986160" lon="-1.6423310"/>
            <trkpt lat="53.1986960" lon="-1.6426310"/>
            <trkpt lat="53.1987420" lon="-1.6431100"/>
            <trkpt lat="53.1987750" lon="-1.6432570"/>
            <trkpt lat="53.1987730" lon="-1.6439010"/>
            <trkpt lat="53.1987600" lon="-1.6440590"/>
            <trkpt lat="53.1987250" lon="-1.6442090"/>
            <trkpt lat="53.1986700" lon="-1.6443430"/>
            <trkpt lat="53.1984740" lon="-1.6447180"/>
            <trkpt lat="53.1982640" lon="-1.6450430"/>
            <trkpt lat="53.1978540" lon="-1.6457400"/>
            <trkpt lat="53.1976540" lon="-1.6461130"/>
            <trkpt lat="53.1975080" lon="-1.6463250"/>
            <trkpt lat="53.1973690" lon="-1.6465590"/>
            <trkpt lat="53.1972890" lon="-1.6466500"/>
            <trkpt lat="53.1970900" lon="-1.6469820"/>
            <trkpt lat="53.1969440" lon="-1.6473380"/>
            <trkpt lat="53.1969500" lon="-1.6475160"/>
            <trkpt lat="53.1969840" lon="-1.6476650"/>
            <trkpt lat="53.1973630" lon="-1.6501910"/>
            <trkpt lat="53.1975170" lon="-1.6509350"/>
            <trkpt lat="53.1977320" lon="-1.6516620"/>
            <trkpt lat="53.1978480" lon="-1.6519190"/>
            <trkpt lat="53.1979740" lon="-1.6521440"/>
            <trkpt lat="53.1980180" lon="-1.6522750"/>
            <trkpt lat="53.1980960" lon="-1.6524300"/>
            <trkpt lat="53.1983210" lon="-1.6527030"/>
            <trkpt lat="53.1983840" lon="-1.6528240"/>
            <trkpt lat="53.1984810" lon="-1.6531000"/>
            <trkpt lat="53.1985180" lon="-1.6532470"/>
            <trkpt lat="53.1984940" lon="-1.6533930"/>
            <trkpt lat="53.1984290" lon="-1.6535100"/>
            <trkpt lat="53.1982680" lon="-1.6535980"/>
            <trkpt lat="53.1981760" lon="-1.6536150"/>
            <trkpt lat="53.1979910" lon="-1.6536020"/>
            <trkpt lat="53.1978160" lon="-1.6534560"/>
            <trkpt lat="53.1977400" lon="-1.6533460"/>
            <trkpt lat="53.1976490" lon="-1.6532940"/>
            <trkpt lat="53.1975530" lon="-1.6532590"/>
            <trkpt lat="53.1973640" lon="-1.6532550"/>
            <trkpt lat="53.1973080" lon="-1.6533750"/>
            <trkpt lat="53.1973120" lon="-1.6535440"/>
            <trkpt lat="53.1973440" lon="-1.6536950"/>
            <trkpt lat="53.1973910" lon="-1.6538370"/>
            <trkpt lat="53.1975240" lon="-1.6540660"/>
            <trkpt lat="53.1975830" lon="-1.6541940"/>
            <trkpt lat="53.1976700" lon="-1.6542440"/>
            <trkpt lat="53.1978940" lon="-1.6545490"/>
            <trkpt lat="53.1980650" lon="-1.6549270"/>
            <trkpt lat="53.1981410" lon="-1.6550530"/>
            <trkpt lat="53.1982300" lon="-1.6551200"/>
            <trkpt lat="53.1983690" lon="-1.6552600"/>
            <trkpt lat="53.1986090" lon="-1.6555500"/>
            <trkpt lat="53.1986980" lon="-1.6556260"/>
            <trkpt lat="53.1990820" lon="-1.6560610"/>
            <trkpt lat="53.1992360" lon="-1.6562650"/>
            <trkpt lat="53.1993850" lon="-1.6566680"/>
            <trkpt lat="53.1994530" lon="-1.6569610"/>
            <trkpt lat="53.1997010" lon="-1.6572990"/>
            <trkpt lat="53.1997620" lon="-1.6574310"/>
            <trkpt lat="53.1997890" lon="-1.6575810"/>
            <trkpt lat="53.1997810" lon="-1.6580580"/>
            <trkpt lat="53.1997260" lon="-1.6583620"/>
            <trkpt lat="53.1996690" lon="-1.6584890"/>
            <trkpt lat="53.1994840" lon="-1.6585470"/>
            <trkpt lat="53.1993890" lon="-1.6585990"/>
            <trkpt lat="53.1993400" lon="-1.6587370"/>
            <trkpt lat="53.1993100" lon="-1.6588790"/>
            <trkpt lat="53.1993040" lon="-1.6590350"/>
            <trkpt lat="53.1992670" lon="-1.6591810"/>
            <trkpt lat="53.1992240" lon="-1.6596760"/>
            <trkpt lat="53.1991760" lon="-1.6599910"/>
            <trkpt lat="53.1990860" lon="-1.6602670"/>
            <trkpt lat="53.1990170" lon="-1.6605700"/>
            <trkpt lat="53.1989700" lon="-1.6607040"/>
            <trkpt lat="53.1989470" lon="-1.6608980"/>
            <trkpt lat="53.1990340" lon="-1.6608130"/>
            <trkpt lat="53.1993100" lon="-1.6609950"/>
            <trkpt lat="53.1994990" lon="-1.6611500"/>
            <trkpt lat="53.1996690" lon="-1.6613150"/>
            <trkpt lat="53.2000260" lon="-1.6616040"/>
            <trkpt lat="53.2007190" lon="-1.6622410"/>
            <trkpt lat="53.2012270" lon="-1.6626770"/>
            <trkpt lat="53.2019660" lon="-1.6633680"/>
            <trkpt lat="53.2022210" lon="-1.6635790"/>
            <trkpt lat="53.2024650" lon="-1.6638290"/>
            <trkpt lat="53.2029040" lon="-1.6641900"/>
            <trkpt lat="53.2032370" lon="-1.6645280"/>
            <trkpt lat="53.2037170" lon="-1.6649570"/>
            <trkpt lat="53.2038900" lon="-1.6650500"/>
            <trkpt lat="53.2044050" lon="-1.6654590"/>
            <trkpt lat="53.2046860" lon="-1.6656260"/>
            <trkpt lat="53.2050490" lon="-1.6659280"/>
            <trkpt lat="53.2051380" lon="-1.6660190"/>
            <trkpt lat="53.2055120" lon="-1.6665500"/>
            <trkpt lat="53.2055530" lon="-1.6666830"/>
            <trkpt lat="53.2055280" lon="-1.6668270"/>
            <trkpt lat="53.2053640" lon="-1.6668590"/>
            <trkpt lat="53.2051800" lon="-1.6670250"/>
            <trkpt lat="53.2049980" lon="-1.6671440"/>
            <trkpt lat="53.2049170" lon="-1.6672290"/>
            <trkpt lat="53.2047910" lon="-1.6674760"/>
            <trkpt lat="53.2046310" lon="-1.6676330"/>
            <trkpt lat="53.2045400" lon="-1.6676800"/>
            <trkpt lat="53.2044490" lon="-1.6677190"/>
            <trkpt lat="53.2042610" lon="-1.6676470"/>
            <trkpt lat="53.2040930" lon="-1.6675140"/>
            <trkpt lat="53.2040020" lon="-1.6675140"/>
            <trkpt lat="53.2036420" lon="-1.6677140"/>
            <trkpt lat="53.2034490" lon="-1.6677790"/>
            <trkpt lat="53.2025400" lon="-1.6682400"/>
            <trkpt lat="53.2024500" lon="-1.6682640"/>
            <trkpt lat="53.2022720" lon="-1.6683590"/>
            <trkpt lat="53.2021810" lon="-1.6683870"/>
            <trkpt lat="53.2021040" lon="-1.6684670"/>
            <trkpt lat="53.2020820" lon="-1.6686160"/>
            <trkpt lat="53.2020620" lon="-1.6689300"/>
            <trkpt lat="53.2018930" lon="-1.6694990"/>
            <trkpt lat="53.2016530" lon="-1.6701510"/>
            <trkpt lat="53.2012930" lon="-1.6713040"/>
            <trkpt lat="53.2007310" lon="-1.6728160"/>
            <trkpt lat="53.2005450" lon="-1.6733850"/>
            <trkpt lat="53.2004830" lon="-1.6736700"/>
            <trkpt lat="53.2004590" lon="-1.6739810"/>
            <trkpt lat="53.2003840" lon="-1.6746260"/>
            <trkpt lat="53.2002670" lon="-1.6750580"/>
            <trkpt lat="53.2001600" lon="-1.6753480"/>
            <trkpt lat="53.1997330" lon="-1.6760440"/>
            <trkpt lat="53.1995080" lon="-1.6763630"/>
            <trkpt lat="53.1994500" lon="-1.6764770"/>
            <trkpt lat="53.1992270" lon="-1.6767770"/>
            <trkpt lat="53.1990670" lon="-1.6769440"/>
            <trkpt lat="53.1990080" lon="-1.6770600"/>
            <trkpt lat="53.1986520" lon="-1.6775900"/>
            <trkpt lat="53.1985190" lon="-1.6778110"/>
            <trkpt lat="53.1980240" lon="-1.6785410"/>
            <trkpt lat="53.1976050" lon="-1.6792100"/>
            <trkpt lat="53.1975570" lon="-1.6793410"/>
            <trkpt lat="53.1974870" lon="-1.6794420"/>
            <trkpt lat="53.1974000" lon="-1.6793940"/>
            <trkpt lat="53.1972520" lon="-1.6791620"/>
            <trkpt lat="53.1970770" lon="-1.6790140"/>
            <trkpt lat="53.1967920" lon="-1.6789460"/>
            <trkpt lat="53.1966960" lon="-1.6789490"/>
            <trkpt lat="53.1966020" lon="-1.6789240"/>
            <trkpt lat="53.1962190" lon="-1.6788920"/>
            <trkpt lat="53.1960330" lon="-1.6788530"/>
            <trkpt lat="53.1957480" lon="-1.6787530"/>
            <trkpt lat="53.1955620" lon="-1.6787180"/>
            <trkpt lat="53.1953720" lon="-1.6787310"/>
            <trkpt lat="53.1949920" lon="-1.6786840"/>
            <trkpt lat="53.1947990" lon="-1.6786350"/>
            <trkpt lat="53.1945190" lon="-1.6785340"/>
            <trkpt lat="53.1940570" lon="-1.6782770"/>
            <trkpt lat="53.1939700" lon="-1.6782040"/>
            <trkpt lat="53.1935140" lon="-1.6779830"/>
            <trkpt lat="53.1932290" lon="-1.6778810"/>
            <trkpt lat="53.1927530" lon="-1.6778160"/>
            <trkpt lat="53.1924760" lon="-1.6777350"/>
            <trkpt lat="53.1923980" lon="-1.6776510"/>
            <trkpt lat="53.1923700" lon="-1.6775080"/>
            <trkpt lat="53.1922340" lon="-1.6772700"/>
            <trkpt lat="53.1923760" lon="-1.6774940"/>
            <trkpt lat="53.1924300" lon="-1.6776190"/>
            <trkpt lat="53.1925180" lon="-1.6776890"/>
            <trkpt lat="53.1932730" lon="-1.6778450"/>
            <trkpt lat="53.1935600" lon="-1.6779420"/>
            <trkpt lat="53.1937490" lon="-1.6780340"/>
            <trkpt lat="53.1941090" lon="-1.6782520"/>
            <trkpt lat="53.1947470" lon="-1.6785600"/>
            <trkpt lat="53.1949400" lon="-1.6786270"/>
            <trkpt lat="53.1957410" lon="-1.6786920"/>
            <trkpt lat="53.1958400" lon="-1.6787390"/>
            <trkpt lat="53.1962170" lon="-1.6788160"/>
            <trkpt lat="53.1968200" lon="-1.6788890"/>
            <trkpt lat="53.1970060" lon="-1.6789660"/>
            <trkpt lat="53.1970960" lon="-1.6790210"/>
            <trkpt lat="53.1972620" lon="-1.6791730"/>
            <trkpt lat="53.1973470" lon="-1.6792730"/>
            <trkpt lat="53.1974750" lon="-1.6795130"/>
            <trkpt lat="53.1976320" lon="-1.6799270"/>
            <trkpt lat="53.1976990" lon="-1.6800530"/>
            <trkpt lat="53.1977780" lon="-1.6801560"/>
            <trkpt lat="53.1984030" lon="-1.6808700"/>
            <trkpt lat="53.1989030" lon="-1.6813940"/>
            <trkpt lat="53.1993370" lon="-1.6817570"/>
            <trkpt lat="53.2000590" lon="-1.6822190"/>
            <trkpt lat="53.2002320" lon="-1.6823480"/>
            <trkpt lat="53.2005730" lon="-1.6826230"/>
            <trkpt lat="53.2011740" lon="-1.6831610"/>
            <trkpt lat="53.2015320" lon="-1.6834000"/>
            <trkpt lat="53.2018090" lon="-1.6834420"/>
            <trkpt lat="53.2020060" lon="-1.6834400"/>
            <trkpt lat="53.2021990" lon="-1.6834630"/>
            <trkpt lat="53.2023860" lon="-1.6835260"/>
            <trkpt lat="53.2024800" lon="-1.6835260"/>
            <trkpt lat="53.2025750" lon="-1.6835650"/>
            <trkpt lat="53.2027810" lon="-1.6836030"/>
            <trkpt lat="53.2030670" lon="-1.6835470"/>
            <trkpt lat="53.2033410" lon="-1.6834610"/>
            <trkpt lat="53.2038070" lon="-1.6831830"/>
            <trkpt lat="53.2039090" lon="-1.6831480"/>
            <trkpt lat="53.2042060" lon="-1.6831390"/>
            <trkpt lat="53.2046710" lon="-1.6829800"/>
            <trkpt lat="53.2048510" lon="-1.6828850"/>
            <trkpt lat="53.2051450" lon="-1.6828620"/>
            <trkpt lat="53.2053290" lon="-1.6828230"/>
            <trkpt lat="53.2056000" lon="-1.6826910"/>
            <trkpt lat="53.2056840" lon="-1.6826210"/>
            <trkpt lat="53.2058980" lon="-1.6823270"/>
            <trkpt lat="53.2059500" lon="-1.6821970"/>
            <trkpt lat="53.2060740" lon="-1.6819580"/>
            <trkpt lat="53.2061640" lon="-1.6816870"/>
            <trkpt lat="53.2063200" lon="-1.6812850"/>
            <trkpt lat="53.2064030" lon="-1.6810020"/>
            <trkpt lat="53.2066640" lon="-1.6805260"/>
            <trkpt lat="53.2068160" lon="-1.6803200"/>
            <trkpt lat="53.2068920" lon="-1.6802360"/>
            <trkpt lat="53.2069930" lon="-1.6801750"/>
            <trkpt lat="53.2072430" lon="-1.6799320"/>
            <trkpt lat="53.2074310" lon="-1.6795460"/>
            <trkpt lat="53.2075370" lon="-1.6792470"/>
            <trkpt lat="53.2076020" lon="-1.6791130"/>
            <trkpt lat="53.2077510" lon="-1.6787140"/>
            <trkpt lat="53.2078180" lon="-1.6785820"/>
            <trkpt lat="53.2078640" lon="-1.6784350"/>
            <trkpt lat="53.2081300" lon="-1.6779600"/>
            <trkpt lat="53.2082110" lon="-1.6778700"/>
            <trkpt lat="53.2083970" lon="-1.6777870"/>
            <trkpt lat="53.2086930" lon="-1.6778020"/>
            <trkpt lat="53.2090810" lon="-1.6775870"/>
            <trkpt lat="53.2091770" lon="-1.6775510"/>
            <trkpt lat="53.2094500" lon="-1.6775100"/>
            <trkpt lat="53.2096500" lon="-1.6775480"/>
            <trkpt lat="53.2097420" lon="-1.6776090"/>
            <trkpt lat="53.2098280" lon="-1.6776930"/>
            <trkpt lat="53.2098890" lon="-1.6778070"/>
            <trkpt lat="53.2099270" lon="-1.6779560"/>
            <trkpt lat="53.2099880" lon="-1.6780760"/>
            <trkpt lat="53.2100770" lon="-1.6781280"/>
            <trkpt lat="53.2102640" lon="-1.6780380"/>
            <trkpt lat="53.2107490" lon="-1.6774610"/>
            <trkpt lat="53.2110240" lon="-1.6773160"/>
            <trkpt lat="53.2111790" lon="-1.6771280"/>
            <trkpt lat="53.2112580" lon="-1.6770540"/>
            <trkpt lat="53.2114390" lon="-1.6769290"/>
            <trkpt lat="53.2118240" lon="-1.6768640"/>
            <trkpt lat="53.2119210" lon="-1.6768920"/>
            <trkpt lat="53.2121120" lon="-1.6768800"/>
            <trkpt lat="53.2122090" lon="-1.6768940"/>
            <trkpt lat="53.2122990" lon="-1.6768650"/>
            <trkpt lat="53.2123920" lon="-1.6768660"/>
            <trkpt lat="53.2124590" lon="-1.6767440"/>
            <trkpt lat="53.2125120" lon="-1.6766060"/>
            <trkpt lat="53.2125990" lon="-1.6766730"/>
            <trkpt lat="53.2126730" lon="-1.6763840"/>
            <trkpt lat="53.2126620" lon="-1.6762240"/>
            <trkpt lat="53.2127630" lon="-1.6759940"/>
            <trkpt lat="53.2128340" lon="-1.6758820"/>
            <trkpt lat="53.2127850" lon="-1.6757560"/>
            <trkpt lat="53.2126690" lon="-1.6755730"/>
            <trkpt lat="53.2125880" lon="-1.6755040"/>
            <trkpt lat="53.2124860" lon="-1.6752720"/>
            <trkpt lat="53.2127610" lon="-1.6754890"/>
            <trkpt lat="53.2128290" lon="-1.6755980"/>
            <trkpt lat="53.2129200" lon="-1.6756110"/>
            <trkpt lat="53.2130100" lon="-1.6755340"/>
            <trkpt lat="53.2130710" lon="-1.6754080"/>
            <trkpt lat="53.2131660" lon="-1.6753870"/>
            <trkpt lat="53.2132490" lon="-1.6754500"/>
            <trkpt lat="53.2132630" lon="-1.6756000"/>
            <trkpt lat="53.2133330" lon="-1.6755020"/>
            <trkpt lat="53.2132550" lon="-1.6754290"/>
            <trkpt lat="53.2133470" lon="-1.6751610"/>
            <trkpt lat="53.2135090" lon="-1.6749540"/>
            <trkpt lat="53.2135290" lon="-1.6747970"/>
            <trkpt lat="53.2135110" lon="-1.6745800"/>
            <trkpt lat="53.2135860" lon="-1.6743680"/>
            <trkpt lat="53.2137570" lon="-1.6742150"/>
            <trkpt lat="53.2138300" lon="-1.6741250"/>
            <trkpt lat="53.2138960" lon="-1.6740060"/>
            <trkpt lat="53.2139630" lon="-1.6739030"/>
            <trkpt lat="53.2140400" lon="-1.6738180"/>
            <trkpt lat="53.2141060" lon="-1.6737000"/>
            <trkpt lat="53.2142210" lon="-1.6734570"/>
            <trkpt lat="53.2143100" lon="-1.6731660"/>
            <trkpt lat="53.2143720" lon="-1.6730320"/>
            <trkpt lat="53.2144710" lon="-1.6727570"/>
            <trkpt lat="53.2145400" lon="-1.6726400"/>
            <trkpt lat="53.2145950" lon="-1.6725090"/>
            <trkpt lat="53.2146340" lon="-1.6723570"/>
            <trkpt lat="53.2146530" lon="-1.6721910"/>
            <trkpt lat="53.2145860" lon="-1.6717150"/>
            <trkpt lat="53.2145890" lon="-1.6715610"/>
            <trkpt lat="53.2145460" lon="-1.6714130"/>
            <trkpt lat="53.2144580" lon="-1.6712210"/>
        </trkseg>
    </trk>
</gpx>
