<?xml version="1.0" encoding="UTF-8" standalone="yes"?>
<gpx version="1.1" creator="OS Maps - Web" xmlns="http://www.topografix.com/GPX/1/1"
xmlns:xsi="http://www.w3.org/2001/XMLSchema-instance"
xsi:schemaLocation="http://www.topografix.com/GPX/1/1 http://www.topografix.com/GPX/1/1/gpx.xsd"
xmlns:gs="http://www.topografix.com/GPX/gpx_style/0/2"
xmlns:gh="https://graphhopper.com/public/schema/gpx/1.1"
xmlns:os="https://ordnancesurvey.co.uk/public/schema/route/0.1">
    <metadata>
        <name>Mam Tor, Lord's Seat, Gautries Hill, Eldon Hole &amp; Slitherstone Hill (Ethels) - Circular</name>
        <desc>www.thelostpeak.co.uk</desc>
        <bounds minlat="53.3160700" minlon="-1.8650700" maxlat="53.3492400" maxlon="-1.8095800"/>
        <extensions>
            <os:version>2.0</os:version>
            <os:point lat="53.3458700" lon="-1.8152100" type="start"/>
            <os:point lat="53.3458700" lon="-1.8152100" type="end"/>
            <os:activity>ON_FOOT_WALKING</os:activity>
            <os:difficulty>MODERATE</os:difficulty>
            <os:paths/>
            <os:distance>15551.3242242</os:distance>
            <os:elevation_ascent>524.5100000</os:elevation_ascent>
        </extensions>
    </metadata>
    <wpt lat="53.3458700" lon="-1.8152100"/>
    <wpt lat="53.3458900" lon="-1.8155800"/>
    <wpt lat="53.3466700" lon="-1.8152200"/>
    <wpt lat="53.3472100" lon="-1.8136800"/>
    <wpt lat="53.3477100" lon="-1.8135300"/>
    <wpt lat="53.3477700" lon="-1.8130600"/>
    <wpt lat="53.3486500" lon="-1.8114300"/>
    <wpt lat="53.3492400" lon="-1.8095800"/>
    <wpt lat="53.3486500" lon="-1.8114300"/>
    <wpt lat="53.3470800" lon="-1.8140300"/>
    <wpt lat="53.3473000" lon="-1.8148400"/>
    <wpt lat="53.3478700" lon="-1.8198600"/>
    <wpt lat="53.3476100" lon="-1.8263300"/>
    <wpt lat="53.3478200" lon="-1.8319000"/>
    <wpt lat="53.3475200" lon="-1.8346800"/>
    <wpt lat="53.3464900" lon="-1.8389600"/>
    <wpt lat="53.3439200" lon="-1.8472600"/>
    <wpt lat="53.3432400" lon="-1.8490100"/>
    <wpt lat="53.3431400" lon="-1.8522200"/>
    <wpt lat="53.3420100" lon="-1.8554400"/>
    <wpt lat="53.3413600" lon="-1.8580000"/>
    <wpt lat="53.3403900" lon="-1.8604200"/>
    <wpt lat="53.3396400" lon="-1.8618300"/>
    <wpt lat="53.3392200" lon="-1.8635900"/>
    <wpt lat="53.3376700" lon="-1.8624100"/>
    <wpt lat="53.3344200" lon="-1.8557900"/>
    <wpt lat="53.3330500" lon="-1.8540300"/>
    <wpt lat="53.3313200" lon="-1.8536700"/>
    <wpt lat="53.3293300" lon="-1.8522900"/>
    <wpt lat="53.3281500" lon="-1.8521800"/>
    <wpt lat="53.3280100" lon="-1.8522800"/>
    <wpt lat="53.3280400" lon="-1.8536600"/>
    <wpt lat="53.3277300" lon="-1.8554200"/>
    <wpt lat="53.3264800" lon="-1.8585300"/>
    <wpt lat="53.3263300" lon="-1.8600900"/>
    <wpt lat="53.3257500" lon="-1.8622600"/>
    <wpt lat="53.3252300" lon="-1.8632700"/>
    <wpt lat="53.3236500" lon="-1.8650700"/>
    <wpt lat="53.3235100" lon="-1.8628000"/>
    <wpt lat="53.3239300" lon="-1.8589300"/>
    <wpt lat="53.3242700" lon="-1.8574000"/>
    <wpt lat="53.3240200" lon="-1.8534000"/>
    <wpt lat="53.3240000" lon="-1.8501400"/>
    <wpt lat="53.3237600" lon="-1.8474000"/>
    <wpt lat="53.3237200" lon="-1.8416300"/>
    <wpt lat="53.3216100" lon="-1.8401700"/>
    <wpt lat="53.3205000" lon="-1.8388100"/>
    <wpt lat="53.3188200" lon="-1.8350900"/>
    <wpt lat="53.3164000" lon="-1.8312100"/>
    <wpt lat="53.3163900" lon="-1.8301800"/>
    <wpt lat="53.3160700" lon="-1.8285500"/>
    <wpt lat="53.3203500" lon="-1.8251400"/>
    <wpt lat="53.3205000" lon="-1.8244700"/>
    <wpt lat="53.3229300" lon="-1.8210700"/>
    <wpt lat="53.3271300" lon="-1.8278300"/>
    <wpt lat="53.3229600" lon="-1.8210900"/>
    <wpt lat="53.3235900" lon="-1.8188100"/>
    <wpt lat="53.3244700" lon="-1.8178500"/>
    <wpt lat="53.3256700" lon="-1.8179100"/>
    <wpt lat="53.3288900" lon="-1.8170600"/>
    <wpt lat="53.3291100" lon="-1.8171200"/>
    <wpt lat="53.3291500" lon="-1.8174800"/>
    <wpt lat="53.3292600" lon="-1.8148100"/>
    <wpt lat="53.3295400" lon="-1.8124100"/>
    <wpt lat="53.3317800" lon="-1.8135300"/>
    <wpt lat="53.3327400" lon="-1.8133600"/>
    <wpt lat="53.3337900" lon="-1.8123800"/>
    <wpt lat="53.3355900" lon="-1.8112300"/>
    <wpt lat="53.3372400" lon="-1.8105400"/>
    <wpt lat="53.3407200" lon="-1.8112100"/>
    <wpt lat="53.3408300" lon="-1.8110200"/>
    <wpt lat="53.3436600" lon="-1.8124500"/>
    <wpt lat="53.3445500" lon="-1.8122700"/>
    <wpt lat="53.3452200" lon="-1.8126900"/>
    <wpt lat="53.3454200" lon="-1.8150800"/>
    <wpt lat="53.3455700" lon="-1.8150600"/>
    <wpt lat="53.3456100" lon="-1.8157200"/>
    <wpt lat="53.3458900" lon="-1.8155800"/>
    <wpt lat="53.3458700" lon="-1.8152100"/>
    <trk>
        <name>Mam Tor, Lord's Seat, Gautries Hill, Eldon Hole &amp; Slitherstone Hill (Ethels) - Circular</name>
        <trkseg>
            <trkpt lat="53.3458700" lon="-1.8152100"/>
            <trkpt lat="53.3458900" lon="-1.8155800"/>
            <trkpt lat="53.3462000" lon="-1.8153800"/>
            <trkpt lat="53.3462400" lon="-1.8153000"/>
            <trkpt lat="53.3463500" lon="-1.8153700"/>
            <trkpt lat="53.3465200" lon="-1.8153400"/>
            <trkpt lat="53.3466700" lon="-1.8152200"/>
            <trkpt lat="53.3469900" lon="-1.8141300"/>
            <trkpt lat="53.3470400" lon="-1.8139900"/>
            <trkpt lat="53.3472100" lon="-1.8136800"/>
            <trkpt lat="53.3472800" lon="-1.8136200"/>
            <trkpt lat="53.3472900" lon="-1.8135800"/>
            <trkpt lat="53.3474900" lon="-1.8135800"/>
            <trkpt lat="53.3475100" lon="-1.8135500"/>
            <trkpt lat="53.3477100" lon="-1.8135300"/>
            <trkpt lat="53.3477200" lon="-1.8135100"/>
            <trkpt lat="53.3477300" lon="-1.8132000"/>
            <trkpt lat="53.3477700" lon="-1.8130600"/>
            <trkpt lat="53.3478100" lon="-1.8129900"/>
            <trkpt lat="53.3480700" lon="-1.8127100"/>
            <trkpt lat="53.3484200" lon="-1.8118100"/>
            <trkpt lat="53.3485000" lon="-1.8116600"/>
            <trkpt lat="53.3486000" lon="-1.8115400"/>
            <trkpt lat="53.3486500" lon="-1.8114300"/>
            <trkpt lat="53.3486600" lon="-1.8112800"/>
            <trkpt lat="53.3487300" lon="-1.8110700"/>
            <trkpt lat="53.3487400" lon="-1.8108900"/>
            <trkpt lat="53.3487600" lon="-1.8107900"/>
            <trkpt lat="53.3488600" lon="-1.8105200"/>
            <trkpt lat="53.3489500" lon="-1.8103800"/>
            <trkpt lat="53.3491300" lon="-1.8099000"/>
            <trkpt lat="53.3491800" lon="-1.8098100"/>
            <trkpt lat="53.3491700" lon="-1.8097500"/>
            <trkpt lat="53.3491800" lon="-1.8096900"/>
            <trkpt lat="53.3492000" lon="-1.8096300"/>
            <trkpt lat="53.3492400" lon="-1.8095800"/>
            <trkpt lat="53.3492000" lon="-1.8096300"/>
            <trkpt lat="53.3491800" lon="-1.8096900"/>
            <trkpt lat="53.3491700" lon="-1.8097500"/>
            <trkpt lat="53.3491800" lon="-1.8098100"/>
            <trkpt lat="53.3491300" lon="-1.8099000"/>
            <trkpt lat="53.3489500" lon="-1.8103800"/>
            <trkpt lat="53.3488600" lon="-1.8105200"/>
            <trkpt lat="53.3487600" lon="-1.8107900"/>
            <trkpt lat="53.3487400" lon="-1.8108900"/>
            <trkpt lat="53.3487300" lon="-1.8110700"/>
            <trkpt lat="53.3486600" lon="-1.8112800"/>
            <trkpt lat="53.3486500" lon="-1.8114300"/>
            <trkpt lat="53.3486000" lon="-1.8115400"/>
            <trkpt lat="53.3485000" lon="-1.8116600"/>
            <trkpt lat="53.3484200" lon="-1.8118100"/>
            <trkpt lat="53.3480700" lon="-1.8127100"/>
            <trkpt lat="53.3478100" lon="-1.8129900"/>
            <trkpt lat="53.3477700" lon="-1.8130600"/>
            <trkpt lat="53.3477300" lon="-1.8132000"/>
            <trkpt lat="53.3477200" lon="-1.8135100"/>
            <trkpt lat="53.3477100" lon="-1.8135300"/>
            <trkpt lat="53.3476300" lon="-1.8135500"/>
            <trkpt lat="53.3475100" lon="-1.8135500"/>
            <trkpt lat="53.3474900" lon="-1.8135800"/>
            <trkpt lat="53.3472900" lon="-1.8135800"/>
            <trkpt lat="53.3472800" lon="-1.8136200"/>
            <trkpt lat="53.3472500" lon="-1.8136400"/>
            <trkpt lat="53.3472800" lon="-1.8136900"/>
            <trkpt lat="53.3471600" lon="-1.8138300"/>
            <trkpt lat="53.3470800" lon="-1.8140300"/>
            <trkpt lat="53.3471600" lon="-1.8145000"/>
            <trkpt lat="53.3472200" lon="-1.8146700"/>
            <trkpt lat="53.3473000" lon="-1.8148400"/>
            <trkpt lat="53.3473100" lon="-1.8151700"/>
            <trkpt lat="53.3473900" lon="-1.8156300"/>
            <trkpt lat="53.3474700" lon="-1.8163800"/>
            <trkpt lat="53.3474900" lon="-1.8169500"/>
            <trkpt lat="53.3475400" lon="-1.8177200"/>
            <trkpt lat="53.3475900" lon="-1.8181500"/>
            <trkpt lat="53.3477400" lon="-1.8188300"/>
            <trkpt lat="53.3478200" lon="-1.8190800"/>
            <trkpt lat="53.3478700" lon="-1.8198600"/>
            <trkpt lat="53.3478500" lon="-1.8203300"/>
            <trkpt lat="53.3478100" lon="-1.8206000"/>
            <trkpt lat="53.3478000" lon="-1.8211400"/>
            <trkpt lat="53.3477100" lon="-1.8220800"/>
            <trkpt lat="53.3476600" lon="-1.8234800"/>
            <trkpt lat="53.3476800" lon="-1.8241300"/>
            <trkpt lat="53.3476700" lon="-1.8248200"/>
            <trkpt lat="53.3476600" lon="-1.8251900"/>
            <trkpt lat="53.3476200" lon="-1.8258000"/>
            <trkpt lat="53.3476100" lon="-1.8263300"/>
            <trkpt lat="53.3478200" lon="-1.8319000"/>
            <trkpt lat="53.3475200" lon="-1.8346800"/>
            <trkpt lat="53.3473400" lon="-1.8353900"/>
            <trkpt lat="53.3472400" lon="-1.8359200"/>
            <trkpt lat="53.3471300" lon="-1.8364200"/>
            <trkpt lat="53.3470000" lon="-1.8368800"/>
            <trkpt lat="53.3469100" lon="-1.8373600"/>
            <trkpt lat="53.3467500" lon="-1.8380000"/>
            <trkpt lat="53.3464900" lon="-1.8389600"/>
            <trkpt lat="53.3455200" lon="-1.8420300"/>
            <trkpt lat="53.3453200" lon="-1.8427800"/>
            <trkpt lat="53.3451800" lon="-1.8432400"/>
            <trkpt lat="53.3451300" lon="-1.8433400"/>
            <trkpt lat="53.3450300" lon="-1.8436900"/>
            <trkpt lat="53.3446900" lon="-1.8447600"/>
            <trkpt lat="53.3444000" lon="-1.8455000"/>
            <trkpt lat="53.3442400" lon="-1.8460100"/>
            <trkpt lat="53.3440700" lon="-1.8467500"/>
            <trkpt lat="53.3439200" lon="-1.8472600"/>
            <trkpt lat="53.3438000" lon="-1.8475800"/>
            <trkpt lat="53.3436300" lon="-1.8478900"/>
            <trkpt lat="53.3433400" lon="-1.8486300"/>
            <trkpt lat="53.3432400" lon="-1.8490100"/>
            <trkpt lat="53.3432200" lon="-1.8494800"/>
            <trkpt lat="53.3432200" lon="-1.8498000"/>
            <trkpt lat="53.3432000" lon="-1.8500800"/>
            <trkpt lat="53.3431600" lon="-1.8502900"/>
            <trkpt lat="53.3431200" lon="-1.8511300"/>
            <trkpt lat="53.3431600" lon="-1.8519100"/>
            <trkpt lat="53.3431400" lon="-1.8520600"/>
            <trkpt lat="53.3431400" lon="-1.8522200"/>
            <trkpt lat="53.3430500" lon="-1.8523800"/>
            <trkpt lat="53.3430300" lon="-1.8525400"/>
            <trkpt lat="53.3426200" lon="-1.8538800"/>
            <trkpt lat="53.3424700" lon="-1.8542200"/>
            <trkpt lat="53.3422200" lon="-1.8550800"/>
            <trkpt lat="53.3420100" lon="-1.8554400"/>
            <trkpt lat="53.3417000" lon="-1.8566000"/>
            <trkpt lat="53.3416400" lon="-1.8570200"/>
            <trkpt lat="53.3413600" lon="-1.8580000"/>
            <trkpt lat="53.3411600" lon="-1.8583300"/>
            <trkpt lat="53.3410100" lon="-1.8586100"/>
            <trkpt lat="53.3403900" lon="-1.8604200"/>
            <trkpt lat="53.3401900" lon="-1.8608100"/>
            <trkpt lat="53.3399600" lon="-1.8611700"/>
            <trkpt lat="53.3397300" lon="-1.8616100"/>
            <trkpt lat="53.3396400" lon="-1.8618300"/>
            <trkpt lat="53.3394700" lon="-1.8626100"/>
            <trkpt lat="53.3392100" lon="-1.8634400"/>
            <trkpt lat="53.3392300" lon="-1.8635400"/>
            <trkpt lat="53.3392200" lon="-1.8635900"/>
            <trkpt lat="53.3391300" lon="-1.8634100"/>
            <trkpt lat="53.3384900" lon="-1.8629100"/>
            <trkpt lat="53.3376700" lon="-1.8624100"/>
            <trkpt lat="53.3365200" lon="-1.8601500"/>
            <trkpt lat="53.3360400" lon="-1.8591100"/>
            <trkpt lat="53.3348900" lon="-1.8567600"/>
            <trkpt lat="53.3346000" lon="-1.8561200"/>
            <trkpt lat="53.3344200" lon="-1.8557900"/>
            <trkpt lat="53.3338200" lon="-1.8548300"/>
            <trkpt lat="53.3330500" lon="-1.8540300"/>
            <trkpt lat="53.3328200" lon="-1.8538900"/>
            <trkpt lat="53.3325600" lon="-1.8538100"/>
            <trkpt lat="53.3317200" lon="-1.8537600"/>
            <trkpt lat="53.3315300" lon="-1.8537300"/>
            <trkpt lat="53.3313200" lon="-1.8536700"/>
            <trkpt lat="53.3308000" lon="-1.8531500"/>
            <trkpt lat="53.3305500" lon="-1.8530500"/>
            <trkpt lat="53.3304100" lon="-1.8529700"/>
            <trkpt lat="53.3301300" lon="-1.8527700"/>
            <trkpt lat="53.3293300" lon="-1.8522900"/>
            <trkpt lat="53.3282100" lon="-1.8522100"/>
            <trkpt lat="53.3281500" lon="-1.8521800"/>
            <trkpt lat="53.3280100" lon="-1.8522800"/>
            <trkpt lat="53.3280600" lon="-1.8529100"/>
            <trkpt lat="53.3280700" lon="-1.8533000"/>
            <trkpt lat="53.3280400" lon="-1.8536600"/>
            <trkpt lat="53.3279500" lon="-1.8542700"/>
            <trkpt lat="53.3278100" lon="-1.8550700"/>
            <trkpt lat="53.3277300" lon="-1.8554200"/>
            <trkpt lat="53.3275500" lon="-1.8560200"/>
            <trkpt lat="53.3267300" lon="-1.8578600"/>
            <trkpt lat="53.3264800" lon="-1.8585300"/>
            <trkpt lat="53.3264400" lon="-1.8587300"/>
            <trkpt lat="53.3263300" lon="-1.8600900"/>
            <trkpt lat="53.3260300" lon="-1.8614200"/>
            <trkpt lat="53.3257500" lon="-1.8622600"/>
            <trkpt lat="53.3255900" lon="-1.8626600"/>
            <trkpt lat="53.3254000" lon="-1.8630400"/>
            <trkpt lat="53.3252300" lon="-1.8632700"/>
            <trkpt lat="53.3244500" lon="-1.8641900"/>
            <trkpt lat="53.3236500" lon="-1.8650700"/>
            <trkpt lat="53.3236300" lon="-1.8648900"/>
            <trkpt lat="53.3235100" lon="-1.8642500"/>
            <trkpt lat="53.3235100" lon="-1.8628000"/>
            <trkpt lat="53.3239300" lon="-1.8589300"/>
            <trkpt lat="53.3240400" lon="-1.8584000"/>
            <trkpt lat="53.3241800" lon="-1.8575300"/>
            <trkpt lat="53.3242700" lon="-1.8574000"/>
            <trkpt lat="53.3242100" lon="-1.8555000"/>
            <trkpt lat="53.3240200" lon="-1.8534000"/>
            <trkpt lat="53.3240100" lon="-1.8531200"/>
            <trkpt lat="53.3240200" lon="-1.8509800"/>
            <trkpt lat="53.3240000" lon="-1.8501400"/>
            <trkpt lat="53.3238400" lon="-1.8484500"/>
            <trkpt lat="53.3237600" lon="-1.8474000"/>
            <trkpt lat="53.3237800" lon="-1.8458300"/>
            <trkpt lat="53.3238100" lon="-1.8453600"/>
            <trkpt lat="53.3238000" lon="-1.8443900"/>
            <trkpt lat="53.3237600" lon="-1.8436700"/>
            <trkpt lat="53.3236400" lon="-1.8422600"/>
            <trkpt lat="53.3237000" lon="-1.8419800"/>
            <trkpt lat="53.3237000" lon="-1.8418100"/>
            <trkpt lat="53.3236900" lon="-1.8417500"/>
            <trkpt lat="53.3237200" lon="-1.8416300"/>
            <trkpt lat="53.3226600" lon="-1.8410200"/>
            <trkpt lat="53.3216100" lon="-1.8401700"/>
            <trkpt lat="53.3213000" lon="-1.8398600"/>
            <trkpt lat="53.3210000" lon="-1.8395100"/>
            <trkpt lat="53.3205000" lon="-1.8388100"/>
            <trkpt lat="53.3203400" lon="-1.8385000"/>
            <trkpt lat="53.3196200" lon="-1.8367200"/>
            <trkpt lat="53.3192400" lon="-1.8358800"/>
            <trkpt lat="53.3188200" lon="-1.8350900"/>
            <trkpt lat="53.3177400" lon="-1.8332300"/>
            <trkpt lat="53.3167600" lon="-1.8318300"/>
            <trkpt lat="53.3165900" lon="-1.8315000"/>
            <trkpt lat="53.3164000" lon="-1.8312100"/>
            <trkpt lat="53.3164400" lon="-1.8311700"/>
            <trkpt lat="53.3163900" lon="-1.8301800"/>
            <trkpt lat="53.3160700" lon="-1.8285500"/>
            <trkpt lat="53.3163900" lon="-1.8283400"/>
            <trkpt lat="53.3172600" lon="-1.8275900"/>
            <trkpt lat="53.3176700" lon="-1.8273400"/>
            <trkpt lat="53.3179200" lon="-1.8271200"/>
            <trkpt lat="53.3182400" lon="-1.8267900"/>
            <trkpt lat="53.3185600" lon="-1.8265800"/>
            <trkpt lat="53.3195200" lon="-1.8258100"/>
            <trkpt lat="53.3197600" lon="-1.8255600"/>
            <trkpt lat="53.3200800" lon="-1.8254200"/>
            <trkpt lat="53.3203500" lon="-1.8251400"/>
            <trkpt lat="53.3203900" lon="-1.8250500"/>
            <trkpt lat="53.3204000" lon="-1.8249300"/>
            <trkpt lat="53.3205000" lon="-1.8244700"/>
            <trkpt lat="53.3229300" lon="-1.8210700"/>
            <trkpt lat="53.3271300" lon="-1.8278300"/>
            <trkpt lat="53.3229600" lon="-1.8210900"/>
            <trkpt lat="53.3230900" lon="-1.8206100"/>
            <trkpt lat="53.3231700" lon="-1.8201500"/>
            <trkpt lat="53.3232600" lon="-1.8197500"/>
            <trkpt lat="53.3233500" lon="-1.8194800"/>
            <trkpt lat="53.3235200" lon="-1.8190400"/>
            <trkpt lat="53.3235900" lon="-1.8188100"/>
            <trkpt lat="53.3240100" lon="-1.8183300"/>
            <trkpt lat="53.3244700" lon="-1.8178500"/>
            <trkpt lat="53.3247100" lon="-1.8178900"/>
            <trkpt lat="53.3248800" lon="-1.8178300"/>
            <trkpt lat="53.3251500" lon="-1.8178100"/>
            <trkpt lat="53.3254500" lon="-1.8178300"/>
            <trkpt lat="53.3256700" lon="-1.8179100"/>
            <trkpt lat="53.3259100" lon="-1.8178500"/>
            <trkpt lat="53.3264800" lon="-1.8175600"/>
            <trkpt lat="53.3268900" lon="-1.8174900"/>
            <trkpt lat="53.3271500" lon="-1.8175000"/>
            <trkpt lat="53.3277000" lon="-1.8173500"/>
            <trkpt lat="53.3282100" lon="-1.8171500"/>
            <trkpt lat="53.3287300" lon="-1.8171000"/>
            <trkpt lat="53.3288900" lon="-1.8170600"/>
            <trkpt lat="53.3289600" lon="-1.8170800"/>
            <trkpt lat="53.3290000" lon="-1.8171300"/>
            <trkpt lat="53.3291100" lon="-1.8171200"/>
            <trkpt lat="53.3291500" lon="-1.8174800"/>
            <trkpt lat="53.3291100" lon="-1.8171200"/>
            <trkpt lat="53.3292200" lon="-1.8155400"/>
            <trkpt lat="53.3292600" lon="-1.8148100"/>
            <trkpt lat="53.3293400" lon="-1.8138500"/>
            <trkpt lat="53.3295400" lon="-1.8124100"/>
            <trkpt lat="53.3296700" lon="-1.8125100"/>
            <trkpt lat="53.3298100" lon="-1.8126500"/>
            <trkpt lat="53.3300300" lon="-1.8127700"/>
            <trkpt lat="53.3317800" lon="-1.8135300"/>
            <trkpt lat="53.3322300" lon="-1.8134700"/>
            <trkpt lat="53.3327400" lon="-1.8133600"/>
            <trkpt lat="53.3330000" lon="-1.8132000"/>
            <trkpt lat="53.3331200" lon="-1.8130900"/>
            <trkpt lat="53.3335200" lon="-1.8126200"/>
            <trkpt lat="53.3337900" lon="-1.8123800"/>
            <trkpt lat="53.3339100" lon="-1.8123700"/>
            <trkpt lat="53.3340800" lon="-1.8122600"/>
            <trkpt lat="53.3344700" lon="-1.8118900"/>
            <trkpt lat="53.3347100" lon="-1.8117200"/>
            <trkpt lat="53.3348400" lon="-1.8116700"/>
            <trkpt lat="53.3353000" lon="-1.8114300"/>
            <trkpt lat="53.3355900" lon="-1.8112300"/>
            <trkpt lat="53.3372400" lon="-1.8105400"/>
            <trkpt lat="53.3403500" lon="-1.8110500"/>
            <trkpt lat="53.3406800" lon="-1.8111400"/>
            <trkpt lat="53.3407200" lon="-1.8112100"/>
            <trkpt lat="53.3408300" lon="-1.8110200"/>
            <trkpt lat="53.3408900" lon="-1.8110700"/>
            <trkpt lat="53.3410600" lon="-1.8111300"/>
            <trkpt lat="53.3418400" lon="-1.8115100"/>
            <trkpt lat="53.3432400" lon="-1.8122800"/>
            <trkpt lat="53.3436600" lon="-1.8124500"/>
            <trkpt lat="53.3438600" lon="-1.8124500"/>
            <trkpt lat="53.3443300" lon="-1.8123400"/>
            <trkpt lat="53.3445500" lon="-1.8122700"/>
            <trkpt lat="53.3446500" lon="-1.8123000"/>
            <trkpt lat="53.3447400" lon="-1.8123600"/>
            <trkpt lat="53.3451600" lon="-1.8126900"/>
            <trkpt lat="53.3452200" lon="-1.8126900"/>
            <trkpt lat="53.3452300" lon="-1.8129100"/>
            <trkpt lat="53.3454200" lon="-1.8150800"/>
            <trkpt lat="53.3455700" lon="-1.8150600"/>
            <trkpt lat="53.3456100" lon="-1.8157200"/>
            <trkpt lat="53.3458900" lon="-1.8155800"/>
            <trkpt lat="53.3458700" lon="-1.8152100"/>
        </trkseg>
    </trk>
</gpx>
