<?xml version="1.0" encoding="UTF-8" standalone="yes"?>
<gpx version="1.1" creator="OS Maps - Web" xmlns="http://www.topografix.com/GPX/1/1"
xmlns:xsi="http://www.w3.org/2001/XMLSchema-instance"
xsi:schemaLocation="http://www.topografix.com/GPX/1/1 http://www.topografix.com/GPX/1/1/gpx.xsd"
xmlns:gs="http://www.topografix.com/GPX/gpx_style/0/2"
xmlns:gh="https://graphhopper.com/public/schema/gpx/1.1"
xmlns:os="https://ordnancesurvey.co.uk/public/schema/route/0.1">
    <metadata>
        <name>Lost Lad &amp; Back Tor (Ethels) - Circular (www.thelostpeak.co.uk)</name>
        <desc>www.thelostpeak.co.uk</desc>
        <bounds minlat="53.3886500" minlon="-1.7426800" maxlat="53.4193200" maxlon="-1.6957600"/>
        <extensions>
            <os:version>2.0</os:version>
            <os:point lat="53.4005000" lon="-1.7426000" type="start"/>
            <os:point lat="53.4005050" lon="-1.7426020" type="end"/>
            <os:activity>ON_FOOT_WALKING</os:activity>
            <os:difficulty>MODERATE</os:difficulty>
            <os:paths/>
            <os:distance>12092.5721540</os:distance>
            <os:elevation_ascent>411.0600000</os:elevation_ascent>
        </extensions>
    </metadata>
    <wpt lat="53.4005000" lon="-1.7426000"/>
    <wpt lat="53.4019500" lon="-1.7426300"/>
    <wpt lat="53.4035400" lon="-1.7417700"/>
    <wpt lat="53.4049500" lon="-1.7403500"/>
    <wpt lat="53.4052700" lon="-1.7392000"/>
    <wpt lat="53.4069900" lon="-1.7396100"/>
    <wpt lat="53.4075200" lon="-1.7393300"/>
    <wpt lat="53.4079700" lon="-1.7362000"/>
    <wpt lat="53.4094700" lon="-1.7337600"/>
    <wpt lat="53.4086300" lon="-1.7330400"/>
    <wpt lat="53.4101100" lon="-1.7320500"/>
    <wpt lat="53.4099800" lon="-1.7320300"/>
    <wpt lat="53.4101300" lon="-1.7312500"/>
    <wpt lat="53.4104100" lon="-1.7305400"/>
    <wpt lat="53.4111400" lon="-1.7301600"/>
    <wpt lat="53.4129400" lon="-1.7321000"/>
    <wpt lat="53.4146500" lon="-1.7301200"/>
    <wpt lat="53.4150200" lon="-1.7299200"/>
    <wpt lat="53.4160280" lon="-1.7282020"/>
    <wpt lat="53.4164900" lon="-1.7250500"/>
    <wpt lat="53.4168200" lon="-1.7238300"/>
    <wpt lat="53.4180400" lon="-1.7217900"/>
    <wpt lat="53.4184100" lon="-1.7206900"/>
    <wpt lat="53.4193100" lon="-1.7189900"/>
    <wpt lat="53.4193200" lon="-1.7166800"/>
    <wpt lat="53.4190000" lon="-1.7146000"/>
    <wpt lat="53.4186000" lon="-1.7133100"/>
    <wpt lat="53.4176100" lon="-1.7110700"/>
    <wpt lat="53.4172500" lon="-1.7097000"/>
    <wpt lat="53.4166800" lon="-1.7085900"/>
    <wpt lat="53.4164500" lon="-1.7069500"/>
    <wpt lat="53.4156600" lon="-1.7056200"/>
    <wpt lat="53.4154200" lon="-1.7048800"/>
    <wpt lat="53.4148700" lon="-1.7042500"/>
    <wpt lat="53.4122800" lon="-1.7038900"/>
    <wpt lat="53.4109000" lon="-1.7031800"/>
    <wpt lat="53.4100400" lon="-1.7032300"/>
    <wpt lat="53.4083300" lon="-1.7042100"/>
    <wpt lat="53.4075000" lon="-1.7040200"/>
    <wpt lat="53.4066200" lon="-1.7042000"/>
    <wpt lat="53.4046700" lon="-1.7054600"/>
    <wpt lat="53.4035600" lon="-1.7053000"/>
    <wpt lat="53.4031700" lon="-1.7057200"/>
    <wpt lat="53.4026000" lon="-1.7055800"/>
    <wpt lat="53.4010720" lon="-1.7062670"/>
    <wpt lat="53.4003300" lon="-1.7059000"/>
    <wpt lat="53.3993800" lon="-1.7062100"/>
    <wpt lat="53.3977300" lon="-1.7051400"/>
    <wpt lat="53.3965200" lon="-1.7033300"/>
    <wpt lat="53.3960300" lon="-1.7030400"/>
    <wpt lat="53.3957600" lon="-1.7022800"/>
    <wpt lat="53.3948800" lon="-1.7015600"/>
    <wpt lat="53.3938700" lon="-1.6990700"/>
    <wpt lat="53.3929000" lon="-1.6976000"/>
    <wpt lat="53.3891700" lon="-1.6957600"/>
    <wpt lat="53.3887300" lon="-1.6959500"/>
    <wpt lat="53.3887700" lon="-1.6982200"/>
    <wpt lat="53.3912400" lon="-1.7016100"/>
    <wpt lat="53.3919500" lon="-1.7031000"/>
    <wpt lat="53.3924500" lon="-1.7035700"/>
    <wpt lat="53.3921400" lon="-1.7060900"/>
    <wpt lat="53.3921600" lon="-1.7082600"/>
    <wpt lat="53.3918900" lon="-1.7103100"/>
    <wpt lat="53.3916200" lon="-1.7111200"/>
    <wpt lat="53.3915000" lon="-1.7126600"/>
    <wpt lat="53.3920100" lon="-1.7146700"/>
    <wpt lat="53.3927800" lon="-1.7151000"/>
    <wpt lat="53.3931500" lon="-1.7159300"/>
    <wpt lat="53.3929800" lon="-1.7169100"/>
    <wpt lat="53.3926900" lon="-1.7170400"/>
    <wpt lat="53.3918500" lon="-1.7182000"/>
    <wpt lat="53.3917600" lon="-1.7188600"/>
    <wpt lat="53.3920400" lon="-1.7201100"/>
    <wpt lat="53.3929600" lon="-1.7213100"/>
    <wpt lat="53.3948100" lon="-1.7222800"/>
    <wpt lat="53.3948200" lon="-1.7231600"/>
    <wpt lat="53.3944400" lon="-1.7234600"/>
    <wpt lat="53.3944400" lon="-1.7245800"/>
    <wpt lat="53.3960900" lon="-1.7283200"/>
    <wpt lat="53.3968900" lon="-1.7316100"/>
    <wpt lat="53.3991400" lon="-1.7359600"/>
    <wpt lat="53.4009300" lon="-1.7382500"/>
    <wpt lat="53.4031400" lon="-1.7398400"/>
    <wpt lat="53.4034800" lon="-1.7406800"/>
    <wpt lat="53.4034300" lon="-1.7412800"/>
    <wpt lat="53.4031400" lon="-1.7418300"/>
    <wpt lat="53.4019500" lon="-1.7426300"/>
    <wpt lat="53.4005050" lon="-1.7426020"/>
    <trk>
        <name>Lost Lad &amp; Back Tor (Ethels) - Circular (www.thelostpeak.co.uk)</name>
        <trkseg>
            <trkpt lat="53.4005000" lon="-1.7426000"><ele>222.9</ele></trkpt>
            <trkpt lat="53.4011700" lon="-1.7425600"><ele>223.6</ele></trkpt>
            <trkpt lat="53.4017170" lon="-1.7426800"><ele>225.8</ele></trkpt>
            <trkpt lat="53.4019500" lon="-1.7426300"><ele>225.9</ele></trkpt>
            <trkpt lat="53.4023400" lon="-1.7423300"><ele>222.3</ele></trkpt>
            <trkpt lat="53.4031100" lon="-1.7418600"><ele>213.9</ele></trkpt>
            <trkpt lat="53.4032400" lon="-1.7418800"><ele>212.5</ele></trkpt>
            <trkpt lat="53.4035400" lon="-1.7417700"><ele>231.5</ele></trkpt>
            <trkpt lat="53.4038600" lon="-1.7415300"><ele>235.0</ele></trkpt>
            <trkpt lat="53.4049500" lon="-1.7403500"><ele>235.1</ele></trkpt>
            <trkpt lat="53.4050100" lon="-1.7400100"><ele>235.5</ele></trkpt>
            <trkpt lat="53.4051500" lon="-1.7397400"><ele>237.3</ele></trkpt>
            <trkpt lat="53.4052700" lon="-1.7392000"><ele>243.0</ele></trkpt>
            <trkpt lat="53.4058000" lon="-1.7393100"><ele>243.9</ele></trkpt>
            <trkpt lat="53.4058900" lon="-1.7392600"><ele>244.7</ele></trkpt>
            <trkpt lat="53.4069900" lon="-1.7396100"><ele>242.1</ele></trkpt>
            <trkpt lat="53.4072000" lon="-1.7395700"><ele>245.0</ele></trkpt>
            <trkpt lat="53.4073800" lon="-1.7394600"><ele>249.7</ele></trkpt>
            <trkpt lat="53.4074200" lon="-1.7393400"><ele>252.9</ele></trkpt>
            <trkpt lat="53.4075200" lon="-1.7393300"><ele>253.3</ele></trkpt>
            <trkpt lat="53.4076000" lon="-1.7387800"><ele>260.8</ele></trkpt>
            <trkpt lat="53.4078010" lon="-1.7378190"><ele>272.7</ele></trkpt>
            <trkpt lat="53.4079700" lon="-1.7362000"><ele>288.2</ele></trkpt>
            <trkpt lat="53.4081000" lon="-1.7359200"><ele>292.3</ele></trkpt>
            <trkpt lat="53.4092200" lon="-1.7343200"><ele>334.4</ele></trkpt>
            <trkpt lat="53.4094300" lon="-1.7338800"><ele>345.5</ele></trkpt>
            <trkpt lat="53.4094700" lon="-1.7337600"><ele>347.4</ele></trkpt>
            <trkpt lat="53.4094200" lon="-1.7336600"><ele>347.2</ele></trkpt>
            <trkpt lat="53.4092400" lon="-1.7335200"><ele>346.1</ele></trkpt>
            <trkpt lat="53.4090900" lon="-1.7334800"><ele>343.8</ele></trkpt>
            <trkpt lat="53.4089400" lon="-1.7332700"><ele>347.6</ele></trkpt>
            <trkpt lat="53.4086300" lon="-1.7330400"><ele>353.6</ele></trkpt>
            <trkpt lat="53.4086600" lon="-1.7329800"><ele>354.9</ele></trkpt>
            <trkpt lat="53.4092900" lon="-1.7327100"><ele>362.5</ele></trkpt>
            <trkpt lat="53.4096400" lon="-1.7324800"><ele>373.6</ele></trkpt>
            <trkpt lat="53.4101100" lon="-1.7320500"><ele>383.5</ele></trkpt>
            <trkpt lat="53.4099800" lon="-1.7320300"><ele>383.5</ele></trkpt>
            <trkpt lat="53.4101300" lon="-1.7312500"><ele>390.5</ele></trkpt>
            <trkpt lat="53.4102900" lon="-1.7309200"><ele>391.9</ele></trkpt>
            <trkpt lat="53.4104100" lon="-1.7305400"><ele>395.5</ele></trkpt>
            <trkpt lat="53.4111400" lon="-1.7301600"><ele>400.9</ele></trkpt>
            <trkpt lat="53.4129400" lon="-1.7321000"><ele>411.9</ele></trkpt>
            <trkpt lat="53.4136400" lon="-1.7312000"><ele>420.8</ele></trkpt>
            <trkpt lat="53.4146500" lon="-1.7301200"><ele>429.7</ele></trkpt>
            <trkpt lat="53.4150200" lon="-1.7299200"><ele>430.0</ele></trkpt>
            <trkpt lat="53.4160280" lon="-1.7282020"><ele>434.5</ele></trkpt>
            <trkpt lat="53.4163400" lon="-1.7265500"><ele>436.1</ele></trkpt>
            <trkpt lat="53.4164900" lon="-1.7250500"><ele>440.1</ele></trkpt>
            <trkpt lat="53.4168200" lon="-1.7238300"><ele>439.6</ele></trkpt>
            <trkpt lat="53.4174320" lon="-1.7228520"><ele>441.9</ele></trkpt>
            <trkpt lat="53.4180400" lon="-1.7217900"><ele>444.0</ele></trkpt>
            <trkpt lat="53.4184100" lon="-1.7206900"><ele>443.3</ele></trkpt>
            <trkpt lat="53.4188300" lon="-1.7199100"><ele>443.0</ele></trkpt>
            <trkpt lat="53.4192000" lon="-1.7193900"><ele>444.5</ele></trkpt>
            <trkpt lat="53.4193100" lon="-1.7189900"><ele>446.0</ele></trkpt>
            <trkpt lat="53.4193200" lon="-1.7166800"><ele>463.4</ele></trkpt>
            <trkpt lat="53.4190100" lon="-1.7151200"><ele>491.1</ele></trkpt>
            <trkpt lat="53.4190000" lon="-1.7146000"><ele>497.9</ele></trkpt>
            <trkpt lat="53.4186000" lon="-1.7133100"><ele>505.6</ele></trkpt>
            <trkpt lat="53.4181800" lon="-1.7123300"><ele>502.4</ele></trkpt>
            <trkpt lat="53.4176100" lon="-1.7110700"><ele>508.8</ele></trkpt>
            <trkpt lat="53.4174600" lon="-1.7106200"><ele>512.8</ele></trkpt>
            <trkpt lat="53.4173240" lon="-1.7101050"><ele>512.7</ele></trkpt>
            <trkpt lat="53.4172500" lon="-1.7097000"><ele>510.5</ele></trkpt>
            <trkpt lat="53.4168600" lon="-1.7087900"><ele>509.9</ele></trkpt>
            <trkpt lat="53.4166800" lon="-1.7085900"><ele>511.0</ele></trkpt>
            <trkpt lat="53.4166100" lon="-1.7083700"><ele>513.6</ele></trkpt>
            <trkpt lat="53.4166400" lon="-1.7079800"><ele>516.9</ele></trkpt>
            <trkpt lat="53.4165670" lon="-1.7073670"><ele>523.6</ele></trkpt>
            <trkpt lat="53.4164500" lon="-1.7069500"><ele>526.9</ele></trkpt>
            <trkpt lat="53.4162500" lon="-1.7066200"><ele>525.8</ele></trkpt>
            <trkpt lat="53.4159600" lon="-1.7060700"><ele>522.9</ele></trkpt>
            <trkpt lat="53.4156600" lon="-1.7056200"><ele>522.8</ele></trkpt>
            <trkpt lat="53.4156300" lon="-1.7055500"><ele>522.6</ele></trkpt>
            <trkpt lat="53.4155900" lon="-1.7052400"><ele>522.2</ele></trkpt>
            <trkpt lat="53.4154900" lon="-1.7050600"><ele>522.5</ele></trkpt>
            <trkpt lat="53.4154200" lon="-1.7048800"><ele>523.2</ele></trkpt>
            <trkpt lat="53.4153300" lon="-1.7047800"><ele>524.0</ele></trkpt>
            <trkpt lat="53.4152600" lon="-1.7046400"><ele>525.7</ele></trkpt>
            <trkpt lat="53.4150400" lon="-1.7044000"><ele>527.5</ele></trkpt>
            <trkpt lat="53.4149800" lon="-1.7043600"><ele>527.4</ele></trkpt>
            <trkpt lat="53.4149200" lon="-1.7043600"><ele>527.2</ele></trkpt>
            <trkpt lat="53.4148700" lon="-1.7042500"><ele>527.7</ele></trkpt>
            <trkpt lat="53.4147400" lon="-1.7043100"><ele>526.4</ele></trkpt>
            <trkpt lat="53.4146800" lon="-1.7043000"><ele>526.1</ele></trkpt>
            <trkpt lat="53.4144200" lon="-1.7041900"><ele>525.2</ele></trkpt>
            <trkpt lat="53.4142400" lon="-1.7040900"><ele>524.5</ele></trkpt>
            <trkpt lat="53.4139000" lon="-1.7040400"><ele>521.7</ele></trkpt>
            <trkpt lat="53.4137600" lon="-1.7039900"><ele>521.0</ele></trkpt>
            <trkpt lat="53.4135200" lon="-1.7040900"><ele>519.4</ele></trkpt>
            <trkpt lat="53.4133100" lon="-1.7040900"><ele>518.0</ele></trkpt>
            <trkpt lat="53.4131900" lon="-1.7040100"><ele>517.8</ele></trkpt>
            <trkpt lat="53.4127600" lon="-1.7038800"><ele>516.3</ele></trkpt>
            <trkpt lat="53.4122800" lon="-1.7038900"><ele>511.3</ele></trkpt>
            <trkpt lat="53.4120600" lon="-1.7038000"><ele>509.5</ele></trkpt>
            <trkpt lat="53.4116200" lon="-1.7035600"><ele>505.9</ele></trkpt>
            <trkpt lat="53.4112000" lon="-1.7033200"><ele>504.0</ele></trkpt>
            <trkpt lat="53.4110700" lon="-1.7032200"><ele>503.9</ele></trkpt>
            <trkpt lat="53.4109000" lon="-1.7031800"><ele>503.8</ele></trkpt>
            <trkpt lat="53.4103000" lon="-1.7032500"><ele>502.7</ele></trkpt>
            <trkpt lat="53.4100400" lon="-1.7032300"><ele>502.7</ele></trkpt>
            <trkpt lat="53.4095500" lon="-1.7033900"><ele>501.5</ele></trkpt>
            <trkpt lat="53.4094600" lon="-1.7034700"><ele>500.8</ele></trkpt>
            <trkpt lat="53.4091600" lon="-1.7036300"><ele>500.8</ele></trkpt>
            <trkpt lat="53.4087700" lon="-1.7040000"><ele>502.8</ele></trkpt>
            <trkpt lat="53.4083300" lon="-1.7042100"><ele>505.2</ele></trkpt>
            <trkpt lat="53.4081400" lon="-1.7042200"><ele>505.1</ele></trkpt>
            <trkpt lat="53.4079700" lon="-1.7042000"><ele>505.3</ele></trkpt>
            <trkpt lat="53.4078000" lon="-1.7040700"><ele>505.2</ele></trkpt>
            <trkpt lat="53.4075000" lon="-1.7040200"><ele>504.1</ele></trkpt>
            <trkpt lat="53.4068700" lon="-1.7042500"><ele>502.5</ele></trkpt>
            <trkpt lat="53.4067300" lon="-1.7042000"><ele>502.2</ele></trkpt>
            <trkpt lat="53.4066200" lon="-1.7042000"><ele>501.7</ele></trkpt>
            <trkpt lat="53.4065200" lon="-1.7042900"><ele>500.9</ele></trkpt>
            <trkpt lat="53.4060200" lon="-1.7044600"><ele>497.8</ele></trkpt>
            <trkpt lat="53.4059400" lon="-1.7045200"><ele>497.7</ele></trkpt>
            <trkpt lat="53.4056900" lon="-1.7046500"><ele>498.6</ele></trkpt>
            <trkpt lat="53.4054100" lon="-1.7049400"><ele>500.9</ele></trkpt>
            <trkpt lat="53.4053000" lon="-1.7050800"><ele>499.1</ele></trkpt>
            <trkpt lat="53.4052300" lon="-1.7050800"><ele>499.4</ele></trkpt>
            <trkpt lat="53.4051400" lon="-1.7051200"><ele>498.9</ele></trkpt>
            <trkpt lat="53.4049500" lon="-1.7053000"><ele>496.9</ele></trkpt>
            <trkpt lat="53.4048400" lon="-1.7052900"><ele>497.5</ele></trkpt>
            <trkpt lat="53.4046700" lon="-1.7054600"><ele>495.8</ele></trkpt>
            <trkpt lat="53.4045500" lon="-1.7054700"><ele>496.1</ele></trkpt>
            <trkpt lat="53.4042500" lon="-1.7053400"><ele>498.2</ele></trkpt>
            <trkpt lat="53.4037800" lon="-1.7053000"><ele>496.7</ele></trkpt>
            <trkpt lat="53.4035600" lon="-1.7053000"><ele>494.6</ele></trkpt>
            <trkpt lat="53.4032600" lon="-1.7054800"><ele>491.8</ele></trkpt>
            <trkpt lat="53.4031700" lon="-1.7057200"><ele>484.8</ele></trkpt>
            <trkpt lat="53.4030600" lon="-1.7056800"><ele>485.1</ele></trkpt>
            <trkpt lat="53.4029800" lon="-1.7057600"><ele>482.5</ele></trkpt>
            <trkpt lat="53.4027000" lon="-1.7056100"><ele>483.5</ele></trkpt>
            <trkpt lat="53.4026000" lon="-1.7055800"><ele>483.3</ele></trkpt>
            <trkpt lat="53.4024200" lon="-1.7056400"><ele>480.1</ele></trkpt>
            <trkpt lat="53.4021300" lon="-1.7058300"><ele>477.0</ele></trkpt>
            <trkpt lat="53.4017300" lon="-1.7060300"><ele>475.9</ele></trkpt>
            <trkpt lat="53.4014800" lon="-1.7060500"><ele>476.5</ele></trkpt>
            <trkpt lat="53.4010720" lon="-1.7062670"><ele>476.8</ele></trkpt>
            <trkpt lat="53.4006300" lon="-1.7061500"><ele>478.2</ele></trkpt>
            <trkpt lat="53.4005600" lon="-1.7060300"><ele>479.3</ele></trkpt>
            <trkpt lat="53.4003300" lon="-1.7059000"><ele>480.0</ele></trkpt>
            <trkpt lat="53.4002100" lon="-1.7060900"><ele>479.5</ele></trkpt>
            <trkpt lat="53.3999300" lon="-1.7060500"><ele>481.3</ele></trkpt>
            <trkpt lat="53.3995200" lon="-1.7062100"><ele>480.5</ele></trkpt>
            <trkpt lat="53.3993800" lon="-1.7062100"><ele>480.3</ele></trkpt>
            <trkpt lat="53.3989400" lon="-1.7059900"><ele>479.5</ele></trkpt>
            <trkpt lat="53.3987800" lon="-1.7058700"><ele>479.1</ele></trkpt>
            <trkpt lat="53.3984800" lon="-1.7057500"><ele>477.4</ele></trkpt>
            <trkpt lat="53.3983400" lon="-1.7055800"><ele>476.9</ele></trkpt>
            <trkpt lat="53.3980300" lon="-1.7053500"><ele>476.4</ele></trkpt>
            <trkpt lat="53.3978900" lon="-1.7052800"><ele>476.1</ele></trkpt>
            <trkpt lat="53.3977300" lon="-1.7051400"><ele>476.3</ele></trkpt>
            <trkpt lat="53.3974700" lon="-1.7048200"><ele>477.9</ele></trkpt>
            <trkpt lat="53.3969800" lon="-1.7040100"><ele>480.5</ele></trkpt>
            <trkpt lat="53.3965200" lon="-1.7033300"><ele>481.6</ele></trkpt>
            <trkpt lat="53.3962900" lon="-1.7031100"><ele>481.7</ele></trkpt>
            <trkpt lat="53.3961700" lon="-1.7031100"><ele>480.4</ele></trkpt>
            <trkpt lat="53.3960300" lon="-1.7030400"><ele>479.0</ele></trkpt>
            <trkpt lat="53.3959800" lon="-1.7028200"><ele>479.6</ele></trkpt>
            <trkpt lat="53.3957600" lon="-1.7022800"><ele>481.1</ele></trkpt>
            <trkpt lat="53.3951500" lon="-1.7017400"><ele>473.5</ele></trkpt>
            <trkpt lat="53.3948800" lon="-1.7015600"><ele>470.0</ele></trkpt>
            <trkpt lat="53.3948100" lon="-1.7014000"><ele>468.6</ele></trkpt>
            <trkpt lat="53.3946900" lon="-1.7011800"><ele>466.6</ele></trkpt>
            <trkpt lat="53.3946200" lon="-1.7009900"><ele>466.7</ele></trkpt>
            <trkpt lat="53.3945000" lon="-1.7007500"><ele>464.2</ele></trkpt>
            <trkpt lat="53.3944100" lon="-1.7002800"><ele>463.3</ele></trkpt>
            <trkpt lat="53.3942700" lon="-1.7001100"><ele>462.3</ele></trkpt>
            <trkpt lat="53.3941100" lon="-1.6997600"><ele>462.7</ele></trkpt>
            <trkpt lat="53.3940100" lon="-1.6994100"><ele>464.3</ele></trkpt>
            <trkpt lat="53.3938700" lon="-1.6990700"><ele>465.1</ele></trkpt>
            <trkpt lat="53.3937000" lon="-1.6988800"><ele>465.4</ele></trkpt>
            <trkpt lat="53.3935600" lon="-1.6985700"><ele>466.3</ele></trkpt>
            <trkpt lat="53.3934200" lon="-1.6984200"><ele>465.9</ele></trkpt>
            <trkpt lat="53.3933400" lon="-1.6982400"><ele>466.6</ele></trkpt>
            <trkpt lat="53.3931400" lon="-1.6979900"><ele>466.5</ele></trkpt>
            <trkpt lat="53.3929000" lon="-1.6976000"><ele>468.0</ele></trkpt>
            <trkpt lat="53.3924300" lon="-1.6973000"><ele>463.6</ele></trkpt>
            <trkpt lat="53.3919500" lon="-1.6970600"><ele>463.3</ele></trkpt>
            <trkpt lat="53.3918200" lon="-1.6971100"><ele>463.2</ele></trkpt>
            <trkpt lat="53.3917100" lon="-1.6971100"><ele>463.5</ele></trkpt>
            <trkpt lat="53.3915800" lon="-1.6970500"><ele>463.4</ele></trkpt>
            <trkpt lat="53.3912700" lon="-1.6967400"><ele>462.9</ele></trkpt>
            <trkpt lat="53.3902200" lon="-1.6963900"><ele>459.7</ele></trkpt>
            <trkpt lat="53.3897500" lon="-1.6961700"><ele>455.4</ele></trkpt>
            <trkpt lat="53.3891700" lon="-1.6957600"><ele>451.5</ele></trkpt>
            <trkpt lat="53.3890600" lon="-1.6957700"><ele>450.8</ele></trkpt>
            <trkpt lat="53.3887300" lon="-1.6959500"><ele>449.7</ele></trkpt>
            <trkpt lat="53.3886500" lon="-1.6960800"><ele>449.3</ele></trkpt>
            <trkpt lat="53.3886800" lon="-1.6965300"><ele>446.4</ele></trkpt>
            <trkpt lat="53.3887200" lon="-1.6966700"><ele>445.6</ele></trkpt>
            <trkpt lat="53.3887200" lon="-1.6969400"><ele>443.7</ele></trkpt>
            <trkpt lat="53.3887700" lon="-1.6973400"><ele>440.4</ele></trkpt>
            <trkpt lat="53.3887800" lon="-1.6976300"><ele>437.2</ele></trkpt>
            <trkpt lat="53.3887400" lon="-1.6980900"><ele>428.5</ele></trkpt>
            <trkpt lat="53.3887700" lon="-1.6982200"><ele>426.0</ele></trkpt>
            <trkpt lat="53.3888400" lon="-1.6982300"><ele>425.9</ele></trkpt>
            <trkpt lat="53.3893900" lon="-1.6991700"><ele>413.3</ele></trkpt>
            <trkpt lat="53.3896900" lon="-1.6994000"><ele>411.9</ele></trkpt>
            <trkpt lat="53.3902600" lon="-1.7002900"><ele>400.1</ele></trkpt>
            <trkpt lat="53.3904600" lon="-1.7005000"><ele>399.3</ele></trkpt>
            <trkpt lat="53.3906600" lon="-1.7008700"><ele>396.4</ele></trkpt>
            <trkpt lat="53.3910000" lon="-1.7012600"><ele>392.5</ele></trkpt>
            <trkpt lat="53.3912400" lon="-1.7016100"><ele>389.4</ele></trkpt>
            <trkpt lat="53.3914300" lon="-1.7021500"><ele>384.0</ele></trkpt>
            <trkpt lat="53.3915900" lon="-1.7024300"><ele>380.4</ele></trkpt>
            <trkpt lat="53.3916600" lon="-1.7026200"><ele>378.6</ele></trkpt>
            <trkpt lat="53.3919500" lon="-1.7030400"><ele>375.5</ele></trkpt>
            <trkpt lat="53.3919500" lon="-1.7031000"><ele>373.9</ele></trkpt>
            <trkpt lat="53.3922300" lon="-1.7033200"><ele>376.9</ele></trkpt>
            <trkpt lat="53.3922900" lon="-1.7034100"><ele>377.7</ele></trkpt>
            <trkpt lat="53.3924300" lon="-1.7035200"><ele>380.2</ele></trkpt>
            <trkpt lat="53.3924500" lon="-1.7035700"><ele>379.6</ele></trkpt>
            <trkpt lat="53.3924000" lon="-1.7038100"><ele>375.1</ele></trkpt>
            <trkpt lat="53.3924100" lon="-1.7041000"><ele>370.8</ele></trkpt>
            <trkpt lat="53.3923200" lon="-1.7049700"><ele>361.5</ele></trkpt>
            <trkpt lat="53.3922500" lon="-1.7052000"><ele>359.4</ele></trkpt>
            <trkpt lat="53.3922400" lon="-1.7054900"><ele>358.8</ele></trkpt>
            <trkpt lat="53.3921400" lon="-1.7060900"><ele>356.4</ele></trkpt>
            <trkpt lat="53.3922200" lon="-1.7066000"><ele>357.6</ele></trkpt>
            <trkpt lat="53.3921900" lon="-1.7070800"><ele>357.6</ele></trkpt>
            <trkpt lat="53.3921200" lon="-1.7078000"><ele>353.8</ele></trkpt>
            <trkpt lat="53.3921700" lon="-1.7081200"><ele>352.2</ele></trkpt>
            <trkpt lat="53.3921600" lon="-1.7082600"><ele>351.4</ele></trkpt>
            <trkpt lat="53.3920500" lon="-1.7088200"><ele>346.4</ele></trkpt>
            <trkpt lat="53.3920100" lon="-1.7092900"><ele>347.5</ele></trkpt>
            <trkpt lat="53.3919700" lon="-1.7096000"><ele>345.8</ele></trkpt>
            <trkpt lat="53.3919400" lon="-1.7100200"><ele>342.8</ele></trkpt>
            <trkpt lat="53.3918900" lon="-1.7103100"><ele>339.3</ele></trkpt>
            <trkpt lat="53.3918200" lon="-1.7103800"><ele>338.1</ele></trkpt>
            <trkpt lat="53.3916800" lon="-1.7107800"><ele>334.0</ele></trkpt>
            <trkpt lat="53.3916200" lon="-1.7111200"><ele>331.2</ele></trkpt>
            <trkpt lat="53.3915200" lon="-1.7119500"><ele>325.1</ele></trkpt>
            <trkpt lat="53.3914900" lon="-1.7124000"><ele>320.1</ele></trkpt>
            <trkpt lat="53.3915000" lon="-1.7126600"><ele>317.4</ele></trkpt>
            <trkpt lat="53.3915500" lon="-1.7131500"><ele>312.7</ele></trkpt>
            <trkpt lat="53.3917800" lon="-1.7140500"><ele>297.1</ele></trkpt>
            <trkpt lat="53.3920100" lon="-1.7146700"><ele>286.5</ele></trkpt>
            <trkpt lat="53.3920800" lon="-1.7147400"><ele>285.1</ele></trkpt>
            <trkpt lat="53.3927800" lon="-1.7151000"><ele>278.8</ele></trkpt>
            <trkpt lat="53.3929700" lon="-1.7155000"><ele>272.9</ele></trkpt>
            <trkpt lat="53.3929800" lon="-1.7157000"><ele>271.6</ele></trkpt>
            <trkpt lat="53.3930300" lon="-1.7158000"><ele>271.5</ele></trkpt>
            <trkpt lat="53.3931500" lon="-1.7159300"><ele>273.9</ele></trkpt>
            <trkpt lat="53.3931400" lon="-1.7160300"><ele>273.4</ele></trkpt>
            <trkpt lat="53.3929600" lon="-1.7166800"><ele>266.2</ele></trkpt>
            <trkpt lat="53.3929800" lon="-1.7169100"><ele>266.2</ele></trkpt>
            <trkpt lat="53.3929500" lon="-1.7169300"><ele>264.5</ele></trkpt>
            <trkpt lat="53.3928200" lon="-1.7169200"><ele>260.3</ele></trkpt>
            <trkpt lat="53.3926900" lon="-1.7170400"><ele>256.2</ele></trkpt>
            <trkpt lat="53.3924500" lon="-1.7174100"><ele>248.9</ele></trkpt>
            <trkpt lat="53.3921300" lon="-1.7178500"><ele>238.2</ele></trkpt>
            <trkpt lat="53.3919500" lon="-1.7180000"><ele>233.7</ele></trkpt>
            <trkpt lat="53.3918500" lon="-1.7182000"><ele>230.9</ele></trkpt>
            <trkpt lat="53.3917900" lon="-1.7184300"><ele>228.3</ele></trkpt>
            <trkpt lat="53.3917600" lon="-1.7188600"><ele>225.6</ele></trkpt>
            <trkpt lat="53.3918500" lon="-1.7193300"><ele>223.2</ele></trkpt>
            <trkpt lat="53.3920100" lon="-1.7198400"><ele>220.6</ele></trkpt>
            <trkpt lat="53.3920400" lon="-1.7201100"><ele>218.2</ele></trkpt>
            <trkpt lat="53.3923200" lon="-1.7205800"><ele>218.1</ele></trkpt>
            <trkpt lat="53.3929600" lon="-1.7213100"><ele>216.5</ele></trkpt>
            <trkpt lat="53.3934200" lon="-1.7215000"><ele>215.5</ele></trkpt>
            <trkpt lat="53.3937200" lon="-1.7217600"><ele>212.9</ele></trkpt>
            <trkpt lat="53.3946400" lon="-1.7220460"><ele>211.3</ele></trkpt>
            <trkpt lat="53.3948100" lon="-1.7222800"><ele>211.6</ele></trkpt>
            <trkpt lat="53.3948800" lon="-1.7225600"><ele>212.4</ele></trkpt>
            <trkpt lat="53.3948200" lon="-1.7231600"><ele>215.4</ele></trkpt>
            <trkpt lat="53.3947700" lon="-1.7232600"><ele>215.8</ele></trkpt>
            <trkpt lat="53.3944400" lon="-1.7234600"><ele>212.5</ele></trkpt>
            <trkpt lat="53.3943700" lon="-1.7239100"><ele>215.3</ele></trkpt>
            <trkpt lat="53.3943700" lon="-1.7242700"><ele>215.9</ele></trkpt>
            <trkpt lat="53.3944400" lon="-1.7245800"><ele>217.5</ele></trkpt>
            <trkpt lat="53.3951400" lon="-1.7259600"><ele>221.5</ele></trkpt>
            <trkpt lat="53.3960900" lon="-1.7283200"><ele>226.3</ele></trkpt>
            <trkpt lat="53.3966300" lon="-1.7306100"><ele>228.0</ele></trkpt>
            <trkpt lat="53.3968100" lon="-1.7311000"><ele>228.4</ele></trkpt>
            <trkpt lat="53.3968900" lon="-1.7316100"><ele>228.4</ele></trkpt>
            <trkpt lat="53.3971370" lon="-1.7320840"><ele>231.6</ele></trkpt>
            <trkpt lat="53.3975400" lon="-1.7327100"><ele>235.8</ele></trkpt>
            <trkpt lat="53.3991400" lon="-1.7359600"><ele>236.2</ele></trkpt>
            <trkpt lat="53.4006000" lon="-1.7379200"><ele>237.4</ele></trkpt>
            <trkpt lat="53.4009300" lon="-1.7382500"><ele>236.8</ele></trkpt>
            <trkpt lat="53.4031400" lon="-1.7398400"><ele>223.7</ele></trkpt>
            <trkpt lat="53.4033600" lon="-1.7402100"><ele>219.6</ele></trkpt>
            <trkpt lat="53.4034800" lon="-1.7406800"><ele>221.8</ele></trkpt>
            <trkpt lat="53.4034820" lon="-1.7409620"><ele>227.6</ele></trkpt>
            <trkpt lat="53.4034300" lon="-1.7412800"><ele>225.5</ele></trkpt>
            <trkpt lat="53.4033600" lon="-1.7414800"><ele>218.7</ele></trkpt>
            <trkpt lat="53.4031400" lon="-1.7418300"><ele>213.5</ele></trkpt>
            <trkpt lat="53.4023400" lon="-1.7423240"><ele>222.3</ele></trkpt>
            <trkpt lat="53.4019500" lon="-1.7426300"><ele>225.9</ele></trkpt>
            <trkpt lat="53.4017200" lon="-1.7426800"><ele>225.8</ele></trkpt>
            <trkpt lat="53.4011700" lon="-1.7425600"><ele>223.6</ele></trkpt>
            <trkpt lat="53.4005050" lon="-1.7426020"><ele>222.8</ele></trkpt>
        </trkseg>
    </trk>
<!-- ele-hash:1493dbb4f9115c68 -->
</gpx>
