<?xml version="1.0" encoding="UTF-8" standalone="yes"?>
<gpx version="1.1" creator="OS Maps - Web" xmlns="http://www.topografix.com/GPX/1/1"
xmlns:xsi="http://www.w3.org/2001/XMLSchema-instance"
xsi:schemaLocation="http://www.topografix.com/GPX/1/1 http://www.topografix.com/GPX/1/1/gpx.xsd"
xmlns:gs="http://www.topografix.com/GPX/gpx_style/0/2"
xmlns:gh="https://graphhopper.com/public/schema/gpx/1.1"
xmlns:os="https://ordnancesurvey.co.uk/public/schema/route/0.1">
    <metadata>
        <name>Merryton Low (Ethel) - Circular (www.thelostpeak.co.uk)</name>
        <desc>www.thelostpeak.co.uk</desc>
        <bounds minlat="53.1243370" minlon="-1.9464900" maxlat="53.1519800" maxlon="-1.8835170"/>
        <extensions>
            <os:version>2.0</os:version>
            <os:point lat="53.1409860" lon="-1.9464900" type="start"/>
            <os:point lat="53.1409860" lon="-1.9464900" type="end"/>
            <os:activity>OTHER</os:activity>
            <os:difficulty>MODERATE</os:difficulty>
            <os:paths/>
            <os:distance>14478.3007737</os:distance>
            <os:elevation_ascent>464.9500000</os:elevation_ascent>
        </extensions>
    </metadata>
    <wpt lat="53.1409860" lon="-1.9464900"/>
    <wpt lat="53.1507300" lon="-1.9039100"/>
    <wpt lat="53.1504200" lon="-1.9065000"/>
    <wpt lat="53.1504800" lon="-1.9087500"/>
    <wpt lat="53.1458300" lon="-1.9283100"/>
    <wpt lat="53.1446600" lon="-1.9320600"/>
    <wpt lat="53.1435200" lon="-1.9332400"/>
    <wpt lat="53.1466800" lon="-1.9382600"/>
    <wpt lat="53.1461800" lon="-1.9395800"/>
    <wpt lat="53.1458500" lon="-1.9413500"/>
    <wpt lat="53.1439100" lon="-1.9427900"/>
    <wpt lat="53.1430200" lon="-1.9443400"/>
    <wpt lat="53.1420700" lon="-1.9447700"/>
    <wpt lat="53.1409860" lon="-1.9464900"/>
    <trk>
        <name>Merryton Low (Ethel) - Circular (www.thelostpeak.co.uk)</name>
        <trkseg>
            <trkpt lat="53.1409860" lon="-1.9464900"><ele>446.1</ele></trkpt>
            <trkpt lat="53.1411450" lon="-1.9461020"><ele>447.1</ele></trkpt>
            <trkpt lat="53.1409020" lon="-1.9453150"><ele>447.9</ele></trkpt>
            <trkpt lat="53.1407720" lon="-1.9446320"><ele>447.0</ele></trkpt>
            <trkpt lat="53.1393700" lon="-1.9444850"><ele>439.2</ele></trkpt>
            <trkpt lat="53.1386330" lon="-1.9443040"><ele>434.4</ele></trkpt>
            <trkpt lat="53.1384030" lon="-1.9442980"><ele>433.3</ele></trkpt>
            <trkpt lat="53.1381650" lon="-1.9443570"><ele>432.3</ele></trkpt>
            <trkpt lat="53.1376110" lon="-1.9446400"><ele>428.7</ele></trkpt>
            <trkpt lat="53.1375890" lon="-1.9446220"><ele>428.5</ele></trkpt>
            <trkpt lat="53.1374340" lon="-1.9439520"><ele>425.7</ele></trkpt>
            <trkpt lat="53.1369700" lon="-1.9432880"><ele>420.4</ele></trkpt>
            <trkpt lat="53.1365380" lon="-1.9430620"><ele>415.7</ele></trkpt>
            <trkpt lat="53.1362460" lon="-1.9431950"><ele>413.8</ele></trkpt>
            <trkpt lat="53.1359480" lon="-1.9434050"><ele>412.1</ele></trkpt>
            <trkpt lat="53.1355910" lon="-1.9433980"><ele>410.6</ele></trkpt>
            <trkpt lat="53.1355480" lon="-1.9433160"><ele>410.5</ele></trkpt>
            <trkpt lat="53.1354350" lon="-1.9432260"><ele>410.8</ele></trkpt>
            <trkpt lat="53.1353190" lon="-1.9432560"><ele>411.5</ele></trkpt>
            <trkpt lat="53.1352540" lon="-1.9431530"><ele>411.6</ele></trkpt>
            <trkpt lat="53.1349280" lon="-1.9428290"><ele>414.8</ele></trkpt>
            <trkpt lat="53.1347230" lon="-1.9427000"><ele>416.3</ele></trkpt>
            <trkpt lat="53.1345580" lon="-1.9426250"><ele>417.8</ele></trkpt>
            <trkpt lat="53.1343520" lon="-1.9426310"><ele>420.2</ele></trkpt>
            <trkpt lat="53.1337190" lon="-1.9422610"><ele>423.4</ele></trkpt>
            <trkpt lat="53.1328680" lon="-1.9418210"><ele>431.3</ele></trkpt>
            <trkpt lat="53.1322900" lon="-1.9412580"><ele>427.8</ele></trkpt>
            <trkpt lat="53.1318130" lon="-1.9411740"><ele>428.5</ele></trkpt>
            <trkpt lat="53.1313640" lon="-1.9411920"><ele>427.7</ele></trkpt>
            <trkpt lat="53.1304090" lon="-1.9407590"><ele>424.4</ele></trkpt>
            <trkpt lat="53.1301140" lon="-1.9405410"><ele>423.8</ele></trkpt>
            <trkpt lat="53.1299570" lon="-1.9404640"><ele>424.0</ele></trkpt>
            <trkpt lat="53.1297780" lon="-1.9403390"><ele>423.6</ele></trkpt>
            <trkpt lat="53.1296910" lon="-1.9401670"><ele>423.1</ele></trkpt>
            <trkpt lat="53.1297210" lon="-1.9401000"><ele>422.7</ele></trkpt>
            <trkpt lat="53.1295790" lon="-1.9400080"><ele>422.5</ele></trkpt>
            <trkpt lat="53.1290010" lon="-1.9394360"><ele>418.4</ele></trkpt>
            <trkpt lat="53.1285350" lon="-1.9385520"><ele>409.2</ele></trkpt>
            <trkpt lat="53.1280330" lon="-1.9380560"><ele>402.6</ele></trkpt>
            <trkpt lat="53.1279750" lon="-1.9378240"><ele>400.9</ele></trkpt>
            <trkpt lat="53.1279670" lon="-1.9375040"><ele>399.3</ele></trkpt>
            <trkpt lat="53.1277070" lon="-1.9375340"><ele>398.2</ele></trkpt>
            <trkpt lat="53.1267350" lon="-1.9368170"><ele>388.4</ele></trkpt>
            <trkpt lat="53.1265660" lon="-1.9367260"><ele>387.7</ele></trkpt>
            <trkpt lat="53.1263500" lon="-1.9367220"><ele>386.6</ele></trkpt>
            <trkpt lat="53.1261510" lon="-1.9364160"><ele>385.4</ele></trkpt>
            <trkpt lat="53.1261400" lon="-1.9361290"><ele>384.0</ele></trkpt>
            <trkpt lat="53.1260880" lon="-1.9358890"><ele>382.6</ele></trkpt>
            <trkpt lat="53.1259220" lon="-1.9355440"><ele>381.2</ele></trkpt>
            <trkpt lat="53.1258260" lon="-1.9355050"><ele>381.3</ele></trkpt>
            <trkpt lat="53.1256410" lon="-1.9355550"><ele>381.7</ele></trkpt>
            <trkpt lat="53.1256180" lon="-1.9354900"><ele>381.5</ele></trkpt>
            <trkpt lat="53.1256240" lon="-1.9354460"><ele>381.2</ele></trkpt>
            <trkpt lat="53.1255950" lon="-1.9354270"><ele>380.9</ele></trkpt>
            <trkpt lat="53.1253550" lon="-1.9347560"><ele>375.7</ele></trkpt>
            <trkpt lat="53.1253330" lon="-1.9347470"><ele>375.5</ele></trkpt>
            <trkpt lat="53.1253400" lon="-1.9347100"><ele>375.5</ele></trkpt>
            <trkpt lat="53.1252660" lon="-1.9344940"><ele>375.0</ele></trkpt>
            <trkpt lat="53.1251300" lon="-1.9342980"><ele>374.8</ele></trkpt>
            <trkpt lat="53.1250870" lon="-1.9340090"><ele>374.3</ele></trkpt>
            <trkpt lat="53.1249990" lon="-1.9338840"><ele>374.0</ele></trkpt>
            <trkpt lat="53.1247180" lon="-1.9340190"><ele>374.0</ele></trkpt>
            <trkpt lat="53.1246640" lon="-1.9340240"><ele>373.8</ele></trkpt>
            <trkpt lat="53.1246830" lon="-1.9339790"><ele>373.9</ele></trkpt>
            <trkpt lat="53.1247240" lon="-1.9331550"><ele>368.4</ele></trkpt>
            <trkpt lat="53.1246740" lon="-1.9326560"><ele>365.0</ele></trkpt>
            <trkpt lat="53.1246240" lon="-1.9325700"><ele>364.9</ele></trkpt>
            <trkpt lat="53.1246110" lon="-1.9301630"><ele>382.3</ele></trkpt>
            <trkpt lat="53.1246450" lon="-1.9292200"><ele>389.1</ele></trkpt>
            <trkpt lat="53.1244040" lon="-1.9275260"><ele>400.4</ele></trkpt>
            <trkpt lat="53.1243480" lon="-1.9265710"><ele>404.8</ele></trkpt>
            <trkpt lat="53.1243370" lon="-1.9257970"><ele>409.7</ele></trkpt>
            <trkpt lat="53.1244370" lon="-1.9251220"><ele>417.4</ele></trkpt>
            <trkpt lat="53.1245570" lon="-1.9251020"><ele>417.4</ele></trkpt>
            <trkpt lat="53.1244000" lon="-1.9242330"><ele>422.7</ele></trkpt>
            <trkpt lat="53.1245570" lon="-1.9251020"><ele>417.4</ele></trkpt>
            <trkpt lat="53.1248920" lon="-1.9249830"><ele>419.0</ele></trkpt>
            <trkpt lat="53.1251410" lon="-1.9248440"><ele>421.3</ele></trkpt>
            <trkpt lat="53.1253230" lon="-1.9248170"><ele>421.9</ele></trkpt>
            <trkpt lat="53.1255570" lon="-1.9248480"><ele>421.0</ele></trkpt>
            <trkpt lat="53.1258630" lon="-1.9249640"><ele>420.7</ele></trkpt>
            <trkpt lat="53.1258700" lon="-1.9248250"><ele>421.0</ele></trkpt>
            <trkpt lat="53.1263270" lon="-1.9235980"><ele>415.1</ele></trkpt>
            <trkpt lat="53.1266170" lon="-1.9226050"><ele>403.5</ele></trkpt>
            <trkpt lat="53.1268240" lon="-1.9216780"><ele>390.3</ele></trkpt>
            <trkpt lat="53.1268090" lon="-1.9209720"><ele>380.6</ele></trkpt>
            <trkpt lat="53.1265840" lon="-1.9208570"><ele>379.3</ele></trkpt>
            <trkpt lat="53.1258250" lon="-1.9208180"><ele>374.3</ele></trkpt>
            <trkpt lat="53.1255230" lon="-1.9207370"><ele>371.3</ele></trkpt>
            <trkpt lat="53.1254910" lon="-1.9207200"><ele>371.2</ele></trkpt>
            <trkpt lat="53.1254730" lon="-1.9206590"><ele>369.4</ele></trkpt>
            <trkpt lat="53.1254780" lon="-1.9205720"><ele>367.6</ele></trkpt>
            <trkpt lat="53.1255330" lon="-1.9205000"><ele>365.9</ele></trkpt>
            <trkpt lat="53.1256830" lon="-1.9204440"><ele>365.6</ele></trkpt>
            <trkpt lat="53.1260580" lon="-1.9200900"><ele>361.3</ele></trkpt>
            <trkpt lat="53.1261250" lon="-1.9200480"><ele>360.7</ele></trkpt>
            <trkpt lat="53.1266060" lon="-1.9199060"><ele>360.0</ele></trkpt>
            <trkpt lat="53.1271180" lon="-1.9195800"><ele>353.5</ele></trkpt>
            <trkpt lat="53.1274590" lon="-1.9194700"><ele>348.5</ele></trkpt>
            <trkpt lat="53.1275720" lon="-1.9192480"><ele>343.6</ele></trkpt>
            <trkpt lat="53.1277790" lon="-1.9192150"><ele>341.2</ele></trkpt>
            <trkpt lat="53.1281030" lon="-1.9193330"><ele>340.4</ele></trkpt>
            <trkpt lat="53.1281640" lon="-1.9192470"><ele>338.4</ele></trkpt>
            <trkpt lat="53.1282760" lon="-1.9192860"><ele>338.1</ele></trkpt>
            <trkpt lat="53.1284540" lon="-1.9191910"><ele>336.2</ele></trkpt>
            <trkpt lat="53.1285530" lon="-1.9189520"><ele>334.1</ele></trkpt>
            <trkpt lat="53.1285960" lon="-1.9189180"><ele>334.1</ele></trkpt>
            <trkpt lat="53.1285180" lon="-1.9184380"><ele>327.8</ele></trkpt>
            <trkpt lat="53.1285440" lon="-1.9182620"><ele>325.5</ele></trkpt>
            <trkpt lat="53.1287150" lon="-1.9180930"><ele>323.1</ele></trkpt>
            <trkpt lat="53.1287300" lon="-1.9180290"><ele>322.7</ele></trkpt>
            <trkpt lat="53.1286860" lon="-1.9178820"><ele>320.9</ele></trkpt>
            <trkpt lat="53.1284130" lon="-1.9176230"><ele>317.6</ele></trkpt>
            <trkpt lat="53.1284730" lon="-1.9171950"><ele>314.0</ele></trkpt>
            <trkpt lat="53.1297200" lon="-1.9144750"><ele>290.1</ele></trkpt>
            <trkpt lat="53.1298070" lon="-1.9144270"><ele>290.5</ele></trkpt>
            <trkpt lat="53.1298450" lon="-1.9143380"><ele>291.1</ele></trkpt>
            <trkpt lat="53.1298730" lon="-1.9143220"><ele>291.5</ele></trkpt>
            <trkpt lat="53.1298710" lon="-1.9142510"><ele>291.8</ele></trkpt>
            <trkpt lat="53.1299340" lon="-1.9142100"><ele>292.8</ele></trkpt>
            <trkpt lat="53.1299430" lon="-1.9141650"><ele>293.4</ele></trkpt>
            <trkpt lat="53.1297130" lon="-1.9133290"><ele>306.3</ele></trkpt>
            <trkpt lat="53.1297140" lon="-1.9132200"><ele>308.1</ele></trkpt>
            <trkpt lat="53.1294350" lon="-1.9127160"><ele>312.2</ele></trkpt>
            <trkpt lat="53.1294200" lon="-1.9124160"><ele>316.0</ele></trkpt>
            <trkpt lat="53.1298270" lon="-1.9115470"><ele>326.3</ele></trkpt>
            <trkpt lat="53.1298700" lon="-1.9107880"><ele>329.4</ele></trkpt>
            <trkpt lat="53.1295130" lon="-1.9099250"><ele>324.7</ele></trkpt>
            <trkpt lat="53.1293010" lon="-1.9097120"><ele>322.9</ele></trkpt>
            <trkpt lat="53.1292360" lon="-1.9095760"><ele>322.0</ele></trkpt>
            <trkpt lat="53.1291370" lon="-1.9090960"><ele>321.2</ele></trkpt>
            <trkpt lat="53.1290120" lon="-1.9088830"><ele>321.0</ele></trkpt>
            <trkpt lat="53.1289500" lon="-1.9081910"><ele>322.9</ele></trkpt>
            <trkpt lat="53.1292480" lon="-1.9076990"><ele>323.8</ele></trkpt>
            <trkpt lat="53.1298290" lon="-1.9063260"><ele>321.0</ele></trkpt>
            <trkpt lat="53.1300710" lon="-1.9053090"><ele>323.3</ele></trkpt>
            <trkpt lat="53.1301470" lon="-1.9048320"><ele>325.1</ele></trkpt>
            <trkpt lat="53.1302450" lon="-1.9038790"><ele>327.9</ele></trkpt>
            <trkpt lat="53.1297810" lon="-1.9030360"><ele>326.6</ele></trkpt>
            <trkpt lat="53.1294170" lon="-1.9020960"><ele>327.0</ele></trkpt>
            <trkpt lat="53.1292170" lon="-1.9014140"><ele>327.3</ele></trkpt>
            <trkpt lat="53.1288540" lon="-1.9008430"><ele>324.8</ele></trkpt>
            <trkpt lat="53.1282880" lon="-1.8995840"><ele>321.1</ele></trkpt>
            <trkpt lat="53.1282490" lon="-1.8993190"><ele>320.9</ele></trkpt>
            <trkpt lat="53.1283280" lon="-1.8988510"><ele>322.9</ele></trkpt>
            <trkpt lat="53.1283140" lon="-1.8988430"><ele>322.9</ele></trkpt>
            <trkpt lat="53.1283320" lon="-1.8987790"><ele>323.1</ele></trkpt>
            <trkpt lat="53.1284000" lon="-1.8981320"><ele>324.7</ele></trkpt>
            <trkpt lat="53.1284830" lon="-1.8977170"><ele>325.8</ele></trkpt>
            <trkpt lat="53.1284340" lon="-1.8961710"><ele>327.5</ele></trkpt>
            <trkpt lat="53.1284870" lon="-1.8960160"><ele>327.7</ele></trkpt>
            <trkpt lat="53.1283180" lon="-1.8945540"><ele>328.3</ele></trkpt>
            <trkpt lat="53.1283780" lon="-1.8942620"><ele>328.9</ele></trkpt>
            <trkpt lat="53.1284930" lon="-1.8938940"><ele>330.9</ele></trkpt>
            <trkpt lat="53.1284420" lon="-1.8933790"><ele>330.8</ele></trkpt>
            <trkpt lat="53.1285350" lon="-1.8932450"><ele>331.6</ele></trkpt>
            <trkpt lat="53.1285390" lon="-1.8931670"><ele>331.6</ele></trkpt>
            <trkpt lat="53.1287150" lon="-1.8922900"><ele>333.9</ele></trkpt>
            <trkpt lat="53.1288630" lon="-1.8918190"><ele>337.3</ele></trkpt>
            <trkpt lat="53.1288580" lon="-1.8913530"><ele>338.9</ele></trkpt>
            <trkpt lat="53.1288960" lon="-1.8909580"><ele>340.2</ele></trkpt>
            <trkpt lat="53.1290170" lon="-1.8905650"><ele>341.3</ele></trkpt>
            <trkpt lat="53.1291240" lon="-1.8903540"><ele>342.0</ele></trkpt>
            <trkpt lat="53.1291920" lon="-1.8902760"><ele>342.8</ele></trkpt>
            <trkpt lat="53.1297610" lon="-1.8898250"><ele>349.2</ele></trkpt>
            <trkpt lat="53.1308410" lon="-1.8884980"><ele>359.1</ele></trkpt>
            <trkpt lat="53.1310340" lon="-1.8882940"><ele>359.8</ele></trkpt>
            <trkpt lat="53.1308360" lon="-1.8877820"><ele>357.6</ele></trkpt>
            <trkpt lat="53.1304460" lon="-1.8868920"><ele>353.5</ele></trkpt>
            <trkpt lat="53.1296170" lon="-1.8852490"><ele>352.0</ele></trkpt>
            <trkpt lat="53.1304260" lon="-1.8845630"><ele>360.3</ele></trkpt>
            <trkpt lat="53.1305520" lon="-1.8845060"><ele>360.7</ele></trkpt>
            <trkpt lat="53.1312550" lon="-1.8846960"><ele>360.3</ele></trkpt>
            <trkpt lat="53.1324100" lon="-1.8848170"><ele>363.8</ele></trkpt>
            <trkpt lat="53.1328800" lon="-1.8848130"><ele>365.0</ele></trkpt>
            <trkpt lat="53.1337870" lon="-1.8847310"><ele>372.0</ele></trkpt>
            <trkpt lat="53.1338880" lon="-1.8847400"><ele>372.4</ele></trkpt>
            <trkpt lat="53.1349190" lon="-1.8846610"><ele>380.1</ele></trkpt>
            <trkpt lat="53.1354050" lon="-1.8843500"><ele>384.5</ele></trkpt>
            <trkpt lat="53.1360120" lon="-1.8838340"><ele>390.8</ele></trkpt>
            <trkpt lat="53.1360510" lon="-1.8843490"><ele>393.6</ele></trkpt>
            <trkpt lat="53.1360350" lon="-1.8845810"><ele>394.1</ele></trkpt>
            <trkpt lat="53.1360830" lon="-1.8846980"><ele>395.1</ele></trkpt>
            <trkpt lat="53.1362890" lon="-1.8848230"><ele>397.3</ele></trkpt>
            <trkpt lat="53.1363220" lon="-1.8857890"><ele>399.8</ele></trkpt>
            <trkpt lat="53.1362890" lon="-1.8848230"><ele>397.3</ele></trkpt>
            <trkpt lat="53.1363490" lon="-1.8847070"><ele>397.1</ele></trkpt>
            <trkpt lat="53.1364730" lon="-1.8845990"><ele>396.9</ele></trkpt>
            <trkpt lat="53.1366480" lon="-1.8842920"><ele>395.0</ele></trkpt>
            <trkpt lat="53.1368110" lon="-1.8841820"><ele>394.9</ele></trkpt>
            <trkpt lat="53.1371250" lon="-1.8840390"><ele>392.5</ele></trkpt>
            <trkpt lat="53.1373310" lon="-1.8838900"><ele>389.8</ele></trkpt>
            <trkpt lat="53.1374490" lon="-1.8836730"><ele>387.7</ele></trkpt>
            <trkpt lat="53.1374590" lon="-1.8836040"><ele>387.2</ele></trkpt>
            <trkpt lat="53.1383240" lon="-1.8835790"><ele>381.6</ele></trkpt>
            <trkpt lat="53.1388890" lon="-1.8836170"><ele>375.2</ele></trkpt>
            <trkpt lat="53.1399460" lon="-1.8836210"><ele>369.8</ele></trkpt>
            <trkpt lat="53.1404600" lon="-1.8835960"><ele>363.4</ele></trkpt>
            <trkpt lat="53.1412930" lon="-1.8837810"><ele>355.5</ele></trkpt>
            <trkpt lat="53.1413600" lon="-1.8838640"><ele>355.0</ele></trkpt>
            <trkpt lat="53.1414440" lon="-1.8839100"><ele>353.7</ele></trkpt>
            <trkpt lat="53.1419870" lon="-1.8841320"><ele>347.6</ele></trkpt>
            <trkpt lat="53.1447970" lon="-1.8851790"><ele>329.5</ele></trkpt>
            <trkpt lat="53.1455160" lon="-1.8851650"><ele>325.7</ele></trkpt>
            <trkpt lat="53.1456020" lon="-1.8850860"><ele>325.1</ele></trkpt>
            <trkpt lat="53.1469910" lon="-1.8835170"><ele>320.0</ele></trkpt>
            <trkpt lat="53.1469450" lon="-1.8837560"><ele>319.9</ele></trkpt>
            <trkpt lat="53.1469290" lon="-1.8843120"><ele>318.0</ele></trkpt>
            <trkpt lat="53.1475700" lon="-1.8849470"><ele>314.2</ele></trkpt>
            <trkpt lat="53.1486670" lon="-1.8864340"><ele>306.0</ele></trkpt>
            <trkpt lat="53.1492080" lon="-1.8874230"><ele>301.2</ele></trkpt>
            <trkpt lat="53.1494710" lon="-1.8877590"><ele>299.2</ele></trkpt>
            <trkpt lat="53.1497500" lon="-1.8880030"><ele>296.3</ele></trkpt>
            <trkpt lat="53.1498860" lon="-1.8879790"><ele>295.2</ele></trkpt>
            <trkpt lat="53.1500720" lon="-1.8878180"><ele>295.6</ele></trkpt>
            <trkpt lat="53.1502140" lon="-1.8879050"><ele>295.1</ele></trkpt>
            <trkpt lat="53.1519680" lon="-1.8903170"><ele>277.6</ele></trkpt>
            <trkpt lat="53.1519440" lon="-1.8905960"><ele>277.1</ele></trkpt>
            <trkpt lat="53.1519800" lon="-1.8907030"><ele>276.8</ele></trkpt>
            <trkpt lat="53.1519780" lon="-1.8910250"><ele>276.9</ele></trkpt>
            <trkpt lat="53.1514830" lon="-1.8941830"><ele>282.9</ele></trkpt>
            <trkpt lat="53.1510480" lon="-1.8959760"><ele>287.9</ele></trkpt>
            <trkpt lat="53.1508500" lon="-1.8968850"><ele>291.6</ele></trkpt>
            <trkpt lat="53.1506910" lon="-1.8978060"><ele>293.5</ele></trkpt>
            <trkpt lat="53.1506270" lon="-1.8983500"><ele>295.8</ele></trkpt>
            <trkpt lat="53.1506290" lon="-1.8994180"><ele>302.2</ele></trkpt>
            <trkpt lat="53.1506560" lon="-1.8999300"><ele>304.1</ele></trkpt>
            <trkpt lat="53.1506110" lon="-1.9003810"><ele>305.5</ele></trkpt>
            <trkpt lat="53.1505250" lon="-1.9009060"><ele>307.6</ele></trkpt>
            <trkpt lat="53.1503150" lon="-1.9017400"><ele>308.3</ele></trkpt>
            <trkpt lat="53.1502850" lon="-1.9021580"><ele>309.2</ele></trkpt>
            <trkpt lat="53.1503930" lon="-1.9023110"><ele>309.6</ele></trkpt>
            <trkpt lat="53.1506730" lon="-1.9032890"><ele>310.2</ele></trkpt>
            <trkpt lat="53.1507350" lon="-1.9037300"><ele>311.9</ele></trkpt>
            <trkpt lat="53.1507300" lon="-1.9039100"><ele>312.6</ele></trkpt>
            <trkpt lat="53.1506140" lon="-1.9045330"><ele>315.5</ele></trkpt>
            <trkpt lat="53.1504760" lon="-1.9064730"><ele>324.7</ele></trkpt>
            <trkpt lat="53.1504200" lon="-1.9065000"><ele>324.5</ele></trkpt>
            <trkpt lat="53.1504800" lon="-1.9087500"><ele>337.8</ele></trkpt>
            <trkpt lat="53.1503490" lon="-1.9093240"><ele>340.9</ele></trkpt>
            <trkpt lat="53.1501770" lon="-1.9093840"><ele>340.4</ele></trkpt>
            <trkpt lat="53.1501680" lon="-1.9094710"><ele>341.2</ele></trkpt>
            <trkpt lat="53.1499540" lon="-1.9098540"><ele>343.5</ele></trkpt>
            <trkpt lat="53.1495260" lon="-1.9102300"><ele>343.9</ele></trkpt>
            <trkpt lat="53.1494040" lon="-1.9104600"><ele>345.2</ele></trkpt>
            <trkpt lat="53.1493040" lon="-1.9109270"><ele>348.8</ele></trkpt>
            <trkpt lat="53.1487940" lon="-1.9116530"><ele>350.2</ele></trkpt>
            <trkpt lat="53.1487670" lon="-1.9116770"><ele>350.3</ele></trkpt>
            <trkpt lat="53.1486550" lon="-1.9115140"><ele>348.7</ele></trkpt>
            <trkpt lat="53.1485290" lon="-1.9111740"><ele>346.5</ele></trkpt>
            <trkpt lat="53.1484400" lon="-1.9114150"><ele>347.0</ele></trkpt>
            <trkpt lat="53.1482270" lon="-1.9121830"><ele>348.8</ele></trkpt>
            <trkpt lat="53.1481490" lon="-1.9123320"><ele>348.6</ele></trkpt>
            <trkpt lat="53.1479580" lon="-1.9125450"><ele>347.2</ele></trkpt>
            <trkpt lat="53.1477410" lon="-1.9128820"><ele>346.9</ele></trkpt>
            <trkpt lat="53.1475820" lon="-1.9132380"><ele>347.1</ele></trkpt>
            <trkpt lat="53.1474420" lon="-1.9136950"><ele>348.5</ele></trkpt>
            <trkpt lat="53.1473320" lon="-1.9144950"><ele>350.5</ele></trkpt>
            <trkpt lat="53.1473450" lon="-1.9148540"><ele>352.1</ele></trkpt>
            <trkpt lat="53.1474050" lon="-1.9152540"><ele>353.9</ele></trkpt>
            <trkpt lat="53.1474800" lon="-1.9153370"><ele>355.0</ele></trkpt>
            <trkpt lat="53.1478340" lon="-1.9154600"><ele>358.8</ele></trkpt>
            <trkpt lat="53.1478840" lon="-1.9155410"><ele>359.5</ele></trkpt>
            <trkpt lat="53.1478480" lon="-1.9158570"><ele>360.0</ele></trkpt>
            <trkpt lat="53.1478100" lon="-1.9166750"><ele>361.0</ele></trkpt>
            <trkpt lat="53.1477330" lon="-1.9168080"><ele>361.0</ele></trkpt>
            <trkpt lat="53.1477030" lon="-1.9170180"><ele>361.0</ele></trkpt>
            <trkpt lat="53.1475670" lon="-1.9170460"><ele>361.0</ele></trkpt>
            <trkpt lat="53.1475250" lon="-1.9171700"><ele>360.6</ele></trkpt>
            <trkpt lat="53.1475570" lon="-1.9174340"><ele>359.9</ele></trkpt>
            <trkpt lat="53.1475690" lon="-1.9180640"><ele>358.6</ele></trkpt>
            <trkpt lat="53.1475850" lon="-1.9180930"><ele>358.6</ele></trkpt>
            <trkpt lat="53.1475430" lon="-1.9182210"><ele>358.0</ele></trkpt>
            <trkpt lat="53.1473980" lon="-1.9190220"><ele>352.4</ele></trkpt>
            <trkpt lat="53.1474160" lon="-1.9196820"><ele>347.7</ele></trkpt>
            <trkpt lat="53.1474070" lon="-1.9198670"><ele>347.1</ele></trkpt>
            <trkpt lat="53.1473440" lon="-1.9200930"><ele>348.0</ele></trkpt>
            <trkpt lat="53.1473390" lon="-1.9202130"><ele>349.1</ele></trkpt>
            <trkpt lat="53.1473560" lon="-1.9202550"><ele>349.5</ele></trkpt>
            <trkpt lat="53.1471690" lon="-1.9203130"><ele>349.7</ele></trkpt>
            <trkpt lat="53.1474610" lon="-1.9234900"><ele>367.8</ele></trkpt>
            <trkpt lat="53.1474420" lon="-1.9239410"><ele>368.5</ele></trkpt>
            <trkpt lat="53.1472150" lon="-1.9254090"><ele>378.8</ele></trkpt>
            <trkpt lat="53.1470620" lon="-1.9254430"><ele>380.4</ele></trkpt>
            <trkpt lat="53.1468240" lon="-1.9262690"><ele>387.1</ele></trkpt>
            <trkpt lat="53.1461160" lon="-1.9282000"><ele>403.0</ele></trkpt>
            <trkpt lat="53.1459550" lon="-1.9284040"><ele>405.4</ele></trkpt>
            <trkpt lat="53.1458300" lon="-1.9283100"><ele>403.9</ele></trkpt>
            <trkpt lat="53.1457330" lon="-1.9292130"><ele>416.3</ele></trkpt>
            <trkpt lat="53.1455750" lon="-1.9296060"><ele>421.1</ele></trkpt>
            <trkpt lat="53.1453900" lon="-1.9298500"><ele>424.2</ele></trkpt>
            <trkpt lat="53.1450200" lon="-1.9308300"><ele>434.7</ele></trkpt>
            <trkpt lat="53.1446600" lon="-1.9320600"><ele>446.6</ele></trkpt>
            <trkpt lat="53.1435200" lon="-1.9332400"><ele>448.2</ele></trkpt>
            <trkpt lat="53.1437000" lon="-1.9336000"><ele>449.1</ele></trkpt>
            <trkpt lat="53.1443500" lon="-1.9346200"><ele>456.3</ele></trkpt>
            <trkpt lat="53.1445460" lon="-1.9350550"><ele>457.7</ele></trkpt>
            <trkpt lat="53.1450400" lon="-1.9358300"><ele>463.6</ele></trkpt>
            <trkpt lat="53.1453060" lon="-1.9362830"><ele>466.8</ele></trkpt>
            <trkpt lat="53.1457000" lon="-1.9368000"><ele>470.7</ele></trkpt>
            <trkpt lat="53.1466800" lon="-1.9382600"><ele>482.1</ele></trkpt>
            <trkpt lat="53.1466600" lon="-1.9382900"><ele>482.4</ele></trkpt>
            <trkpt lat="53.1461800" lon="-1.9395800"><ele>484.7</ele></trkpt>
            <trkpt lat="53.1458500" lon="-1.9413500"><ele>479.2</ele></trkpt>
            <trkpt lat="53.1443200" lon="-1.9425300"><ele>466.9</ele></trkpt>
            <trkpt lat="53.1439100" lon="-1.9427900"><ele>466.0</ele></trkpt>
            <trkpt lat="53.1433600" lon="-1.9436500"><ele>461.6</ele></trkpt>
            <trkpt lat="53.1430200" lon="-1.9443400"><ele>461.3</ele></trkpt>
            <trkpt lat="53.1425700" lon="-1.9446600"><ele>457.3</ele></trkpt>
            <trkpt lat="53.1420700" lon="-1.9447700"><ele>454.9</ele></trkpt>
            <trkpt lat="53.1414800" lon="-1.9455100"><ele>448.0</ele></trkpt>
            <trkpt lat="53.1409860" lon="-1.9464900"><ele>446.1</ele></trkpt>
        </trkseg>
    </trk>
<!-- ele-hash:addad9ca1e3a83c3 -->
</gpx>
