<?xml version="1.0" encoding="UTF-8" standalone="yes"?>
<gpx version="1.1" creator="OS Maps - Web" xmlns="http://www.topografix.com/GPX/1/1"
xmlns:xsi="http://www.w3.org/2001/XMLSchema-instance"
xsi:schemaLocation="http://www.topografix.com/GPX/1/1 http://www.topografix.com/GPX/1/1/gpx.xsd"
xmlns:gs="http://www.topografix.com/GPX/gpx_style/0/2"
xmlns:gh="https://graphhopper.com/public/schema/gpx/1.1"
xmlns:os="https://ordnancesurvey.co.uk/public/schema/route/0.1">
    <metadata>
        <name>Mill Hill &amp; Lantern Pike (Ethels) - Circular (www.thelostpeak.co.uk)</name>
        <desc>www.thelostpeak.co.uk</desc>
        <bounds minlat="53.3768000" minlon="-1.9681500" maxlat="53.4122300" maxlon="-1.9046400"/>
        <extensions>
            <os:version>2.0</os:version>
            <os:point lat="53.3793400" lon="-1.9281400" type="start"/>
            <os:point lat="53.3793400" lon="-1.9281400" type="end"/>
            <os:activity>ON_FOOT_WALKING</os:activity>
            <os:difficulty>DIFFICULT</os:difficulty>
            <os:paths/>
            <os:distance>15094.3835499</os:distance>
            <os:elevation_ascent>541.0700000</os:elevation_ascent>
        </extensions>
    </metadata>
    <wpt lat="53.3793400" lon="-1.9281400"/>
    <wpt lat="53.3809700" lon="-1.9259400"/>
    <wpt lat="53.3824500" lon="-1.9248400"/>
    <wpt lat="53.3830100" lon="-1.9246200"/>
    <wpt lat="53.3841500" lon="-1.9248800"/>
    <wpt lat="53.3863500" lon="-1.9242200"/>
    <wpt lat="53.3904800" lon="-1.9213400"/>
    <wpt lat="53.3916800" lon="-1.9177000"/>
    <wpt lat="53.3915300" lon="-1.9167800"/>
    <wpt lat="53.3915600" lon="-1.9157700"/>
    <wpt lat="53.3924900" lon="-1.9128800"/>
    <wpt lat="53.3928700" lon="-1.9123400"/>
    <wpt lat="53.3949100" lon="-1.9121800"/>
    <wpt lat="53.3955800" lon="-1.9116400"/>
    <wpt lat="53.3962100" lon="-1.9115500"/>
    <wpt lat="53.3973300" lon="-1.9123100"/>
    <wpt lat="53.3984600" lon="-1.9120900"/>
    <wpt lat="53.4006200" lon="-1.9101400"/>
    <wpt lat="53.4039400" lon="-1.9085500"/>
    <wpt lat="53.4048300" lon="-1.9070900"/>
    <wpt lat="53.4060100" lon="-1.9057000"/>
    <wpt lat="53.4070300" lon="-1.9053700"/>
    <wpt lat="53.4077300" lon="-1.9046400"/>
    <wpt lat="53.4081200" lon="-1.9049600"/>
    <wpt lat="53.4093400" lon="-1.9067500"/>
    <wpt lat="53.4101400" lon="-1.9089200"/>
    <wpt lat="53.4112300" lon="-1.9108100"/>
    <wpt lat="53.4115300" lon="-1.9116100"/>
    <wpt lat="53.4121000" lon="-1.9146100"/>
    <wpt lat="53.4119900" lon="-1.9151200"/>
    <wpt lat="53.4122300" lon="-1.9178500"/>
    <wpt lat="53.4119900" lon="-1.9209100"/>
    <wpt lat="53.4115800" lon="-1.9217800"/>
    <wpt lat="53.4112700" lon="-1.9231200"/>
    <wpt lat="53.4101600" lon="-1.9294400"/>
    <wpt lat="53.4096200" lon="-1.9311300"/>
    <wpt lat="53.4086000" lon="-1.9329500"/>
    <wpt lat="53.4083100" lon="-1.9343200"/>
    <wpt lat="53.4082600" lon="-1.9359400"/>
    <wpt lat="53.4087100" lon="-1.9466100"/>
    <wpt lat="53.4089800" lon="-1.9507300"/>
    <wpt lat="53.4092400" lon="-1.9524300"/>
    <wpt lat="53.4092400" lon="-1.9549700"/>
    <wpt lat="53.4105500" lon="-1.9577600"/>
    <wpt lat="53.4091200" lon="-1.9588200"/>
    <wpt lat="53.4084500" lon="-1.9603900"/>
    <wpt lat="53.4076900" lon="-1.9612900"/>
    <wpt lat="53.4040000" lon="-1.9625800"/>
    <wpt lat="53.4028900" lon="-1.9632300"/>
    <wpt lat="53.4029400" lon="-1.9641800"/>
    <wpt lat="53.4027800" lon="-1.9653600"/>
    <wpt lat="53.4018700" lon="-1.9646500"/>
    <wpt lat="53.4008100" lon="-1.9651300"/>
    <wpt lat="53.3982800" lon="-1.9646100"/>
    <wpt lat="53.3978700" lon="-1.9642800"/>
    <wpt lat="53.3973700" lon="-1.9633500"/>
    <wpt lat="53.3952500" lon="-1.9620100"/>
    <wpt lat="53.3943100" lon="-1.9611600"/>
    <wpt lat="53.3937900" lon="-1.9610200"/>
    <wpt lat="53.3928100" lon="-1.9617200"/>
    <wpt lat="53.3922900" lon="-1.9616500"/>
    <wpt lat="53.3910100" lon="-1.9622500"/>
    <wpt lat="53.3902000" lon="-1.9622100"/>
    <wpt lat="53.3889500" lon="-1.9625900"/>
    <wpt lat="53.3874800" lon="-1.9638200"/>
    <wpt lat="53.3873500" lon="-1.9618000"/>
    <wpt lat="53.3867200" lon="-1.9623000"/>
    <wpt lat="53.3861400" lon="-1.9635300"/>
    <wpt lat="53.3856200" lon="-1.9640800"/>
    <wpt lat="53.3837200" lon="-1.9651900"/>
    <wpt lat="53.3835200" lon="-1.9656700"/>
    <wpt lat="53.3815300" lon="-1.9681500"/>
    <wpt lat="53.3819200" lon="-1.9672500"/>
    <wpt lat="53.3821500" lon="-1.9661700"/>
    <wpt lat="53.3820000" lon="-1.9653300"/>
    <wpt lat="53.3818500" lon="-1.9655800"/>
    <wpt lat="53.3804300" lon="-1.9659000"/>
    <wpt lat="53.3801100" lon="-1.9654200"/>
    <wpt lat="53.3796400" lon="-1.9656600"/>
    <wpt lat="53.3790500" lon="-1.9654000"/>
    <wpt lat="53.3794500" lon="-1.9635300"/>
    <wpt lat="53.3804600" lon="-1.9603400"/>
    <wpt lat="53.3806100" lon="-1.9572900"/>
    <wpt lat="53.3793200" lon="-1.9500900"/>
    <wpt lat="53.3792700" lon="-1.9496300"/>
    <wpt lat="53.3795600" lon="-1.9477300"/>
    <wpt lat="53.3792900" lon="-1.9456400"/>
    <wpt lat="53.3782200" lon="-1.9450200"/>
    <wpt lat="53.3773600" lon="-1.9431300"/>
    <wpt lat="53.3773100" lon="-1.9413600"/>
    <wpt lat="53.3768000" lon="-1.9372100"/>
    <wpt lat="53.3770000" lon="-1.9352600"/>
    <wpt lat="53.3769600" lon="-1.9340400"/>
    <wpt lat="53.3774700" lon="-1.9310700"/>
    <wpt lat="53.3787800" lon="-1.9281300"/>
    <wpt lat="53.3790200" lon="-1.9280600"/>
    <wpt lat="53.3790400" lon="-1.9283700"/>
    <wpt lat="53.3793400" lon="-1.9281400"/>
    <trk>
        <name>Mill Hill &amp; Lantern Pike (Ethels) - Circular (www.thelostpeak.co.uk)</name>
        <trkseg>
            <trkpt lat="53.3793400" lon="-1.9281400"/>
            <trkpt lat="53.3797000" lon="-1.9278100"/>
            <trkpt lat="53.3800500" lon="-1.9272200"/>
            <trkpt lat="53.3805000" lon="-1.9266100"/>
            <trkpt lat="53.3806700" lon="-1.9263500"/>
            <trkpt lat="53.3809700" lon="-1.9259400"/>
            <trkpt lat="53.3813000" lon="-1.9255900"/>
            <trkpt lat="53.3817200" lon="-1.9253000"/>
            <trkpt lat="53.3824500" lon="-1.9248400"/>
            <trkpt lat="53.3828200" lon="-1.9246700"/>
            <trkpt lat="53.3830100" lon="-1.9246200"/>
            <trkpt lat="53.3831800" lon="-1.9246600"/>
            <trkpt lat="53.3834300" lon="-1.9247800"/>
            <trkpt lat="53.3838300" lon="-1.9249200"/>
            <trkpt lat="53.3841500" lon="-1.9248800"/>
            <trkpt lat="53.3845900" lon="-1.9246300"/>
            <trkpt lat="53.3847700" lon="-1.9245500"/>
            <trkpt lat="53.3849500" lon="-1.9245100"/>
            <trkpt lat="53.3856600" lon="-1.9244400"/>
            <trkpt lat="53.3863500" lon="-1.9242200"/>
            <trkpt lat="53.3871400" lon="-1.9237500"/>
            <trkpt lat="53.3876500" lon="-1.9233800"/>
            <trkpt lat="53.3880800" lon="-1.9230300"/>
            <trkpt lat="53.3888000" lon="-1.9225200"/>
            <trkpt lat="53.3890600" lon="-1.9224500"/>
            <trkpt lat="53.3891800" lon="-1.9223800"/>
            <trkpt lat="53.3894200" lon="-1.9221500"/>
            <trkpt lat="53.3898700" lon="-1.9219000"/>
            <trkpt lat="53.3899600" lon="-1.9217800"/>
            <trkpt lat="53.3901700" lon="-1.9215900"/>
            <trkpt lat="53.3904000" lon="-1.9214300"/>
            <trkpt lat="53.3904800" lon="-1.9213400"/>
            <trkpt lat="53.3906300" lon="-1.9210000"/>
            <trkpt lat="53.3907800" lon="-1.9203900"/>
            <trkpt lat="53.3909300" lon="-1.9199100"/>
            <trkpt lat="53.3910600" lon="-1.9195800"/>
            <trkpt lat="53.3911000" lon="-1.9193800"/>
            <trkpt lat="53.3911600" lon="-1.9192200"/>
            <trkpt lat="53.3913300" lon="-1.9189200"/>
            <trkpt lat="53.3914800" lon="-1.9186000"/>
            <trkpt lat="53.3916800" lon="-1.9177000"/>
            <trkpt lat="53.3916900" lon="-1.9175400"/>
            <trkpt lat="53.3916400" lon="-1.9174600"/>
            <trkpt lat="53.3915800" lon="-1.9172600"/>
            <trkpt lat="53.3915300" lon="-1.9167800"/>
            <trkpt lat="53.3915400" lon="-1.9163100"/>
            <trkpt lat="53.3915300" lon="-1.9159000"/>
            <trkpt lat="53.3915600" lon="-1.9157700"/>
            <trkpt lat="53.3917600" lon="-1.9150600"/>
            <trkpt lat="53.3920500" lon="-1.9142400"/>
            <trkpt lat="53.3922700" lon="-1.9135100"/>
            <trkpt lat="53.3924900" lon="-1.9128800"/>
            <trkpt lat="53.3926100" lon="-1.9126300"/>
            <trkpt lat="53.3927200" lon="-1.9124800"/>
            <trkpt lat="53.3928700" lon="-1.9123400"/>
            <trkpt lat="53.3930800" lon="-1.9122700"/>
            <trkpt lat="53.3937100" lon="-1.9123400"/>
            <trkpt lat="53.3940600" lon="-1.9123300"/>
            <trkpt lat="53.3947800" lon="-1.9121800"/>
            <trkpt lat="53.3949100" lon="-1.9121800"/>
            <trkpt lat="53.3952300" lon="-1.9120200"/>
            <trkpt lat="53.3953900" lon="-1.9118900"/>
            <trkpt lat="53.3954900" lon="-1.9116900"/>
            <trkpt lat="53.3955200" lon="-1.9116900"/>
            <trkpt lat="53.3955800" lon="-1.9116400"/>
            <trkpt lat="53.3959200" lon="-1.9116400"/>
            <trkpt lat="53.3962100" lon="-1.9115500"/>
            <trkpt lat="53.3964400" lon="-1.9116000"/>
            <trkpt lat="53.3965500" lon="-1.9116800"/>
            <trkpt lat="53.3967700" lon="-1.9117800"/>
            <trkpt lat="53.3969100" lon="-1.9119800"/>
            <trkpt lat="53.3969800" lon="-1.9120400"/>
            <trkpt lat="53.3970500" lon="-1.9120700"/>
            <trkpt lat="53.3971300" lon="-1.9121600"/>
            <trkpt lat="53.3972100" lon="-1.9121800"/>
            <trkpt lat="53.3972700" lon="-1.9122300"/>
            <trkpt lat="53.3973300" lon="-1.9123100"/>
            <trkpt lat="53.3974400" lon="-1.9122400"/>
            <trkpt lat="53.3976400" lon="-1.9121800"/>
            <trkpt lat="53.3977400" lon="-1.9122000"/>
            <trkpt lat="53.3978200" lon="-1.9121600"/>
            <trkpt lat="53.3980100" lon="-1.9121300"/>
            <trkpt lat="53.3980900" lon="-1.9121000"/>
            <trkpt lat="53.3982800" lon="-1.9121300"/>
            <trkpt lat="53.3984600" lon="-1.9120900"/>
            <trkpt lat="53.3985800" lon="-1.9119600"/>
            <trkpt lat="53.3988100" lon="-1.9119100"/>
            <trkpt lat="53.3988800" lon="-1.9118700"/>
            <trkpt lat="53.3989200" lon="-1.9118100"/>
            <trkpt lat="53.3990100" lon="-1.9117600"/>
            <trkpt lat="53.3990800" lon="-1.9116100"/>
            <trkpt lat="53.3990900" lon="-1.9115500"/>
            <trkpt lat="53.3992200" lon="-1.9114000"/>
            <trkpt lat="53.3993700" lon="-1.9111700"/>
            <trkpt lat="53.3995500" lon="-1.9109900"/>
            <trkpt lat="53.3996400" lon="-1.9110300"/>
            <trkpt lat="53.3997100" lon="-1.9110200"/>
            <trkpt lat="53.3999100" lon="-1.9108500"/>
            <trkpt lat="53.3999900" lon="-1.9107500"/>
            <trkpt lat="53.4001400" lon="-1.9106200"/>
            <trkpt lat="53.4003000" lon="-1.9105400"/>
            <trkpt lat="53.4004900" lon="-1.9102700"/>
            <trkpt lat="53.4006200" lon="-1.9101400"/>
            <trkpt lat="53.4006600" lon="-1.9101200"/>
            <trkpt lat="53.4007300" lon="-1.9101200"/>
            <trkpt lat="53.4010900" lon="-1.9099500"/>
            <trkpt lat="53.4011900" lon="-1.9098000"/>
            <trkpt lat="53.4014800" lon="-1.9096100"/>
            <trkpt lat="53.4018100" lon="-1.9096000"/>
            <trkpt lat="53.4023700" lon="-1.9093700"/>
            <trkpt lat="53.4024800" lon="-1.9092500"/>
            <trkpt lat="53.4026700" lon="-1.9091300"/>
            <trkpt lat="53.4027500" lon="-1.9089900"/>
            <trkpt lat="53.4028100" lon="-1.9089700"/>
            <trkpt lat="53.4029800" lon="-1.9088600"/>
            <trkpt lat="53.4036000" lon="-1.9087200"/>
            <trkpt lat="53.4038400" lon="-1.9086200"/>
            <trkpt lat="53.4039400" lon="-1.9085500"/>
            <trkpt lat="53.4040200" lon="-1.9084400"/>
            <trkpt lat="53.4041700" lon="-1.9081300"/>
            <trkpt lat="53.4043400" lon="-1.9079700"/>
            <trkpt lat="53.4043800" lon="-1.9079100"/>
            <trkpt lat="53.4046300" lon="-1.9074200"/>
            <trkpt lat="53.4048300" lon="-1.9070900"/>
            <trkpt lat="53.4050900" lon="-1.9068600"/>
            <trkpt lat="53.4053900" lon="-1.9064900"/>
            <trkpt lat="53.4057600" lon="-1.9061000"/>
            <trkpt lat="53.4058700" lon="-1.9059300"/>
            <trkpt lat="53.4059000" lon="-1.9059500"/>
            <trkpt lat="53.4059800" lon="-1.9058000"/>
            <trkpt lat="53.4060100" lon="-1.9057000"/>
            <trkpt lat="53.4060700" lon="-1.9056700"/>
            <trkpt lat="53.4061200" lon="-1.9056900"/>
            <trkpt lat="53.4062300" lon="-1.9056400"/>
            <trkpt lat="53.4063700" lon="-1.9056300"/>
            <trkpt lat="53.4070300" lon="-1.9053700"/>
            <trkpt lat="53.4074200" lon="-1.9051100"/>
            <trkpt lat="53.4075500" lon="-1.9049200"/>
            <trkpt lat="53.4076100" lon="-1.9048000"/>
            <trkpt lat="53.4077300" lon="-1.9046400"/>
            <trkpt lat="53.4077800" lon="-1.9047400"/>
            <trkpt lat="53.4078700" lon="-1.9048200"/>
            <trkpt lat="53.4079500" lon="-1.9048800"/>
            <trkpt lat="53.4081200" lon="-1.9049600"/>
            <trkpt lat="53.4082900" lon="-1.9051300"/>
            <trkpt lat="53.4084700" lon="-1.9053500"/>
            <trkpt lat="53.4086300" lon="-1.9055900"/>
            <trkpt lat="53.4087200" lon="-1.9057000"/>
            <trkpt lat="53.4087900" lon="-1.9058600"/>
            <trkpt lat="53.4088800" lon="-1.9059900"/>
            <trkpt lat="53.4089700" lon="-1.9061600"/>
            <trkpt lat="53.4090500" lon="-1.9062300"/>
            <trkpt lat="53.4091300" lon="-1.9064000"/>
            <trkpt lat="53.4092200" lon="-1.9065300"/>
            <trkpt lat="53.4093400" lon="-1.9067500"/>
            <trkpt lat="53.4094200" lon="-1.9069200"/>
            <trkpt lat="53.4095000" lon="-1.9072700"/>
            <trkpt lat="53.4095500" lon="-1.9073700"/>
            <trkpt lat="53.4095700" lon="-1.9074500"/>
            <trkpt lat="53.4096300" lon="-1.9075600"/>
            <trkpt lat="53.4096900" lon="-1.9078200"/>
            <trkpt lat="53.4098800" lon="-1.9082600"/>
            <trkpt lat="53.4099200" lon="-1.9084300"/>
            <trkpt lat="53.4099900" lon="-1.9085500"/>
            <trkpt lat="53.4100300" lon="-1.9086800"/>
            <trkpt lat="53.4101400" lon="-1.9089200"/>
            <trkpt lat="53.4102400" lon="-1.9090600"/>
            <trkpt lat="53.4103700" lon="-1.9092800"/>
            <trkpt lat="53.4105100" lon="-1.9094500"/>
            <trkpt lat="53.4106100" lon="-1.9096400"/>
            <trkpt lat="53.4107600" lon="-1.9098600"/>
            <trkpt lat="53.4109100" lon="-1.9101200"/>
            <trkpt lat="53.4112300" lon="-1.9108100"/>
            <trkpt lat="53.4112600" lon="-1.9110400"/>
            <trkpt lat="53.4113200" lon="-1.9111400"/>
            <trkpt lat="53.4115300" lon="-1.9116100"/>
            <trkpt lat="53.4115800" lon="-1.9118300"/>
            <trkpt lat="53.4116100" lon="-1.9122100"/>
            <trkpt lat="53.4117000" lon="-1.9124900"/>
            <trkpt lat="53.4116900" lon="-1.9126400"/>
            <trkpt lat="53.4117200" lon="-1.9128000"/>
            <trkpt lat="53.4120500" lon="-1.9143100"/>
            <trkpt lat="53.4121000" lon="-1.9146100"/>
            <trkpt lat="53.4120900" lon="-1.9147000"/>
            <trkpt lat="53.4120300" lon="-1.9148200"/>
            <trkpt lat="53.4120100" lon="-1.9148900"/>
            <trkpt lat="53.4119900" lon="-1.9151200"/>
            <trkpt lat="53.4120000" lon="-1.9152000"/>
            <trkpt lat="53.4120500" lon="-1.9153400"/>
            <trkpt lat="53.4120600" lon="-1.9155700"/>
            <trkpt lat="53.4120500" lon="-1.9158200"/>
            <trkpt lat="53.4121700" lon="-1.9171300"/>
            <trkpt lat="53.4122200" lon="-1.9174400"/>
            <trkpt lat="53.4122200" lon="-1.9177700"/>
            <trkpt lat="53.4122300" lon="-1.9178500"/>
            <trkpt lat="53.4122200" lon="-1.9178700"/>
            <trkpt lat="53.4122200" lon="-1.9181700"/>
            <trkpt lat="53.4121700" lon="-1.9183900"/>
            <trkpt lat="53.4121600" lon="-1.9185600"/>
            <trkpt lat="53.4121600" lon="-1.9187200"/>
            <trkpt lat="53.4121800" lon="-1.9189500"/>
            <trkpt lat="53.4121700" lon="-1.9190300"/>
            <trkpt lat="53.4121300" lon="-1.9191700"/>
            <trkpt lat="53.4120900" lon="-1.9195600"/>
            <trkpt lat="53.4120900" lon="-1.9198100"/>
            <trkpt lat="53.4120500" lon="-1.9201300"/>
            <trkpt lat="53.4120600" lon="-1.9202900"/>
            <trkpt lat="53.4120000" lon="-1.9207500"/>
            <trkpt lat="53.4119900" lon="-1.9209100"/>
            <trkpt lat="53.4118500" lon="-1.9213200"/>
            <trkpt lat="53.4116400" lon="-1.9217000"/>
            <trkpt lat="53.4115800" lon="-1.9217800"/>
            <trkpt lat="53.4115000" lon="-1.9220800"/>
            <trkpt lat="53.4115000" lon="-1.9223000"/>
            <trkpt lat="53.4112700" lon="-1.9231200"/>
            <trkpt lat="53.4112200" lon="-1.9234900"/>
            <trkpt lat="53.4111300" lon="-1.9239000"/>
            <trkpt lat="53.4111200" lon="-1.9241500"/>
            <trkpt lat="53.4109800" lon="-1.9250000"/>
            <trkpt lat="53.4109600" lon="-1.9252300"/>
            <trkpt lat="53.4108500" lon="-1.9256900"/>
            <trkpt lat="53.4107800" lon="-1.9258900"/>
            <trkpt lat="53.4107600" lon="-1.9260900"/>
            <trkpt lat="53.4106700" lon="-1.9265300"/>
            <trkpt lat="53.4105900" lon="-1.9271100"/>
            <trkpt lat="53.4105300" lon="-1.9273500"/>
            <trkpt lat="53.4103800" lon="-1.9281700"/>
            <trkpt lat="53.4102600" lon="-1.9285700"/>
            <trkpt lat="53.4101600" lon="-1.9294400"/>
            <trkpt lat="53.4100100" lon="-1.9299600"/>
            <trkpt lat="53.4098600" lon="-1.9302800"/>
            <trkpt lat="53.4096300" lon="-1.9310500"/>
            <trkpt lat="53.4096200" lon="-1.9311300"/>
            <trkpt lat="53.4095500" lon="-1.9312300"/>
            <trkpt lat="53.4094600" lon="-1.9312800"/>
            <trkpt lat="53.4091400" lon="-1.9319200"/>
            <trkpt lat="53.4089400" lon="-1.9321800"/>
            <trkpt lat="53.4087200" lon="-1.9326500"/>
            <trkpt lat="53.4086000" lon="-1.9329500"/>
            <trkpt lat="53.4085300" lon="-1.9331500"/>
            <trkpt lat="53.4083600" lon="-1.9339300"/>
            <trkpt lat="53.4083100" lon="-1.9343200"/>
            <trkpt lat="53.4082600" lon="-1.9359400"/>
            <trkpt lat="53.4083000" lon="-1.9362200"/>
            <trkpt lat="53.4083100" lon="-1.9363800"/>
            <trkpt lat="53.4083400" lon="-1.9365400"/>
            <trkpt lat="53.4083600" lon="-1.9368800"/>
            <trkpt lat="53.4083500" lon="-1.9373600"/>
            <trkpt lat="53.4084200" lon="-1.9382400"/>
            <trkpt lat="53.4084400" lon="-1.9388100"/>
            <trkpt lat="53.4084300" lon="-1.9393400"/>
            <trkpt lat="53.4084800" lon="-1.9397600"/>
            <trkpt lat="53.4085300" lon="-1.9403300"/>
            <trkpt lat="53.4085300" lon="-1.9407000"/>
            <trkpt lat="53.4086400" lon="-1.9433500"/>
            <trkpt lat="53.4087200" lon="-1.9458700"/>
            <trkpt lat="53.4087100" lon="-1.9466100"/>
            <trkpt lat="53.4087500" lon="-1.9469700"/>
            <trkpt lat="53.4087800" lon="-1.9479500"/>
            <trkpt lat="53.4088200" lon="-1.9485400"/>
            <trkpt lat="53.4089500" lon="-1.9497800"/>
            <trkpt lat="53.4089800" lon="-1.9504100"/>
            <trkpt lat="53.4089800" lon="-1.9507300"/>
            <trkpt lat="53.4090300" lon="-1.9509600"/>
            <trkpt lat="53.4090500" lon="-1.9513700"/>
            <trkpt lat="53.4092200" lon="-1.9521800"/>
            <trkpt lat="53.4092400" lon="-1.9524300"/>
            <trkpt lat="53.4092500" lon="-1.9527000"/>
            <trkpt lat="53.4092300" lon="-1.9530200"/>
            <trkpt lat="53.4091700" lon="-1.9534900"/>
            <trkpt lat="53.4091600" lon="-1.9536600"/>
            <trkpt lat="53.4091800" lon="-1.9539300"/>
            <trkpt lat="53.4092500" lon="-1.9544200"/>
            <trkpt lat="53.4092400" lon="-1.9549700"/>
            <trkpt lat="53.4092700" lon="-1.9551000"/>
            <trkpt lat="53.4095900" lon="-1.9556100"/>
            <trkpt lat="53.4097000" lon="-1.9558900"/>
            <trkpt lat="53.4098100" lon="-1.9562600"/>
            <trkpt lat="53.4100100" lon="-1.9567200"/>
            <trkpt lat="53.4105600" lon="-1.9577200"/>
            <trkpt lat="53.4105500" lon="-1.9577600"/>
            <trkpt lat="53.4105000" lon="-1.9578500"/>
            <trkpt lat="53.4103300" lon="-1.9580400"/>
            <trkpt lat="53.4102500" lon="-1.9580300"/>
            <trkpt lat="53.4101800" lon="-1.9579900"/>
            <trkpt lat="53.4100100" lon="-1.9580200"/>
            <trkpt lat="53.4093700" lon="-1.9585400"/>
            <trkpt lat="53.4091200" lon="-1.9588200"/>
            <trkpt lat="53.4089700" lon="-1.9590100"/>
            <trkpt lat="53.4089000" lon="-1.9591300"/>
            <trkpt lat="53.4085500" lon="-1.9600800"/>
            <trkpt lat="53.4084500" lon="-1.9603900"/>
            <trkpt lat="53.4083000" lon="-1.9606300"/>
            <trkpt lat="53.4080800" lon="-1.9608700"/>
            <trkpt lat="53.4079700" lon="-1.9609600"/>
            <trkpt lat="53.4076900" lon="-1.9612900"/>
            <trkpt lat="53.4075800" lon="-1.9613000"/>
            <trkpt lat="53.4074100" lon="-1.9612700"/>
            <trkpt lat="53.4073400" lon="-1.9612900"/>
            <trkpt lat="53.4073000" lon="-1.9613100"/>
            <trkpt lat="53.4071400" lon="-1.9614700"/>
            <trkpt lat="53.4068200" lon="-1.9616600"/>
            <trkpt lat="53.4064000" lon="-1.9618800"/>
            <trkpt lat="53.4059200" lon="-1.9620100"/>
            <trkpt lat="53.4052000" lon="-1.9621200"/>
            <trkpt lat="53.4045600" lon="-1.9623600"/>
            <trkpt lat="53.4042400" lon="-1.9625200"/>
            <trkpt lat="53.4041000" lon="-1.9625400"/>
            <trkpt lat="53.4040000" lon="-1.9625800"/>
            <trkpt lat="53.4037900" lon="-1.9626900"/>
            <trkpt lat="53.4037200" lon="-1.9627800"/>
            <trkpt lat="53.4034400" lon="-1.9628800"/>
            <trkpt lat="53.4033000" lon="-1.9629500"/>
            <trkpt lat="53.4030700" lon="-1.9631300"/>
            <trkpt lat="53.4028900" lon="-1.9632300"/>
            <trkpt lat="53.4028700" lon="-1.9633000"/>
            <trkpt lat="53.4028700" lon="-1.9634600"/>
            <trkpt lat="53.4029100" lon="-1.9636300"/>
            <trkpt lat="53.4029300" lon="-1.9637900"/>
            <trkpt lat="53.4029400" lon="-1.9641800"/>
            <trkpt lat="53.4028500" lon="-1.9647600"/>
            <trkpt lat="53.4028600" lon="-1.9651700"/>
            <trkpt lat="53.4028500" lon="-1.9652500"/>
            <trkpt lat="53.4028200" lon="-1.9653200"/>
            <trkpt lat="53.4027800" lon="-1.9653600"/>
            <trkpt lat="53.4026900" lon="-1.9653400"/>
            <trkpt lat="53.4022300" lon="-1.9648900"/>
            <trkpt lat="53.4019600" lon="-1.9646700"/>
            <trkpt lat="53.4018700" lon="-1.9646500"/>
            <trkpt lat="53.4016800" lon="-1.9646700"/>
            <trkpt lat="53.4010100" lon="-1.9651100"/>
            <trkpt lat="53.4008100" lon="-1.9651300"/>
            <trkpt lat="53.4000800" lon="-1.9650100"/>
            <trkpt lat="53.3995000" lon="-1.9649400"/>
            <trkpt lat="53.3985300" lon="-1.9647200"/>
            <trkpt lat="53.3982800" lon="-1.9646100"/>
            <trkpt lat="53.3979500" lon="-1.9643700"/>
            <trkpt lat="53.3978700" lon="-1.9642800"/>
            <trkpt lat="53.3978000" lon="-1.9641800"/>
            <trkpt lat="53.3975800" lon="-1.9637600"/>
            <trkpt lat="53.3975500" lon="-1.9637300"/>
            <trkpt lat="53.3973700" lon="-1.9633500"/>
            <trkpt lat="53.3969300" lon="-1.9630200"/>
            <trkpt lat="53.3965700" lon="-1.9628900"/>
            <trkpt lat="53.3963100" lon="-1.9627300"/>
            <trkpt lat="53.3959100" lon="-1.9623200"/>
            <trkpt lat="53.3955100" lon="-1.9621700"/>
            <trkpt lat="53.3952500" lon="-1.9620100"/>
            <trkpt lat="53.3948800" lon="-1.9617000"/>
            <trkpt lat="53.3945100" lon="-1.9613200"/>
            <trkpt lat="53.3943100" lon="-1.9611600"/>
            <trkpt lat="53.3937900" lon="-1.9610200"/>
            <trkpt lat="53.3936800" lon="-1.9610700"/>
            <trkpt lat="53.3934900" lon="-1.9613100"/>
            <trkpt lat="53.3934100" lon="-1.9613800"/>
            <trkpt lat="53.3930000" lon="-1.9615500"/>
            <trkpt lat="53.3929500" lon="-1.9615800"/>
            <trkpt lat="53.3928100" lon="-1.9617200"/>
            <trkpt lat="53.3927100" lon="-1.9617200"/>
            <trkpt lat="53.3926100" lon="-1.9616800"/>
            <trkpt lat="53.3924900" lon="-1.9616600"/>
            <trkpt lat="53.3923400" lon="-1.9616400"/>
            <trkpt lat="53.3922900" lon="-1.9616500"/>
            <trkpt lat="53.3921200" lon="-1.9617800"/>
            <trkpt lat="53.3918400" lon="-1.9618900"/>
            <trkpt lat="53.3916100" lon="-1.9620500"/>
            <trkpt lat="53.3915200" lon="-1.9620700"/>
            <trkpt lat="53.3914300" lon="-1.9620600"/>
            <trkpt lat="53.3913800" lon="-1.9620900"/>
            <trkpt lat="53.3912900" lon="-1.9620700"/>
            <trkpt lat="53.3912500" lon="-1.9620800"/>
            <trkpt lat="53.3911000" lon="-1.9622200"/>
            <trkpt lat="53.3910100" lon="-1.9622500"/>
            <trkpt lat="53.3908100" lon="-1.9622800"/>
            <trkpt lat="53.3907200" lon="-1.9623200"/>
            <trkpt lat="53.3905800" lon="-1.9623500"/>
            <trkpt lat="53.3903000" lon="-1.9622200"/>
            <trkpt lat="53.3902000" lon="-1.9622100"/>
            <trkpt lat="53.3901100" lon="-1.9622300"/>
            <trkpt lat="53.3893200" lon="-1.9625500"/>
            <trkpt lat="53.3889500" lon="-1.9625900"/>
            <trkpt lat="53.3887200" lon="-1.9627200"/>
            <trkpt lat="53.3883700" lon="-1.9631400"/>
            <trkpt lat="53.3883600" lon="-1.9631800"/>
            <trkpt lat="53.3883000" lon="-1.9632200"/>
            <trkpt lat="53.3882300" lon="-1.9633500"/>
            <trkpt lat="53.3881100" lon="-1.9634200"/>
            <trkpt lat="53.3880100" lon="-1.9634300"/>
            <trkpt lat="53.3878400" lon="-1.9635700"/>
            <trkpt lat="53.3876400" lon="-1.9636700"/>
            <trkpt lat="53.3874800" lon="-1.9638200"/>
            <trkpt lat="53.3873800" lon="-1.9618900"/>
            <trkpt lat="53.3873700" lon="-1.9618000"/>
            <trkpt lat="53.3873500" lon="-1.9618000"/>
            <trkpt lat="53.3872000" lon="-1.9618900"/>
            <trkpt lat="53.3871400" lon="-1.9619800"/>
            <trkpt lat="53.3867200" lon="-1.9623000"/>
            <trkpt lat="53.3866600" lon="-1.9623900"/>
            <trkpt lat="53.3865200" lon="-1.9626900"/>
            <trkpt lat="53.3863800" lon="-1.9629500"/>
            <trkpt lat="53.3862200" lon="-1.9633100"/>
            <trkpt lat="53.3861400" lon="-1.9635300"/>
            <trkpt lat="53.3856200" lon="-1.9640800"/>
            <trkpt lat="53.3853200" lon="-1.9643000"/>
            <trkpt lat="53.3851700" lon="-1.9643600"/>
            <trkpt lat="53.3847300" lon="-1.9646400"/>
            <trkpt lat="53.3842300" lon="-1.9648900"/>
            <trkpt lat="53.3837200" lon="-1.9651900"/>
            <trkpt lat="53.3836200" lon="-1.9655200"/>
            <trkpt lat="53.3835200" lon="-1.9656700"/>
            <trkpt lat="53.3832300" lon="-1.9659500"/>
            <trkpt lat="53.3826400" lon="-1.9666700"/>
            <trkpt lat="53.3824400" lon="-1.9670500"/>
            <trkpt lat="53.3821200" lon="-1.9675100"/>
            <trkpt lat="53.3819900" lon="-1.9676600"/>
            <trkpt lat="53.3818400" lon="-1.9677900"/>
            <trkpt lat="53.3816500" lon="-1.9680000"/>
            <trkpt lat="53.3815600" lon="-1.9681400"/>
            <trkpt lat="53.3815300" lon="-1.9681500"/>
            <trkpt lat="53.3815000" lon="-1.9681200"/>
            <trkpt lat="53.3814900" lon="-1.9680700"/>
            <trkpt lat="53.3816400" lon="-1.9677400"/>
            <trkpt lat="53.3818600" lon="-1.9674000"/>
            <trkpt lat="53.3819200" lon="-1.9672500"/>
            <trkpt lat="53.3819900" lon="-1.9667900"/>
            <trkpt lat="53.3821500" lon="-1.9661700"/>
            <trkpt lat="53.3821400" lon="-1.9659100"/>
            <trkpt lat="53.3820100" lon="-1.9656000"/>
            <trkpt lat="53.3820000" lon="-1.9653300"/>
            <trkpt lat="53.3819700" lon="-1.9653300"/>
            <trkpt lat="53.3818500" lon="-1.9655800"/>
            <trkpt lat="53.3815500" lon="-1.9656500"/>
            <trkpt lat="53.3811200" lon="-1.9656900"/>
            <trkpt lat="53.3807800" lon="-1.9657500"/>
            <trkpt lat="53.3806800" lon="-1.9658400"/>
            <trkpt lat="53.3804300" lon="-1.9659000"/>
            <trkpt lat="53.3803500" lon="-1.9658700"/>
            <trkpt lat="53.3803100" lon="-1.9658200"/>
            <trkpt lat="53.3801100" lon="-1.9654200"/>
            <trkpt lat="53.3800200" lon="-1.9653900"/>
            <trkpt lat="53.3799200" lon="-1.9654100"/>
            <trkpt lat="53.3798800" lon="-1.9654400"/>
            <trkpt lat="53.3797700" lon="-1.9655900"/>
            <trkpt lat="53.3797200" lon="-1.9656300"/>
            <trkpt lat="53.3796400" lon="-1.9656600"/>
            <trkpt lat="53.3790800" lon="-1.9654500"/>
            <trkpt lat="53.3790500" lon="-1.9654000"/>
            <trkpt lat="53.3790900" lon="-1.9650700"/>
            <trkpt lat="53.3791300" lon="-1.9648700"/>
            <trkpt lat="53.3793000" lon="-1.9641200"/>
            <trkpt lat="53.3794500" lon="-1.9635300"/>
            <trkpt lat="53.3799000" lon="-1.9623100"/>
            <trkpt lat="53.3801700" lon="-1.9615200"/>
            <trkpt lat="53.3804600" lon="-1.9603400"/>
            <trkpt lat="53.3805300" lon="-1.9598200"/>
            <trkpt lat="53.3805800" lon="-1.9592700"/>
            <trkpt lat="53.3806100" lon="-1.9586900"/>
            <trkpt lat="53.3806300" lon="-1.9581900"/>
            <trkpt lat="53.3806300" lon="-1.9575800"/>
            <trkpt lat="53.3806100" lon="-1.9572900"/>
            <trkpt lat="53.3803600" lon="-1.9556400"/>
            <trkpt lat="53.3800600" lon="-1.9540600"/>
            <trkpt lat="53.3797400" lon="-1.9522800"/>
            <trkpt lat="53.3793200" lon="-1.9500900"/>
            <trkpt lat="53.3792700" lon="-1.9496300"/>
            <trkpt lat="53.3795300" lon="-1.9480800"/>
            <trkpt lat="53.3795600" lon="-1.9477300"/>
            <trkpt lat="53.3795000" lon="-1.9474500"/>
            <trkpt lat="53.3794300" lon="-1.9472500"/>
            <trkpt lat="53.3794100" lon="-1.9471500"/>
            <trkpt lat="53.3794300" lon="-1.9470900"/>
            <trkpt lat="53.3793900" lon="-1.9469400"/>
            <trkpt lat="53.3793900" lon="-1.9468000"/>
            <trkpt lat="53.3794100" lon="-1.9467200"/>
            <trkpt lat="53.3793800" lon="-1.9463900"/>
            <trkpt lat="53.3793900" lon="-1.9463400"/>
            <trkpt lat="53.3793300" lon="-1.9459900"/>
            <trkpt lat="53.3792900" lon="-1.9456400"/>
            <trkpt lat="53.3792100" lon="-1.9456400"/>
            <trkpt lat="53.3791300" lon="-1.9456000"/>
            <trkpt lat="53.3789900" lon="-1.9454700"/>
            <trkpt lat="53.3787400" lon="-1.9453200"/>
            <trkpt lat="53.3784600" lon="-1.9451100"/>
            <trkpt lat="53.3782200" lon="-1.9450200"/>
            <trkpt lat="53.3781900" lon="-1.9448800"/>
            <trkpt lat="53.3781100" lon="-1.9447500"/>
            <trkpt lat="53.3780600" lon="-1.9445400"/>
            <trkpt lat="53.3779800" lon="-1.9443500"/>
            <trkpt lat="53.3773600" lon="-1.9431300"/>
            <trkpt lat="53.3773100" lon="-1.9413600"/>
            <trkpt lat="53.3772600" lon="-1.9410000"/>
            <trkpt lat="53.3771000" lon="-1.9402500"/>
            <trkpt lat="53.3770500" lon="-1.9397700"/>
            <trkpt lat="53.3770200" lon="-1.9392200"/>
            <trkpt lat="53.3769600" lon="-1.9384700"/>
            <trkpt lat="53.3768700" lon="-1.9379100"/>
            <trkpt lat="53.3768000" lon="-1.9372100"/>
            <trkpt lat="53.3768000" lon="-1.9370700"/>
            <trkpt lat="53.3769000" lon="-1.9364400"/>
            <trkpt lat="53.3769600" lon="-1.9358200"/>
            <trkpt lat="53.3770000" lon="-1.9352600"/>
            <trkpt lat="53.3769600" lon="-1.9340400"/>
            <trkpt lat="53.3770900" lon="-1.9335300"/>
            <trkpt lat="53.3772500" lon="-1.9322000"/>
            <trkpt lat="53.3773800" lon="-1.9314200"/>
            <trkpt lat="53.3774700" lon="-1.9310700"/>
            <trkpt lat="53.3775900" lon="-1.9307100"/>
            <trkpt lat="53.3778900" lon="-1.9300300"/>
            <trkpt lat="53.3787800" lon="-1.9281300"/>
            <trkpt lat="53.3789100" lon="-1.9280000"/>
            <trkpt lat="53.3790200" lon="-1.9280600"/>
            <trkpt lat="53.3790100" lon="-1.9281400"/>
            <trkpt lat="53.3790400" lon="-1.9283100"/>
            <trkpt lat="53.3790400" lon="-1.9283700"/>
            <trkpt lat="53.3793800" lon="-1.9281000"/>
            <trkpt lat="53.3793400" lon="-1.9281400"/>
        </trkseg>
    </trk>
</gpx>
