<?xml version="1.0" encoding="UTF-8" standalone="yes"?>
<gpx version="1.1" creator="OS Maps - Web" xmlns="http://www.topografix.com/GPX/1/1"
xmlns:xsi="http://www.w3.org/2001/XMLSchema-instance"
xsi:schemaLocation="http://www.topografix.com/GPX/1/1 http://www.topografix.com/GPX/1/1/gpx.xsd"
xmlns:gs="http://www.topografix.com/GPX/gpx_style/0/2"
xmlns:gh="https://graphhopper.com/public/schema/gpx/1.1"
xmlns:os="https://ordnancesurvey.co.uk/public/schema/route/0.1">
    <metadata>
        <name>Minninglow (Ethel) - Circular (www.thelostpeak.co.uk)</name>
        <desc></desc>
        <bounds minlat="53.0864000" minlon="-1.7137700" maxlat="53.1214900" maxlon="-1.6635500"/>
        <extensions>
            <os:version>2.0</os:version>
            <os:point lat="53.1204600" lon="-1.7093400" type="start"/>
            <os:point lat="53.1204600" lon="-1.7093400" type="end"/>
            <os:activity>ON_FOOT_WALKING</os:activity>
            <os:difficulty>MODERATE</os:difficulty>
            <os:paths/>
            <os:distance>13517.1969436</os:distance>
            <os:elevation_ascent>274.2300000</os:elevation_ascent>
        </extensions>
    </metadata>
    <wpt lat="53.1204600" lon="-1.7093400"/>
    <wpt lat="53.1201000" lon="-1.7098900"/>
    <wpt lat="53.1200900" lon="-1.7091400"/>
    <wpt lat="53.1214800" lon="-1.7052600"/>
    <wpt lat="53.1212900" lon="-1.7042700"/>
    <wpt lat="53.1200200" lon="-1.7013000"/>
    <wpt lat="53.1188900" lon="-1.6992200"/>
    <wpt lat="53.1149500" lon="-1.6944300"/>
    <wpt lat="53.1133300" lon="-1.6913600"/>
    <wpt lat="53.1128200" lon="-1.6893100"/>
    <wpt lat="53.1120900" lon="-1.6880200"/>
    <wpt lat="53.1106700" lon="-1.6885500"/>
    <wpt lat="53.1095900" lon="-1.6906600"/>
    <wpt lat="53.1090000" lon="-1.6910100"/>
    <wpt lat="53.1083500" lon="-1.6933100"/>
    <wpt lat="53.1040900" lon="-1.6908500"/>
    <wpt lat="53.1024200" lon="-1.6861800"/>
    <wpt lat="53.1027100" lon="-1.6746400"/>
    <wpt lat="53.0980500" lon="-1.6646200"/>
    <wpt lat="53.0980200" lon="-1.6636200"/>
    <wpt lat="53.0981200" lon="-1.6635500"/>
    <wpt lat="53.0983400" lon="-1.6641400"/>
    <wpt lat="53.0981800" lon="-1.6652500"/>
    <wpt lat="53.0973300" lon="-1.6678200"/>
    <wpt lat="53.0957400" lon="-1.6685300"/>
    <wpt lat="53.0949300" lon="-1.6707100"/>
    <wpt lat="53.0941300" lon="-1.6705100"/>
    <wpt lat="53.0928500" lon="-1.6713200"/>
    <wpt lat="53.0915500" lon="-1.6716600"/>
    <wpt lat="53.0900000" lon="-1.6716000"/>
    <wpt lat="53.0897600" lon="-1.6720400"/>
    <wpt lat="53.0892700" lon="-1.6722700"/>
    <wpt lat="53.0879800" lon="-1.6723700"/>
    <wpt lat="53.0873800" lon="-1.6720900"/>
    <wpt lat="53.0869100" lon="-1.6723300"/>
    <wpt lat="53.0866300" lon="-1.6729200"/>
    <wpt lat="53.0864000" lon="-1.6754800"/>
    <wpt lat="53.0869900" lon="-1.6782600"/>
    <wpt lat="53.0874800" lon="-1.6819200"/>
    <wpt lat="53.0880300" lon="-1.6841000"/>
    <wpt lat="53.0877800" lon="-1.6854900"/>
    <wpt lat="53.0871500" lon="-1.6863200"/>
    <wpt lat="53.0875600" lon="-1.6865000"/>
    <wpt lat="53.0869300" lon="-1.6878900"/>
    <wpt lat="53.0867100" lon="-1.6890200"/>
    <wpt lat="53.0867200" lon="-1.6898800"/>
    <wpt lat="53.0874100" lon="-1.6916200"/>
    <wpt lat="53.0888800" lon="-1.6940100"/>
    <wpt lat="53.0889600" lon="-1.6950100"/>
    <wpt lat="53.0886600" lon="-1.6967700"/>
    <wpt lat="53.0887900" lon="-1.6972400"/>
    <wpt lat="53.0898400" lon="-1.6987400"/>
    <wpt lat="53.0918600" lon="-1.6994700"/>
    <wpt lat="53.0928900" lon="-1.6994700"/>
    <wpt lat="53.0937200" lon="-1.6985500"/>
    <wpt lat="53.0947800" lon="-1.6979300"/>
    <wpt lat="53.0953700" lon="-1.6965700"/>
    <wpt lat="53.0958700" lon="-1.6945000"/>
    <wpt lat="53.0977400" lon="-1.6944100"/>
    <wpt lat="53.0984300" lon="-1.6941400"/>
    <wpt lat="53.0992900" lon="-1.6950700"/>
    <wpt lat="53.1001700" lon="-1.6950900"/>
    <wpt lat="53.1005000" lon="-1.6953300"/>
    <wpt lat="53.1018900" lon="-1.6977100"/>
    <wpt lat="53.1030800" lon="-1.7003500"/>
    <wpt lat="53.1039400" lon="-1.7013000"/>
    <wpt lat="53.1060400" lon="-1.7017000"/>
    <wpt lat="53.1065300" lon="-1.7021600"/>
    <wpt lat="53.1082700" lon="-1.7017300"/>
    <wpt lat="53.1097200" lon="-1.7026100"/>
    <wpt lat="53.1106000" lon="-1.7024200"/>
    <wpt lat="53.1112700" lon="-1.7033200"/>
    <wpt lat="53.1119600" lon="-1.7052100"/>
    <wpt lat="53.1124100" lon="-1.7058800"/>
    <wpt lat="53.1132500" lon="-1.7056600"/>
    <wpt lat="53.1146000" lon="-1.7058600"/>
    <wpt lat="53.1156800" lon="-1.7056700"/>
    <wpt lat="53.1166700" lon="-1.7120200"/>
    <wpt lat="53.1165300" lon="-1.7137700"/>
    <wpt lat="53.1201200" lon="-1.7121300"/>
    <wpt lat="53.1200500" lon="-1.7113100"/>
    <wpt lat="53.1202500" lon="-1.7107500"/>
    <wpt lat="53.1201200" lon="-1.7099000"/>
    <wpt lat="53.1204600" lon="-1.7093400"/>
    <trk>
        <name>Minninglow (Ethel) - Circular (www.thelostpeak.co.uk)</name>
        <trkseg>
            <trkpt lat="53.1204600" lon="-1.7093400"/>
            <trkpt lat="53.1204300" lon="-1.7092900"/>
            <trkpt lat="53.1202100" lon="-1.7096700"/>
            <trkpt lat="53.1201000" lon="-1.7098900"/>
            <trkpt lat="53.1200800" lon="-1.7098400"/>
            <trkpt lat="53.1200500" lon="-1.7096200"/>
            <trkpt lat="53.1200600" lon="-1.7093900"/>
            <trkpt lat="53.1200900" lon="-1.7091400"/>
            <trkpt lat="53.1205000" lon="-1.7081000"/>
            <trkpt lat="53.1214200" lon="-1.7055000"/>
            <trkpt lat="53.1214800" lon="-1.7052600"/>
            <trkpt lat="53.1214900" lon="-1.7050400"/>
            <trkpt lat="53.1214700" lon="-1.7048500"/>
            <trkpt lat="53.1214100" lon="-1.7046300"/>
            <trkpt lat="53.1212900" lon="-1.7042700"/>
            <trkpt lat="53.1203700" lon="-1.7020500"/>
            <trkpt lat="53.1200100" lon="-1.7013100"/>
            <trkpt lat="53.1200200" lon="-1.7013000"/>
            <trkpt lat="53.1200100" lon="-1.7013100"/>
            <trkpt lat="53.1188900" lon="-1.6992200"/>
            <trkpt lat="53.1175600" lon="-1.6975800"/>
            <trkpt lat="53.1149500" lon="-1.6944300"/>
            <trkpt lat="53.1146300" lon="-1.6937500"/>
            <trkpt lat="53.1133300" lon="-1.6913600"/>
            <trkpt lat="53.1128200" lon="-1.6893100"/>
            <trkpt lat="53.1124100" lon="-1.6887000"/>
            <trkpt lat="53.1120900" lon="-1.6880200"/>
            <trkpt lat="53.1106700" lon="-1.6885500"/>
            <trkpt lat="53.1095900" lon="-1.6906600"/>
            <trkpt lat="53.1090000" lon="-1.6910100"/>
            <trkpt lat="53.1083500" lon="-1.6933100"/>
            <trkpt lat="53.1040900" lon="-1.6908500"/>
            <trkpt lat="53.1038800" lon="-1.6903800"/>
            <trkpt lat="53.1030200" lon="-1.6880600"/>
            <trkpt lat="53.1024700" lon="-1.6864500"/>
            <trkpt lat="53.1024200" lon="-1.6861800"/>
            <trkpt lat="53.1024100" lon="-1.6858700"/>
            <trkpt lat="53.1025000" lon="-1.6826800"/>
            <trkpt lat="53.1027100" lon="-1.6764800"/>
            <trkpt lat="53.1027400" lon="-1.6752700"/>
            <trkpt lat="53.1027400" lon="-1.6748800"/>
            <trkpt lat="53.1027100" lon="-1.6746400"/>
            <trkpt lat="53.1027000" lon="-1.6746500"/>
            <trkpt lat="53.1027100" lon="-1.6746400"/>
            <trkpt lat="53.1026700" lon="-1.6744700"/>
            <trkpt lat="53.1025400" lon="-1.6741100"/>
            <trkpt lat="53.1021200" lon="-1.6732000"/>
            <trkpt lat="53.0981800" lon="-1.6648400"/>
            <trkpt lat="53.0980500" lon="-1.6646200"/>
            <trkpt lat="53.0980400" lon="-1.6642900"/>
            <trkpt lat="53.0980200" lon="-1.6641000"/>
            <trkpt lat="53.0980300" lon="-1.6638600"/>
            <trkpt lat="53.0980200" lon="-1.6636200"/>
            <trkpt lat="53.0980600" lon="-1.6635500"/>
            <trkpt lat="53.0981200" lon="-1.6635500"/>
            <trkpt lat="53.0981500" lon="-1.6636100"/>
            <trkpt lat="53.0981800" lon="-1.6639300"/>
            <trkpt lat="53.0982900" lon="-1.6641000"/>
            <trkpt lat="53.0983400" lon="-1.6641400"/>
            <trkpt lat="53.0983100" lon="-1.6644500"/>
            <trkpt lat="53.0982600" lon="-1.6647800"/>
            <trkpt lat="53.0982000" lon="-1.6650700"/>
            <trkpt lat="53.0981500" lon="-1.6652300"/>
            <trkpt lat="53.0981800" lon="-1.6652500"/>
            <trkpt lat="53.0980200" lon="-1.6659100"/>
            <trkpt lat="53.0975000" lon="-1.6674300"/>
            <trkpt lat="53.0973300" lon="-1.6678200"/>
            <trkpt lat="53.0972500" lon="-1.6679500"/>
            <trkpt lat="53.0959200" lon="-1.6684000"/>
            <trkpt lat="53.0957400" lon="-1.6685300"/>
            <trkpt lat="53.0956100" lon="-1.6687000"/>
            <trkpt lat="53.0954900" lon="-1.6689800"/>
            <trkpt lat="53.0951100" lon="-1.6701600"/>
            <trkpt lat="53.0950800" lon="-1.6701400"/>
            <trkpt lat="53.0949600" lon="-1.6705500"/>
            <trkpt lat="53.0949300" lon="-1.6707100"/>
            <trkpt lat="53.0942300" lon="-1.6705000"/>
            <trkpt lat="53.0941300" lon="-1.6705100"/>
            <trkpt lat="53.0940400" lon="-1.6705500"/>
            <trkpt lat="53.0939800" lon="-1.6706900"/>
            <trkpt lat="53.0938800" lon="-1.6707500"/>
            <trkpt lat="53.0935000" lon="-1.6708900"/>
            <trkpt lat="53.0928500" lon="-1.6713200"/>
            <trkpt lat="53.0922000" lon="-1.6713400"/>
            <trkpt lat="53.0916700" lon="-1.6716300"/>
            <trkpt lat="53.0915500" lon="-1.6716600"/>
            <trkpt lat="53.0910100" lon="-1.6715500"/>
            <trkpt lat="53.0910400" lon="-1.6715900"/>
            <trkpt lat="53.0900000" lon="-1.6716000"/>
            <trkpt lat="53.0899500" lon="-1.6716300"/>
            <trkpt lat="53.0899000" lon="-1.6718600"/>
            <trkpt lat="53.0898600" lon="-1.6719300"/>
            <trkpt lat="53.0897600" lon="-1.6720400"/>
            <trkpt lat="53.0896100" lon="-1.6720800"/>
            <trkpt lat="53.0894600" lon="-1.6721800"/>
            <trkpt lat="53.0892700" lon="-1.6722700"/>
            <trkpt lat="53.0888900" lon="-1.6722700"/>
            <trkpt lat="53.0887200" lon="-1.6723000"/>
            <trkpt lat="53.0886400" lon="-1.6723500"/>
            <trkpt lat="53.0885500" lon="-1.6723200"/>
            <trkpt lat="53.0884900" lon="-1.6723300"/>
            <trkpt lat="53.0884000" lon="-1.6723900"/>
            <trkpt lat="53.0879800" lon="-1.6723700"/>
            <trkpt lat="53.0878300" lon="-1.6723500"/>
            <trkpt lat="53.0877600" lon="-1.6723000"/>
            <trkpt lat="53.0875900" lon="-1.6722300"/>
            <trkpt lat="53.0873800" lon="-1.6720900"/>
            <trkpt lat="53.0871200" lon="-1.6721800"/>
            <trkpt lat="53.0870000" lon="-1.6722500"/>
            <trkpt lat="53.0869100" lon="-1.6723300"/>
            <trkpt lat="53.0868000" lon="-1.6725200"/>
            <trkpt lat="53.0866300" lon="-1.6729200"/>
            <trkpt lat="53.0865800" lon="-1.6730700"/>
            <trkpt lat="53.0865900" lon="-1.6730600"/>
            <trkpt lat="53.0864000" lon="-1.6753600"/>
            <trkpt lat="53.0864000" lon="-1.6754800"/>
            <trkpt lat="53.0865200" lon="-1.6763300"/>
            <trkpt lat="53.0866000" lon="-1.6767700"/>
            <trkpt lat="53.0866500" lon="-1.6769500"/>
            <trkpt lat="53.0866800" lon="-1.6769300"/>
            <trkpt lat="53.0866500" lon="-1.6769500"/>
            <trkpt lat="53.0868800" lon="-1.6777100"/>
            <trkpt lat="53.0869900" lon="-1.6782600"/>
            <trkpt lat="53.0871000" lon="-1.6791300"/>
            <trkpt lat="53.0872100" lon="-1.6798000"/>
            <trkpt lat="53.0873600" lon="-1.6809200"/>
            <trkpt lat="53.0874800" lon="-1.6819200"/>
            <trkpt lat="53.0877000" lon="-1.6830400"/>
            <trkpt lat="53.0879500" lon="-1.6837100"/>
            <trkpt lat="53.0880100" lon="-1.6839100"/>
            <trkpt lat="53.0880300" lon="-1.6841000"/>
            <trkpt lat="53.0880200" lon="-1.6842400"/>
            <trkpt lat="53.0877400" lon="-1.6852200"/>
            <trkpt lat="53.0877000" lon="-1.6854700"/>
            <trkpt lat="53.0877400" lon="-1.6855000"/>
            <trkpt lat="53.0877800" lon="-1.6854900"/>
            <trkpt lat="53.0877100" lon="-1.6856100"/>
            <trkpt lat="53.0876600" lon="-1.6857500"/>
            <trkpt lat="53.0876200" lon="-1.6858000"/>
            <trkpt lat="53.0875600" lon="-1.6858500"/>
            <trkpt lat="53.0874000" lon="-1.6859200"/>
            <trkpt lat="53.0872700" lon="-1.6860500"/>
            <trkpt lat="53.0872000" lon="-1.6861700"/>
            <trkpt lat="53.0871500" lon="-1.6863200"/>
            <trkpt lat="53.0871900" lon="-1.6863700"/>
            <trkpt lat="53.0873500" lon="-1.6863100"/>
            <trkpt lat="53.0875000" lon="-1.6863200"/>
            <trkpt lat="53.0875400" lon="-1.6863600"/>
            <trkpt lat="53.0875600" lon="-1.6864200"/>
            <trkpt lat="53.0875600" lon="-1.6865000"/>
            <trkpt lat="53.0875400" lon="-1.6865700"/>
            <trkpt lat="53.0875000" lon="-1.6866200"/>
            <trkpt lat="53.0874400" lon="-1.6868600"/>
            <trkpt lat="53.0874100" lon="-1.6869300"/>
            <trkpt lat="53.0872800" lon="-1.6871800"/>
            <trkpt lat="53.0870600" lon="-1.6875300"/>
            <trkpt lat="53.0870000" lon="-1.6876700"/>
            <trkpt lat="53.0869300" lon="-1.6878900"/>
            <trkpt lat="53.0868000" lon="-1.6885500"/>
            <trkpt lat="53.0867600" lon="-1.6887000"/>
            <trkpt lat="53.0867300" lon="-1.6888700"/>
            <trkpt lat="53.0867300" lon="-1.6889500"/>
            <trkpt lat="53.0867100" lon="-1.6890200"/>
            <trkpt lat="53.0867000" lon="-1.6891200"/>
            <trkpt lat="53.0867000" lon="-1.6895700"/>
            <trkpt lat="53.0867200" lon="-1.6898800"/>
            <trkpt lat="53.0867300" lon="-1.6899600"/>
            <trkpt lat="53.0868000" lon="-1.6902100"/>
            <trkpt lat="53.0869600" lon="-1.6905700"/>
            <trkpt lat="53.0870200" lon="-1.6907300"/>
            <trkpt lat="53.0870600" lon="-1.6909000"/>
            <trkpt lat="53.0871300" lon="-1.6910500"/>
            <trkpt lat="53.0872900" lon="-1.6913300"/>
            <trkpt lat="53.0873900" lon="-1.6915400"/>
            <trkpt lat="53.0874100" lon="-1.6916200"/>
            <trkpt lat="53.0875400" lon="-1.6918000"/>
            <trkpt lat="53.0876200" lon="-1.6918700"/>
            <trkpt lat="53.0877700" lon="-1.6920600"/>
            <trkpt lat="53.0879800" lon="-1.6925400"/>
            <trkpt lat="53.0881900" lon="-1.6928700"/>
            <trkpt lat="53.0882700" lon="-1.6930800"/>
            <trkpt lat="53.0884500" lon="-1.6934500"/>
            <trkpt lat="53.0885500" lon="-1.6935500"/>
            <trkpt lat="53.0887200" lon="-1.6937800"/>
            <trkpt lat="53.0888200" lon="-1.6938700"/>
            <trkpt lat="53.0888800" lon="-1.6940100"/>
            <trkpt lat="53.0889500" lon="-1.6943200"/>
            <trkpt lat="53.0889700" lon="-1.6945000"/>
            <trkpt lat="53.0889600" lon="-1.6950100"/>
            <trkpt lat="53.0889500" lon="-1.6950900"/>
            <trkpt lat="53.0888700" lon="-1.6953900"/>
            <trkpt lat="53.0888400" lon="-1.6955700"/>
            <trkpt lat="53.0887500" lon="-1.6958900"/>
            <trkpt lat="53.0886500" lon="-1.6965800"/>
            <trkpt lat="53.0886600" lon="-1.6967700"/>
            <trkpt lat="53.0887200" lon="-1.6970000"/>
            <trkpt lat="53.0887900" lon="-1.6971700"/>
            <trkpt lat="53.0887900" lon="-1.6972400"/>
            <trkpt lat="53.0894600" lon="-1.6983300"/>
            <trkpt lat="53.0898400" lon="-1.6987400"/>
            <trkpt lat="53.0900400" lon="-1.6988500"/>
            <trkpt lat="53.0909400" lon="-1.6991300"/>
            <trkpt lat="53.0911100" lon="-1.6992100"/>
            <trkpt lat="53.0914700" lon="-1.6992800"/>
            <trkpt lat="53.0918600" lon="-1.6994700"/>
            <trkpt lat="53.0922200" lon="-1.6995300"/>
            <trkpt lat="53.0927600" lon="-1.6995200"/>
            <trkpt lat="53.0928900" lon="-1.6994700"/>
            <trkpt lat="53.0931500" lon="-1.6992100"/>
            <trkpt lat="53.0937200" lon="-1.6985500"/>
            <trkpt lat="53.0939700" lon="-1.6984500"/>
            <trkpt lat="53.0944800" lon="-1.6981800"/>
            <trkpt lat="53.0946900" lon="-1.6980500"/>
            <trkpt lat="53.0947800" lon="-1.6979300"/>
            <trkpt lat="53.0949600" lon="-1.6974900"/>
            <trkpt lat="53.0951800" lon="-1.6970100"/>
            <trkpt lat="53.0952600" lon="-1.6967800"/>
            <trkpt lat="53.0953700" lon="-1.6965700"/>
            <trkpt lat="53.0954900" lon="-1.6961900"/>
            <trkpt lat="53.0957300" lon="-1.6947900"/>
            <trkpt lat="53.0958000" lon="-1.6946100"/>
            <trkpt lat="53.0958700" lon="-1.6945000"/>
            <trkpt lat="53.0959800" lon="-1.6944300"/>
            <trkpt lat="53.0963200" lon="-1.6944500"/>
            <trkpt lat="53.0967500" lon="-1.6944300"/>
            <trkpt lat="53.0969000" lon="-1.6944000"/>
            <trkpt lat="53.0972400" lon="-1.6944200"/>
            <trkpt lat="53.0977400" lon="-1.6944100"/>
            <trkpt lat="53.0979900" lon="-1.6943500"/>
            <trkpt lat="53.0984300" lon="-1.6941400"/>
            <trkpt lat="53.0986000" lon="-1.6942200"/>
            <trkpt lat="53.0987100" lon="-1.6943600"/>
            <trkpt lat="53.0988200" lon="-1.6946000"/>
            <trkpt lat="53.0990700" lon="-1.6949000"/>
            <trkpt lat="53.0991400" lon="-1.6949700"/>
            <trkpt lat="53.0992900" lon="-1.6950700"/>
            <trkpt lat="53.0994400" lon="-1.6950800"/>
            <trkpt lat="53.0997400" lon="-1.6950500"/>
            <trkpt lat="53.1000200" lon="-1.6950600"/>
            <trkpt lat="53.1001700" lon="-1.6950900"/>
            <trkpt lat="53.1002900" lon="-1.6951500"/>
            <trkpt lat="53.1005000" lon="-1.6953300"/>
            <trkpt lat="53.1006700" lon="-1.6955700"/>
            <trkpt lat="53.1008200" lon="-1.6958200"/>
            <trkpt lat="53.1009700" lon="-1.6960900"/>
            <trkpt lat="53.1011500" lon="-1.6964600"/>
            <trkpt lat="53.1014400" lon="-1.6969100"/>
            <trkpt lat="53.1018900" lon="-1.6977100"/>
            <trkpt lat="53.1022400" lon="-1.6984800"/>
            <trkpt lat="53.1022300" lon="-1.6984800"/>
            <trkpt lat="53.1022400" lon="-1.6984800"/>
            <trkpt lat="53.1026200" lon="-1.6992800"/>
            <trkpt lat="53.1028800" lon="-1.6999500"/>
            <trkpt lat="53.1030800" lon="-1.7003500"/>
            <trkpt lat="53.1033300" lon="-1.7007000"/>
            <trkpt lat="53.1036800" lon="-1.7011000"/>
            <trkpt lat="53.1039400" lon="-1.7013000"/>
            <trkpt lat="53.1042700" lon="-1.7014600"/>
            <trkpt lat="53.1045000" lon="-1.7015300"/>
            <trkpt lat="53.1046800" lon="-1.7015600"/>
            <trkpt lat="53.1051900" lon="-1.7015900"/>
            <trkpt lat="53.1053600" lon="-1.7016200"/>
            <trkpt lat="53.1057300" lon="-1.7017500"/>
            <trkpt lat="53.1060400" lon="-1.7017000"/>
            <trkpt lat="53.1061000" lon="-1.7017700"/>
            <trkpt lat="53.1061900" lon="-1.7018100"/>
            <trkpt lat="53.1062600" lon="-1.7018800"/>
            <trkpt lat="53.1064300" lon="-1.7021100"/>
            <trkpt lat="53.1065300" lon="-1.7021600"/>
            <trkpt lat="53.1073200" lon="-1.7019600"/>
            <trkpt lat="53.1076600" lon="-1.7018100"/>
            <trkpt lat="53.1078500" lon="-1.7017700"/>
            <trkpt lat="53.1082700" lon="-1.7017300"/>
            <trkpt lat="53.1085100" lon="-1.7017700"/>
            <trkpt lat="53.1086800" lon="-1.7018600"/>
            <trkpt lat="53.1088000" lon="-1.7019500"/>
            <trkpt lat="53.1089500" lon="-1.7021100"/>
            <trkpt lat="53.1090900" lon="-1.7023000"/>
            <trkpt lat="53.1090700" lon="-1.7022700"/>
            <trkpt lat="53.1092000" lon="-1.7024000"/>
            <trkpt lat="53.1097200" lon="-1.7026100"/>
            <trkpt lat="53.1099900" lon="-1.7026200"/>
            <trkpt lat="53.1104000" lon="-1.7025100"/>
            <trkpt lat="53.1104500" lon="-1.7024500"/>
            <trkpt lat="53.1105600" lon="-1.7024100"/>
            <trkpt lat="53.1106000" lon="-1.7024200"/>
            <trkpt lat="53.1112700" lon="-1.7033200"/>
            <trkpt lat="53.1116500" lon="-1.7041500"/>
            <trkpt lat="53.1118400" lon="-1.7047700"/>
            <trkpt lat="53.1119600" lon="-1.7052100"/>
            <trkpt lat="53.1121400" lon="-1.7055800"/>
            <trkpt lat="53.1122800" lon="-1.7057800"/>
            <trkpt lat="53.1124100" lon="-1.7058800"/>
            <trkpt lat="53.1125800" lon="-1.7059300"/>
            <trkpt lat="53.1127100" lon="-1.7059200"/>
            <trkpt lat="53.1132500" lon="-1.7056600"/>
            <trkpt lat="53.1134600" lon="-1.7056600"/>
            <trkpt lat="53.1136900" lon="-1.7057400"/>
            <trkpt lat="53.1142600" lon="-1.7058500"/>
            <trkpt lat="53.1146000" lon="-1.7058600"/>
            <trkpt lat="53.1148800" lon="-1.7058300"/>
            <trkpt lat="53.1148800" lon="-1.7058500"/>
            <trkpt lat="53.1150800" lon="-1.7058200"/>
            <trkpt lat="53.1151200" lon="-1.7057800"/>
            <trkpt lat="53.1156300" lon="-1.7056300"/>
            <trkpt lat="53.1156800" lon="-1.7056700"/>
            <trkpt lat="53.1156700" lon="-1.7056900"/>
            <trkpt lat="53.1158100" lon="-1.7064300"/>
            <trkpt lat="53.1162200" lon="-1.7088200"/>
            <trkpt lat="53.1165500" lon="-1.7109900"/>
            <trkpt lat="53.1166700" lon="-1.7120200"/>
            <trkpt lat="53.1167000" lon="-1.7125100"/>
            <trkpt lat="53.1166700" lon="-1.7129800"/>
            <trkpt lat="53.1166100" lon="-1.7132800"/>
            <trkpt lat="53.1165300" lon="-1.7135700"/>
            <trkpt lat="53.1165200" lon="-1.7136800"/>
            <trkpt lat="53.1165300" lon="-1.7137700"/>
            <trkpt lat="53.1165700" lon="-1.7137700"/>
            <trkpt lat="53.1184300" lon="-1.7128800"/>
            <trkpt lat="53.1191100" lon="-1.7126200"/>
            <trkpt lat="53.1201200" lon="-1.7121300"/>
            <trkpt lat="53.1200500" lon="-1.7113100"/>
            <trkpt lat="53.1200900" lon="-1.7111600"/>
            <trkpt lat="53.1202100" lon="-1.7110000"/>
            <trkpt lat="53.1202400" lon="-1.7109300"/>
            <trkpt lat="53.1202500" lon="-1.7107500"/>
            <trkpt lat="53.1201800" lon="-1.7103700"/>
            <trkpt lat="53.1201700" lon="-1.7102500"/>
            <trkpt lat="53.1201500" lon="-1.7101700"/>
            <trkpt lat="53.1201500" lon="-1.7100600"/>
            <trkpt lat="53.1201200" lon="-1.7099000"/>
            <trkpt lat="53.1201400" lon="-1.7098400"/>
            <trkpt lat="53.1201300" lon="-1.7098200"/>
            <trkpt lat="53.1204300" lon="-1.7092900"/>
            <trkpt lat="53.1204600" lon="-1.7093400"/>
        </trkseg>
    </trk>
</gpx>
