<?xml version="1.0" encoding="UTF-8" standalone="yes"?>
<gpx version="1.1" creator="OS Maps - Web" xmlns="http://www.topografix.com/GPX/1/1"
xmlns:xsi="http://www.w3.org/2001/XMLSchema-instance"
xsi:schemaLocation="http://www.topografix.com/GPX/1/1 http://www.topografix.com/GPX/1/1/gpx.xsd"
xmlns:gs="http://www.topografix.com/GPX/gpx_style/0/2"
xmlns:gh="https://graphhopper.com/public/schema/gpx/1.1"
xmlns:os="https://ordnancesurvey.co.uk/public/schema/route/0.1">
    <metadata>
        <name>Mount Famine &amp; South Head (Ethels) - Circular (www.thelostpeak.co.uk)</name>
        <desc>www.thelostpeak.co.uk</desc>
        <bounds minlat="53.3578200" minlon="-1.9307900" maxlat="53.3888000" maxlon="-1.8757200"/>
        <extensions>
            <os:version>2.0</os:version>
            <os:point lat="53.3775000" lon="-1.9305800" type="start"/>
            <os:point lat="53.3775000" lon="-1.9305800" type="end"/>
            <os:activity>ON_FOOT_WALKING</os:activity>
            <os:difficulty>MODERATE</os:difficulty>
            <os:paths/>
            <os:distance>13693.7625123</os:distance>
            <os:elevation_ascent>529.9900000</os:elevation_ascent>
        </extensions>
    </metadata>
    <wpt lat="53.3775000" lon="-1.9305800"/>
    <wpt lat="53.3771300" lon="-1.9302200"/>
    <wpt lat="53.3767600" lon="-1.9303500"/>
    <wpt lat="53.3765300" lon="-1.9273600"/>
    <wpt lat="53.3760600" lon="-1.9261700"/>
    <wpt lat="53.3754200" lon="-1.9255000"/>
    <wpt lat="53.3753100" lon="-1.9232800"/>
    <wpt lat="53.3745500" lon="-1.9225500"/>
    <wpt lat="53.3737600" lon="-1.9222400"/>
    <wpt lat="53.3730200" lon="-1.9214400"/>
    <wpt lat="53.3710400" lon="-1.9216900"/>
    <wpt lat="53.3698000" lon="-1.9210100"/>
    <wpt lat="53.3686900" lon="-1.9207300"/>
    <wpt lat="53.3683600" lon="-1.9208500"/>
    <wpt lat="53.3681300" lon="-1.9206300"/>
    <wpt lat="53.3658500" lon="-1.9212400"/>
    <wpt lat="53.3656000" lon="-1.9216400"/>
    <wpt lat="53.3655700" lon="-1.9224900"/>
    <wpt lat="53.3652000" lon="-1.9242800"/>
    <wpt lat="53.3649600" lon="-1.9245300"/>
    <wpt lat="53.3648900" lon="-1.9251400"/>
    <wpt lat="53.3650300" lon="-1.9261700"/>
    <wpt lat="53.3614500" lon="-1.9237900"/>
    <wpt lat="53.3612000" lon="-1.9227600"/>
    <wpt lat="53.3605000" lon="-1.9214000"/>
    <wpt lat="53.3595600" lon="-1.9189200"/>
    <wpt lat="53.3585700" lon="-1.9173400"/>
    <wpt lat="53.3586700" lon="-1.9144500"/>
    <wpt lat="53.3594000" lon="-1.9151800"/>
    <wpt lat="53.3599000" lon="-1.9164600"/>
    <wpt lat="53.3612200" lon="-1.9168800"/>
    <wpt lat="53.3599000" lon="-1.9164600"/>
    <wpt lat="53.3594000" lon="-1.9151800"/>
    <wpt lat="53.3586700" lon="-1.9144500"/>
    <wpt lat="53.3587400" lon="-1.9138100"/>
    <wpt lat="53.3582800" lon="-1.9130800"/>
    <wpt lat="53.3583200" lon="-1.9125100"/>
    <wpt lat="53.3578200" lon="-1.9103000"/>
    <wpt lat="53.3582200" lon="-1.9081200"/>
    <wpt lat="53.3588100" lon="-1.9068400"/>
    <wpt lat="53.3591500" lon="-1.9048300"/>
    <wpt lat="53.3592200" lon="-1.9030500"/>
    <wpt lat="53.3594800" lon="-1.9013800"/>
    <wpt lat="53.3595300" lon="-1.8964600"/>
    <wpt lat="53.3602000" lon="-1.8914800"/>
    <wpt lat="53.3609000" lon="-1.8897600"/>
    <wpt lat="53.3612600" lon="-1.8879700"/>
    <wpt lat="53.3618400" lon="-1.8861600"/>
    <wpt lat="53.3625800" lon="-1.8846100"/>
    <wpt lat="53.3636800" lon="-1.8812900"/>
    <wpt lat="53.3642100" lon="-1.8801800"/>
    <wpt lat="53.3650700" lon="-1.8789700"/>
    <wpt lat="53.3636300" lon="-1.8764900"/>
    <wpt lat="53.3629900" lon="-1.8757200"/>
    <wpt lat="53.3636300" lon="-1.8764900"/>
    <wpt lat="53.3650700" lon="-1.8789700"/>
    <wpt lat="53.3662500" lon="-1.8777700"/>
    <wpt lat="53.3683400" lon="-1.8778000"/>
    <wpt lat="53.3687700" lon="-1.8782800"/>
    <wpt lat="53.3694400" lon="-1.8781500"/>
    <wpt lat="53.3698600" lon="-1.8785600"/>
    <wpt lat="53.3708800" lon="-1.8789500"/>
    <wpt lat="53.3714000" lon="-1.8798000"/>
    <wpt lat="53.3717900" lon="-1.8800600"/>
    <wpt lat="53.3714500" lon="-1.8836600"/>
    <wpt lat="53.3715700" lon="-1.8853600"/>
    <wpt lat="53.3718200" lon="-1.8868900"/>
    <wpt lat="53.3724000" lon="-1.8883200"/>
    <wpt lat="53.3726500" lon="-1.8901200"/>
    <wpt lat="53.3731100" lon="-1.8916500"/>
    <wpt lat="53.3728200" lon="-1.8928800"/>
    <wpt lat="53.3727800" lon="-1.8954400"/>
    <wpt lat="53.3721600" lon="-1.8976600"/>
    <wpt lat="53.3720600" lon="-1.8993800"/>
    <wpt lat="53.3721900" lon="-1.8998900"/>
    <wpt lat="53.3731500" lon="-1.9017100"/>
    <wpt lat="53.3756700" lon="-1.9031600"/>
    <wpt lat="53.3764600" lon="-1.9029700"/>
    <wpt lat="53.3773300" lon="-1.9016900"/>
    <wpt lat="53.3812700" lon="-1.9027800"/>
    <wpt lat="53.3815900" lon="-1.9048100"/>
    <wpt lat="53.3830700" lon="-1.9088300"/>
    <wpt lat="53.3840500" lon="-1.9107800"/>
    <wpt lat="53.3847500" lon="-1.9129300"/>
    <wpt lat="53.3869300" lon="-1.9145600"/>
    <wpt lat="53.3869600" lon="-1.9156900"/>
    <wpt lat="53.3873200" lon="-1.9171200"/>
    <wpt lat="53.3873500" lon="-1.9180500"/>
    <wpt lat="53.3888000" lon="-1.9225200"/>
    <wpt lat="53.3863500" lon="-1.9242200"/>
    <wpt lat="53.3841500" lon="-1.9248800"/>
    <wpt lat="53.3828200" lon="-1.9246700"/>
    <wpt lat="53.3813000" lon="-1.9255900"/>
    <wpt lat="53.3797000" lon="-1.9278100"/>
    <wpt lat="53.3789500" lon="-1.9284900"/>
    <wpt lat="53.3778500" lon="-1.9307100"/>
    <wpt lat="53.3775000" lon="-1.9305800"/>
    <trk>
        <name>Mount Famine &amp; South Head (Ethels) - Circular (www.thelostpeak.co.uk)</name>
        <trkseg>
            <trkpt lat="53.3775000" lon="-1.9305800"/>
            <trkpt lat="53.3774900" lon="-1.9306100"/>
            <trkpt lat="53.3771300" lon="-1.9302200"/>
            <trkpt lat="53.3767600" lon="-1.9303500"/>
            <trkpt lat="53.3765500" lon="-1.9279000"/>
            <trkpt lat="53.3765700" lon="-1.9275700"/>
            <trkpt lat="53.3765300" lon="-1.9273600"/>
            <trkpt lat="53.3763800" lon="-1.9269700"/>
            <trkpt lat="53.3762500" lon="-1.9267000"/>
            <trkpt lat="53.3760600" lon="-1.9261700"/>
            <trkpt lat="53.3759900" lon="-1.9260700"/>
            <trkpt lat="53.3757000" lon="-1.9258000"/>
            <trkpt lat="53.3755300" lon="-1.9255700"/>
            <trkpt lat="53.3754200" lon="-1.9255000"/>
            <trkpt lat="53.3753900" lon="-1.9251500"/>
            <trkpt lat="53.3753900" lon="-1.9247300"/>
            <trkpt lat="53.3754100" lon="-1.9242900"/>
            <trkpt lat="53.3754100" lon="-1.9237500"/>
            <trkpt lat="53.3753700" lon="-1.9234700"/>
            <trkpt lat="53.3753100" lon="-1.9232800"/>
            <trkpt lat="53.3751200" lon="-1.9230200"/>
            <trkpt lat="53.3749500" lon="-1.9228500"/>
            <trkpt lat="53.3746900" lon="-1.9226800"/>
            <trkpt lat="53.3745500" lon="-1.9225500"/>
            <trkpt lat="53.3742900" lon="-1.9224000"/>
            <trkpt lat="53.3740600" lon="-1.9224000"/>
            <trkpt lat="53.3737600" lon="-1.9222400"/>
            <trkpt lat="53.3734100" lon="-1.9218400"/>
            <trkpt lat="53.3730200" lon="-1.9214400"/>
            <trkpt lat="53.3727100" lon="-1.9214500"/>
            <trkpt lat="53.3725700" lon="-1.9215000"/>
            <trkpt lat="53.3723000" lon="-1.9216500"/>
            <trkpt lat="53.3714700" lon="-1.9217100"/>
            <trkpt lat="53.3710400" lon="-1.9216900"/>
            <trkpt lat="53.3706900" lon="-1.9215200"/>
            <trkpt lat="53.3698000" lon="-1.9210100"/>
            <trkpt lat="53.3692700" lon="-1.9209100"/>
            <trkpt lat="53.3686900" lon="-1.9207300"/>
            <trkpt lat="53.3685100" lon="-1.9208600"/>
            <trkpt lat="53.3683600" lon="-1.9208500"/>
            <trkpt lat="53.3681300" lon="-1.9206300"/>
            <trkpt lat="53.3679500" lon="-1.9206700"/>
            <trkpt lat="53.3678900" lon="-1.9207200"/>
            <trkpt lat="53.3672600" lon="-1.9209600"/>
            <trkpt lat="53.3665100" lon="-1.9211700"/>
            <trkpt lat="53.3661700" lon="-1.9211700"/>
            <trkpt lat="53.3658500" lon="-1.9212400"/>
            <trkpt lat="53.3656300" lon="-1.9215000"/>
            <trkpt lat="53.3656000" lon="-1.9216400"/>
            <trkpt lat="53.3655800" lon="-1.9217700"/>
            <trkpt lat="53.3655700" lon="-1.9220000"/>
            <trkpt lat="53.3655300" lon="-1.9221700"/>
            <trkpt lat="53.3655300" lon="-1.9223200"/>
            <trkpt lat="53.3655700" lon="-1.9224000"/>
            <trkpt lat="53.3655700" lon="-1.9224900"/>
            <trkpt lat="53.3654000" lon="-1.9230400"/>
            <trkpt lat="53.3653700" lon="-1.9233900"/>
            <trkpt lat="53.3653100" lon="-1.9237700"/>
            <trkpt lat="53.3652000" lon="-1.9242800"/>
            <trkpt lat="53.3649600" lon="-1.9245300"/>
            <trkpt lat="53.3648900" lon="-1.9251400"/>
            <trkpt lat="53.3650300" lon="-1.9260200"/>
            <trkpt lat="53.3650300" lon="-1.9261700"/>
            <trkpt lat="53.3644300" lon="-1.9257800"/>
            <trkpt lat="53.3634900" lon="-1.9251100"/>
            <trkpt lat="53.3614900" lon="-1.9238400"/>
            <trkpt lat="53.3614500" lon="-1.9237900"/>
            <trkpt lat="53.3612600" lon="-1.9231800"/>
            <trkpt lat="53.3611700" lon="-1.9227900"/>
            <trkpt lat="53.3612000" lon="-1.9227600"/>
            <trkpt lat="53.3611800" lon="-1.9227100"/>
            <trkpt lat="53.3611500" lon="-1.9227000"/>
            <trkpt lat="53.3610900" lon="-1.9225100"/>
            <trkpt lat="53.3608600" lon="-1.9221100"/>
            <trkpt lat="53.3606700" lon="-1.9217100"/>
            <trkpt lat="53.3605000" lon="-1.9214000"/>
            <trkpt lat="53.3603500" lon="-1.9209700"/>
            <trkpt lat="53.3599300" lon="-1.9199400"/>
            <trkpt lat="53.3597000" lon="-1.9192800"/>
            <trkpt lat="53.3595600" lon="-1.9189200"/>
            <trkpt lat="53.3592000" lon="-1.9182800"/>
            <trkpt lat="53.3588700" lon="-1.9177300"/>
            <trkpt lat="53.3586300" lon="-1.9174800"/>
            <trkpt lat="53.3585700" lon="-1.9173400"/>
            <trkpt lat="53.3585500" lon="-1.9171900"/>
            <trkpt lat="53.3586200" lon="-1.9168700"/>
            <trkpt lat="53.3586400" lon="-1.9167000"/>
            <trkpt lat="53.3586600" lon="-1.9163000"/>
            <trkpt lat="53.3586100" lon="-1.9148900"/>
            <trkpt lat="53.3586700" lon="-1.9144500"/>
            <trkpt lat="53.3589400" lon="-1.9147600"/>
            <trkpt lat="53.3594000" lon="-1.9151800"/>
            <trkpt lat="53.3596300" lon="-1.9160200"/>
            <trkpt lat="53.3599000" lon="-1.9164600"/>
            <trkpt lat="53.3603100" lon="-1.9167000"/>
            <trkpt lat="53.3610300" lon="-1.9168300"/>
            <trkpt lat="53.3612200" lon="-1.9168800"/>
            <trkpt lat="53.3610300" lon="-1.9168300"/>
            <trkpt lat="53.3603100" lon="-1.9167000"/>
            <trkpt lat="53.3599000" lon="-1.9164600"/>
            <trkpt lat="53.3596300" lon="-1.9160200"/>
            <trkpt lat="53.3594000" lon="-1.9151800"/>
            <trkpt lat="53.3589400" lon="-1.9147600"/>
            <trkpt lat="53.3586700" lon="-1.9144500"/>
            <trkpt lat="53.3587400" lon="-1.9138100"/>
            <trkpt lat="53.3586200" lon="-1.9136900"/>
            <trkpt lat="53.3584600" lon="-1.9134500"/>
            <trkpt lat="53.3582800" lon="-1.9130800"/>
            <trkpt lat="53.3582600" lon="-1.9129000"/>
            <trkpt lat="53.3583200" lon="-1.9125100"/>
            <trkpt lat="53.3582200" lon="-1.9121500"/>
            <trkpt lat="53.3581800" lon="-1.9118600"/>
            <trkpt lat="53.3581300" lon="-1.9116500"/>
            <trkpt lat="53.3579900" lon="-1.9113100"/>
            <trkpt lat="53.3579200" lon="-1.9109100"/>
            <trkpt lat="53.3578700" lon="-1.9107500"/>
            <trkpt lat="53.3578600" lon="-1.9104500"/>
            <trkpt lat="53.3578200" lon="-1.9103000"/>
            <trkpt lat="53.3578600" lon="-1.9099900"/>
            <trkpt lat="53.3578700" lon="-1.9098000"/>
            <trkpt lat="53.3580300" lon="-1.9089000"/>
            <trkpt lat="53.3582200" lon="-1.9081200"/>
            <trkpt lat="53.3583400" lon="-1.9078600"/>
            <trkpt lat="53.3583500" lon="-1.9077700"/>
            <trkpt lat="53.3584000" lon="-1.9077300"/>
            <trkpt lat="53.3584500" lon="-1.9075600"/>
            <trkpt lat="53.3585100" lon="-1.9074400"/>
            <trkpt lat="53.3585200" lon="-1.9073800"/>
            <trkpt lat="53.3586700" lon="-1.9071200"/>
            <trkpt lat="53.3587300" lon="-1.9070700"/>
            <trkpt lat="53.3588100" lon="-1.9068400"/>
            <trkpt lat="53.3590100" lon="-1.9052900"/>
            <trkpt lat="53.3591500" lon="-1.9048300"/>
            <trkpt lat="53.3592200" lon="-1.9037600"/>
            <trkpt lat="53.3592200" lon="-1.9030500"/>
            <trkpt lat="53.3593800" lon="-1.9017700"/>
            <trkpt lat="53.3594800" lon="-1.9013800"/>
            <trkpt lat="53.3594900" lon="-1.9004700"/>
            <trkpt lat="53.3594700" lon="-1.8992100"/>
            <trkpt lat="53.3595300" lon="-1.8964600"/>
            <trkpt lat="53.3596100" lon="-1.8961500"/>
            <trkpt lat="53.3596800" lon="-1.8947900"/>
            <trkpt lat="53.3599000" lon="-1.8933900"/>
            <trkpt lat="53.3600800" lon="-1.8921200"/>
            <trkpt lat="53.3602000" lon="-1.8914800"/>
            <trkpt lat="53.3606800" lon="-1.8903700"/>
            <trkpt lat="53.3609000" lon="-1.8897600"/>
            <trkpt lat="53.3609600" lon="-1.8895000"/>
            <trkpt lat="53.3610300" lon="-1.8893100"/>
            <trkpt lat="53.3611500" lon="-1.8884900"/>
            <trkpt lat="53.3612600" lon="-1.8879700"/>
            <trkpt lat="53.3613500" lon="-1.8877500"/>
            <trkpt lat="53.3613900" lon="-1.8875800"/>
            <trkpt lat="53.3614600" lon="-1.8874100"/>
            <trkpt lat="53.3616000" lon="-1.8871700"/>
            <trkpt lat="53.3616400" lon="-1.8869200"/>
            <trkpt lat="53.3616900" lon="-1.8868100"/>
            <trkpt lat="53.3617200" lon="-1.8866000"/>
            <trkpt lat="53.3618000" lon="-1.8864100"/>
            <trkpt lat="53.3618400" lon="-1.8861600"/>
            <trkpt lat="53.3620900" lon="-1.8857200"/>
            <trkpt lat="53.3621800" lon="-1.8853600"/>
            <trkpt lat="53.3623200" lon="-1.8852000"/>
            <trkpt lat="53.3624100" lon="-1.8847900"/>
            <trkpt lat="53.3625800" lon="-1.8846100"/>
            <trkpt lat="53.3626500" lon="-1.8843100"/>
            <trkpt lat="53.3627200" lon="-1.8841500"/>
            <trkpt lat="53.3628400" lon="-1.8837600"/>
            <trkpt lat="53.3629200" lon="-1.8835700"/>
            <trkpt lat="53.3629500" lon="-1.8833700"/>
            <trkpt lat="53.3629900" lon="-1.8832300"/>
            <trkpt lat="53.3630900" lon="-1.8830300"/>
            <trkpt lat="53.3632200" lon="-1.8827100"/>
            <trkpt lat="53.3633100" lon="-1.8826100"/>
            <trkpt lat="53.3633600" lon="-1.8824800"/>
            <trkpt lat="53.3633700" lon="-1.8822800"/>
            <trkpt lat="53.3635700" lon="-1.8817900"/>
            <trkpt lat="53.3636300" lon="-1.8815900"/>
            <trkpt lat="53.3636500" lon="-1.8813900"/>
            <trkpt lat="53.3636800" lon="-1.8812900"/>
            <trkpt lat="53.3638800" lon="-1.8811100"/>
            <trkpt lat="53.3639800" lon="-1.8806400"/>
            <trkpt lat="53.3641000" lon="-1.8804500"/>
            <trkpt lat="53.3642100" lon="-1.8801800"/>
            <trkpt lat="53.3643500" lon="-1.8799700"/>
            <trkpt lat="53.3644900" lon="-1.8797200"/>
            <trkpt lat="53.3647500" lon="-1.8793900"/>
            <trkpt lat="53.3649400" lon="-1.8791800"/>
            <trkpt lat="53.3650400" lon="-1.8790400"/>
            <trkpt lat="53.3650700" lon="-1.8789700"/>
            <trkpt lat="53.3649700" lon="-1.8787800"/>
            <trkpt lat="53.3641300" lon="-1.8773800"/>
            <trkpt lat="53.3636300" lon="-1.8764900"/>
            <trkpt lat="53.3631200" lon="-1.8759900"/>
            <trkpt lat="53.3629900" lon="-1.8757200"/>
            <trkpt lat="53.3631200" lon="-1.8759900"/>
            <trkpt lat="53.3636300" lon="-1.8764900"/>
            <trkpt lat="53.3641300" lon="-1.8773800"/>
            <trkpt lat="53.3649700" lon="-1.8787800"/>
            <trkpt lat="53.3650700" lon="-1.8789700"/>
            <trkpt lat="53.3650900" lon="-1.8789200"/>
            <trkpt lat="53.3652900" lon="-1.8787200"/>
            <trkpt lat="53.3654900" lon="-1.8784400"/>
            <trkpt lat="53.3655600" lon="-1.8783800"/>
            <trkpt lat="53.3656500" lon="-1.8783400"/>
            <trkpt lat="53.3657700" lon="-1.8781400"/>
            <trkpt lat="53.3659700" lon="-1.8779500"/>
            <trkpt lat="53.3661600" lon="-1.8778500"/>
            <trkpt lat="53.3662500" lon="-1.8777700"/>
            <trkpt lat="53.3663800" lon="-1.8777500"/>
            <trkpt lat="53.3664400" lon="-1.8777700"/>
            <trkpt lat="53.3665900" lon="-1.8777600"/>
            <trkpt lat="53.3667500" lon="-1.8777300"/>
            <trkpt lat="53.3669800" lon="-1.8777900"/>
            <trkpt lat="53.3670900" lon="-1.8777700"/>
            <trkpt lat="53.3672100" lon="-1.8778300"/>
            <trkpt lat="53.3675400" lon="-1.8779100"/>
            <trkpt lat="53.3676700" lon="-1.8778300"/>
            <trkpt lat="53.3677800" lon="-1.8778200"/>
            <trkpt lat="53.3678600" lon="-1.8778600"/>
            <trkpt lat="53.3681400" lon="-1.8778600"/>
            <trkpt lat="53.3683400" lon="-1.8778000"/>
            <trkpt lat="53.3684800" lon="-1.8779600"/>
            <trkpt lat="53.3685500" lon="-1.8781200"/>
            <trkpt lat="53.3686500" lon="-1.8781100"/>
            <trkpt lat="53.3687300" lon="-1.8782500"/>
            <trkpt lat="53.3687700" lon="-1.8782800"/>
            <trkpt lat="53.3688400" lon="-1.8782300"/>
            <trkpt lat="53.3689000" lon="-1.8781600"/>
            <trkpt lat="53.3692100" lon="-1.8782200"/>
            <trkpt lat="53.3693500" lon="-1.8781400"/>
            <trkpt lat="53.3694400" lon="-1.8781500"/>
            <trkpt lat="53.3696300" lon="-1.8783800"/>
            <trkpt lat="53.3698600" lon="-1.8785600"/>
            <trkpt lat="53.3701400" lon="-1.8786500"/>
            <trkpt lat="53.3703300" lon="-1.8786700"/>
            <trkpt lat="53.3705400" lon="-1.8787600"/>
            <trkpt lat="53.3706500" lon="-1.8788400"/>
            <trkpt lat="53.3707700" lon="-1.8789600"/>
            <trkpt lat="53.3708100" lon="-1.8789700"/>
            <trkpt lat="53.3708800" lon="-1.8789500"/>
            <trkpt lat="53.3709200" lon="-1.8790000"/>
            <trkpt lat="53.3709500" lon="-1.8790800"/>
            <trkpt lat="53.3709700" lon="-1.8791900"/>
            <trkpt lat="53.3710100" lon="-1.8792700"/>
            <trkpt lat="53.3710900" lon="-1.8793600"/>
            <trkpt lat="53.3714000" lon="-1.8798000"/>
            <trkpt lat="53.3716400" lon="-1.8800600"/>
            <trkpt lat="53.3717000" lon="-1.8801500"/>
            <trkpt lat="53.3717200" lon="-1.8801600"/>
            <trkpt lat="53.3717900" lon="-1.8800600"/>
            <trkpt lat="53.3717600" lon="-1.8809900"/>
            <trkpt lat="53.3716700" lon="-1.8814900"/>
            <trkpt lat="53.3714500" lon="-1.8836600"/>
            <trkpt lat="53.3715000" lon="-1.8843700"/>
            <trkpt lat="53.3715400" lon="-1.8847600"/>
            <trkpt lat="53.3715700" lon="-1.8853600"/>
            <trkpt lat="53.3717300" lon="-1.8861600"/>
            <trkpt lat="53.3718200" lon="-1.8868900"/>
            <trkpt lat="53.3718900" lon="-1.8871500"/>
            <trkpt lat="53.3720200" lon="-1.8875500"/>
            <trkpt lat="53.3722000" lon="-1.8880200"/>
            <trkpt lat="53.3724000" lon="-1.8883200"/>
            <trkpt lat="53.3724300" lon="-1.8887800"/>
            <trkpt lat="53.3726100" lon="-1.8893800"/>
            <trkpt lat="53.3726500" lon="-1.8901200"/>
            <trkpt lat="53.3728500" lon="-1.8907500"/>
            <trkpt lat="53.3730400" lon="-1.8912600"/>
            <trkpt lat="53.3731100" lon="-1.8916500"/>
            <trkpt lat="53.3730400" lon="-1.8923300"/>
            <trkpt lat="53.3728200" lon="-1.8928800"/>
            <trkpt lat="53.3728300" lon="-1.8930300"/>
            <trkpt lat="53.3728100" lon="-1.8933600"/>
            <trkpt lat="53.3727800" lon="-1.8954400"/>
            <trkpt lat="53.3725800" lon="-1.8963600"/>
            <trkpt lat="53.3721600" lon="-1.8976600"/>
            <trkpt lat="53.3720600" lon="-1.8986800"/>
            <trkpt lat="53.3720600" lon="-1.8993800"/>
            <trkpt lat="53.3721900" lon="-1.8998900"/>
            <trkpt lat="53.3725900" lon="-1.9007000"/>
            <trkpt lat="53.3728000" lon="-1.9011600"/>
            <trkpt lat="53.3731500" lon="-1.9017100"/>
            <trkpt lat="53.3736300" lon="-1.9019100"/>
            <trkpt lat="53.3737500" lon="-1.9021400"/>
            <trkpt lat="53.3747700" lon="-1.9025500"/>
            <trkpt lat="53.3753700" lon="-1.9030000"/>
            <trkpt lat="53.3756700" lon="-1.9031600"/>
            <trkpt lat="53.3762100" lon="-1.9031300"/>
            <trkpt lat="53.3764600" lon="-1.9029700"/>
            <trkpt lat="53.3765800" lon="-1.9028600"/>
            <trkpt lat="53.3766800" lon="-1.9026900"/>
            <trkpt lat="53.3767600" lon="-1.9025000"/>
            <trkpt lat="53.3770600" lon="-1.9020900"/>
            <trkpt lat="53.3773300" lon="-1.9016900"/>
            <trkpt lat="53.3777200" lon="-1.9018000"/>
            <trkpt lat="53.3782700" lon="-1.9019200"/>
            <trkpt lat="53.3792300" lon="-1.9021800"/>
            <trkpt lat="53.3805500" lon="-1.9026000"/>
            <trkpt lat="53.3812700" lon="-1.9027800"/>
            <trkpt lat="53.3813600" lon="-1.9035200"/>
            <trkpt lat="53.3814800" lon="-1.9041700"/>
            <trkpt lat="53.3815200" lon="-1.9045000"/>
            <trkpt lat="53.3815900" lon="-1.9048100"/>
            <trkpt lat="53.3821600" lon="-1.9061900"/>
            <trkpt lat="53.3823000" lon="-1.9066500"/>
            <trkpt lat="53.3830700" lon="-1.9088300"/>
            <trkpt lat="53.3834000" lon="-1.9093700"/>
            <trkpt lat="53.3836200" lon="-1.9097800"/>
            <trkpt lat="53.3840500" lon="-1.9107800"/>
            <trkpt lat="53.3843100" lon="-1.9116700"/>
            <trkpt lat="53.3847500" lon="-1.9129300"/>
            <trkpt lat="53.3850300" lon="-1.9130400"/>
            <trkpt lat="53.3859100" lon="-1.9137200"/>
            <trkpt lat="53.3860700" lon="-1.9139100"/>
            <trkpt lat="53.3868400" lon="-1.9144600"/>
            <trkpt lat="53.3869300" lon="-1.9145600"/>
            <trkpt lat="53.3869600" lon="-1.9156900"/>
            <trkpt lat="53.3871100" lon="-1.9163100"/>
            <trkpt lat="53.3871200" lon="-1.9164200"/>
            <trkpt lat="53.3872100" lon="-1.9167300"/>
            <trkpt lat="53.3872800" lon="-1.9169200"/>
            <trkpt lat="53.3873200" lon="-1.9171200"/>
            <trkpt lat="53.3873400" lon="-1.9174300"/>
            <trkpt lat="53.3873500" lon="-1.9180500"/>
            <trkpt lat="53.3876600" lon="-1.9190600"/>
            <trkpt lat="53.3877600" lon="-1.9193400"/>
            <trkpt lat="53.3878500" lon="-1.9197100"/>
            <trkpt lat="53.3878900" lon="-1.9197500"/>
            <trkpt lat="53.3879500" lon="-1.9197500"/>
            <trkpt lat="53.3879800" lon="-1.9198200"/>
            <trkpt lat="53.3883300" lon="-1.9211400"/>
            <trkpt lat="53.3883800" lon="-1.9213700"/>
            <trkpt lat="53.3885400" lon="-1.9217000"/>
            <trkpt lat="53.3886200" lon="-1.9220000"/>
            <trkpt lat="53.3888000" lon="-1.9225200"/>
            <trkpt lat="53.3881000" lon="-1.9230100"/>
            <trkpt lat="53.3876500" lon="-1.9233800"/>
            <trkpt lat="53.3871500" lon="-1.9237400"/>
            <trkpt lat="53.3863500" lon="-1.9242200"/>
            <trkpt lat="53.3856600" lon="-1.9244400"/>
            <trkpt lat="53.3849500" lon="-1.9245100"/>
            <trkpt lat="53.3847700" lon="-1.9245500"/>
            <trkpt lat="53.3845900" lon="-1.9246300"/>
            <trkpt lat="53.3841500" lon="-1.9248800"/>
            <trkpt lat="53.3838300" lon="-1.9249200"/>
            <trkpt lat="53.3834300" lon="-1.9247800"/>
            <trkpt lat="53.3831800" lon="-1.9246600"/>
            <trkpt lat="53.3830100" lon="-1.9246200"/>
            <trkpt lat="53.3828200" lon="-1.9246700"/>
            <trkpt lat="53.3824500" lon="-1.9248400"/>
            <trkpt lat="53.3817200" lon="-1.9253000"/>
            <trkpt lat="53.3813000" lon="-1.9255900"/>
            <trkpt lat="53.3810100" lon="-1.9258900"/>
            <trkpt lat="53.3806700" lon="-1.9263500"/>
            <trkpt lat="53.3805000" lon="-1.9266100"/>
            <trkpt lat="53.3800500" lon="-1.9272200"/>
            <trkpt lat="53.3797000" lon="-1.9278100"/>
            <trkpt lat="53.3795600" lon="-1.9279500"/>
            <trkpt lat="53.3790400" lon="-1.9283700"/>
            <trkpt lat="53.3789500" lon="-1.9284900"/>
            <trkpt lat="53.3787900" lon="-1.9287900"/>
            <trkpt lat="53.3785800" lon="-1.9292500"/>
            <trkpt lat="53.3783000" lon="-1.9299400"/>
            <trkpt lat="53.3781200" lon="-1.9303400"/>
            <trkpt lat="53.3780900" lon="-1.9303200"/>
            <trkpt lat="53.3779800" lon="-1.9304300"/>
            <trkpt lat="53.3779200" lon="-1.9305800"/>
            <trkpt lat="53.3778500" lon="-1.9307100"/>
            <trkpt lat="53.3776700" lon="-1.9307900"/>
            <trkpt lat="53.3774900" lon="-1.9306100"/>
            <trkpt lat="53.3775000" lon="-1.9305800"/>
        </trkseg>
    </trk>
</gpx>
