<?xml version="1.0" encoding="UTF-8" standalone="yes"?>
<gpx version="1.1" creator="OS Maps - Web" xmlns="http://www.topografix.com/GPX/1/1"
xmlns:xsi="http://www.w3.org/2001/XMLSchema-instance"
xsi:schemaLocation="http://www.topografix.com/GPX/1/1 http://www.topografix.com/GPX/1/1/gpx.xsd"
xmlns:gs="http://www.topografix.com/GPX/gpx_style/0/2"
xmlns:gh="https://graphhopper.com/public/schema/gpx/1.1"
xmlns:os="https://ordnancesurvey.co.uk/public/schema/route/0.1">
    <metadata>
        <name>Musden Low (Ethel) - Circular (www.thelostpeak.co.uk)</name>
        <desc>www.thelostpeak.co.uk</desc>
        <bounds minlat="53.0446400" minlon="-1.8523800" maxlat="53.0830400" maxlon="-1.8046000"/>
        <extensions>
            <os:version>2.0</os:version>
            <os:point lat="53.0536000" lon="-1.8061100" type="start"/>
            <os:point lat="53.0536000" lon="-1.8061100" type="end"/>
            <os:activity>ON_FOOT_WALKING</os:activity>
            <os:difficulty>MODERATE</os:difficulty>
            <os:paths/>
            <os:distance>14173.3305934</os:distance>
            <os:elevation_ascent>458.0400000</os:elevation_ascent>
        </extensions>
    </metadata>
    <wpt lat="53.0536000" lon="-1.8061100"/>
    <wpt lat="53.0504200" lon="-1.8174100"/>
    <wpt lat="53.0446400" lon="-1.8230800"/>
    <wpt lat="53.0782900" lon="-1.8512800"/>
    <wpt lat="53.0683800" lon="-1.8361000"/>
    <wpt lat="53.0536000" lon="-1.8061100"/>
    <trk>
        <name>Musden Low (Ethel) - Circular (www.thelostpeak.co.uk)</name>
        <trkseg>
            <trkpt lat="53.0536000" lon="-1.8061100"><ele>160.2</ele></trkpt>
            <trkpt lat="53.0536300" lon="-1.8061000"><ele>160.4</ele></trkpt>
            <trkpt lat="53.0536500" lon="-1.8059000"><ele>160.9</ele></trkpt>
            <trkpt lat="53.0536600" lon="-1.8055100"><ele>162.3</ele></trkpt>
            <trkpt lat="53.0536100" lon="-1.8055000"><ele>161.4</ele></trkpt>
            <trkpt lat="53.0535800" lon="-1.8054400"><ele>161.1</ele></trkpt>
            <trkpt lat="53.0535700" lon="-1.8053300"><ele>160.8</ele></trkpt>
            <trkpt lat="53.0535900" lon="-1.8052800"><ele>161.3</ele></trkpt>
            <trkpt lat="53.0535100" lon="-1.8050500"><ele>159.9</ele></trkpt>
            <trkpt lat="53.0534000" lon="-1.8046000"><ele>156.1</ele></trkpt>
            <trkpt lat="53.0533400" lon="-1.8047000"><ele>155.7</ele></trkpt>
            <trkpt lat="53.0533000" lon="-1.8048100"><ele>155.4</ele></trkpt>
            <trkpt lat="53.0532500" lon="-1.8053500"><ele>157.5</ele></trkpt>
            <trkpt lat="53.0531600" lon="-1.8058200"><ele>160.4</ele></trkpt>
            <trkpt lat="53.0531400" lon="-1.8058900"><ele>161.2</ele></trkpt>
            <trkpt lat="53.0531100" lon="-1.8059100"><ele>161.5</ele></trkpt>
            <trkpt lat="53.0531400" lon="-1.8061700"><ele>162.8</ele></trkpt>
            <trkpt lat="53.0531800" lon="-1.8062300"><ele>162.8</ele></trkpt>
            <trkpt lat="53.0532400" lon="-1.8064200"><ele>162.1</ele></trkpt>
            <trkpt lat="53.0533100" lon="-1.8065500"><ele>162.1</ele></trkpt>
            <trkpt lat="53.0534200" lon="-1.8066900"><ele>161.3</ele></trkpt>
            <trkpt lat="53.0544800" lon="-1.8089900"><ele>166.1</ele></trkpt>
            <trkpt lat="53.0546900" lon="-1.8096800"><ele>165.8</ele></trkpt>
            <trkpt lat="53.0547400" lon="-1.8099900"><ele>164.3</ele></trkpt>
            <trkpt lat="53.0548200" lon="-1.8100800"><ele>162.5</ele></trkpt>
            <trkpt lat="53.0554900" lon="-1.8101800"><ele>154.9</ele></trkpt>
            <trkpt lat="53.0558800" lon="-1.8103000"><ele>150.3</ele></trkpt>
            <trkpt lat="53.0560100" lon="-1.8104100"><ele>148.3</ele></trkpt>
            <trkpt lat="53.0563200" lon="-1.8103200"><ele>149.0</ele></trkpt>
            <trkpt lat="53.0563800" lon="-1.8107400"><ele>144.0</ele></trkpt>
            <trkpt lat="53.0568200" lon="-1.8117300"><ele>149.7</ele></trkpt>
            <trkpt lat="53.0568400" lon="-1.8125200"><ele>155.8</ele></trkpt>
            <trkpt lat="53.0567300" lon="-1.8144100"><ele>180.2</ele></trkpt>
            <trkpt lat="53.0563000" lon="-1.8159200"><ele>215.7</ele></trkpt>
            <trkpt lat="53.0562200" lon="-1.8163000"><ele>223.4</ele></trkpt>
            <trkpt lat="53.0562000" lon="-1.8171700"><ele>240.4</ele></trkpt>
            <trkpt lat="53.0560700" lon="-1.8181500"><ele>257.0</ele></trkpt>
            <trkpt lat="53.0555700" lon="-1.8177300"><ele>260.8</ele></trkpt>
            <trkpt lat="53.0550400" lon="-1.8174800"><ele>265.8</ele></trkpt>
            <trkpt lat="53.0547300" lon="-1.8174300"><ele>270.6</ele></trkpt>
            <trkpt lat="53.0540500" lon="-1.8177500"><ele>272.8</ele></trkpt>
            <trkpt lat="53.0536300" lon="-1.8176500"><ele>274.4</ele></trkpt>
            <trkpt lat="53.0532700" lon="-1.8174200"><ele>277.1</ele></trkpt>
            <trkpt lat="53.0526400" lon="-1.8171800"><ele>286.5</ele></trkpt>
            <trkpt lat="53.0520800" lon="-1.8172700"><ele>293.2</ele></trkpt>
            <trkpt lat="53.0514800" lon="-1.8175800"><ele>299.9</ele></trkpt>
            <trkpt lat="53.0509200" lon="-1.8187100"><ele>304.9</ele></trkpt>
            <trkpt lat="53.0509000" lon="-1.8187000"><ele>304.8</ele></trkpt>
            <trkpt lat="53.0508800" lon="-1.8184300"><ele>304.5</ele></trkpt>
            <trkpt lat="53.0508000" lon="-1.8181500"><ele>304.3</ele></trkpt>
            <trkpt lat="53.0506900" lon="-1.8178300"><ele>303.2</ele></trkpt>
            <trkpt lat="53.0505500" lon="-1.8175600"><ele>301.6</ele></trkpt>
            <trkpt lat="53.0504700" lon="-1.8174500"><ele>300.4</ele></trkpt>
            <trkpt lat="53.0504200" lon="-1.8174100"><ele>299.7</ele></trkpt>
            <trkpt lat="53.0503600" lon="-1.8173700"><ele>299.0</ele></trkpt>
            <trkpt lat="53.0502000" lon="-1.8177300"><ele>303.0</ele></trkpt>
            <trkpt lat="53.0493700" lon="-1.8177200"><ele>297.1</ele></trkpt>
            <trkpt lat="53.0493100" lon="-1.8177700"><ele>297.2</ele></trkpt>
            <trkpt lat="53.0483300" lon="-1.8203700"><ele>319.4</ele></trkpt>
            <trkpt lat="53.0481900" lon="-1.8208200"><ele>322.9</ele></trkpt>
            <trkpt lat="53.0478700" lon="-1.8216500"><ele>327.7</ele></trkpt>
            <trkpt lat="53.0473100" lon="-1.8227000"><ele>335.2</ele></trkpt>
            <trkpt lat="53.0470500" lon="-1.8229000"><ele>336.0</ele></trkpt>
            <trkpt lat="53.0465900" lon="-1.8229700"><ele>335.3</ele></trkpt>
            <trkpt lat="53.0457600" lon="-1.8228300"><ele>331.8</ele></trkpt>
            <trkpt lat="53.0452200" lon="-1.8228300"><ele>331.7</ele></trkpt>
            <trkpt lat="53.0448900" lon="-1.8230400"><ele>330.7</ele></trkpt>
            <trkpt lat="53.0447100" lon="-1.8240400"><ele>328.7</ele></trkpt>
            <trkpt lat="53.0446400" lon="-1.8230800"><ele>327.9</ele></trkpt>
            <trkpt lat="53.0447100" lon="-1.8240400"><ele>328.7</ele></trkpt>
            <trkpt lat="53.0454000" lon="-1.8253100"><ele>333.4</ele></trkpt>
            <trkpt lat="53.0458300" lon="-1.8267300"><ele>329.4</ele></trkpt>
            <trkpt lat="53.0459400" lon="-1.8268600"><ele>328.3</ele></trkpt>
            <trkpt lat="53.0460300" lon="-1.8271600"><ele>326.7</ele></trkpt>
            <trkpt lat="53.0467100" lon="-1.8290800"><ele>324.8</ele></trkpt>
            <trkpt lat="53.0468300" lon="-1.8293700"><ele>323.8</ele></trkpt>
            <trkpt lat="53.0471700" lon="-1.8308700"><ele>319.2</ele></trkpt>
            <trkpt lat="53.0486700" lon="-1.8346500"><ele>309.5</ele></trkpt>
            <trkpt lat="53.0486900" lon="-1.8347400"><ele>309.5</ele></trkpt>
            <trkpt lat="53.0486000" lon="-1.8350200"><ele>310.0</ele></trkpt>
            <trkpt lat="53.0484700" lon="-1.8351000"><ele>310.8</ele></trkpt>
            <trkpt lat="53.0484400" lon="-1.8368400"><ele>307.4</ele></trkpt>
            <trkpt lat="53.0483800" lon="-1.8371200"><ele>305.7</ele></trkpt>
            <trkpt lat="53.0483100" lon="-1.8379800"><ele>299.4</ele></trkpt>
            <trkpt lat="53.0479100" lon="-1.8393200"><ele>291.7</ele></trkpt>
            <trkpt lat="53.0475600" lon="-1.8400500"><ele>289.9</ele></trkpt>
            <trkpt lat="53.0477300" lon="-1.8405500"><ele>287.2</ele></trkpt>
            <trkpt lat="53.0478700" lon="-1.8411400"><ele>284.1</ele></trkpt>
            <trkpt lat="53.0479200" lon="-1.8414200"><ele>284.0</ele></trkpt>
            <trkpt lat="53.0479400" lon="-1.8418100"><ele>283.7</ele></trkpt>
            <trkpt lat="53.0481800" lon="-1.8419200"><ele>283.2</ele></trkpt>
            <trkpt lat="53.0484300" lon="-1.8421300"><ele>282.7</ele></trkpt>
            <trkpt lat="53.0490400" lon="-1.8429400"><ele>279.5</ele></trkpt>
            <trkpt lat="53.0493800" lon="-1.8432500"><ele>279.2</ele></trkpt>
            <trkpt lat="53.0496600" lon="-1.8434000"><ele>277.9</ele></trkpt>
            <trkpt lat="53.0501400" lon="-1.8429300"><ele>276.7</ele></trkpt>
            <trkpt lat="53.0509800" lon="-1.8422200"><ele>277.6</ele></trkpt>
            <trkpt lat="53.0510800" lon="-1.8423400"><ele>276.7</ele></trkpt>
            <trkpt lat="53.0513400" lon="-1.8425600"><ele>276.5</ele></trkpt>
            <trkpt lat="53.0515600" lon="-1.8429000"><ele>279.7</ele></trkpt>
            <trkpt lat="53.0520800" lon="-1.8427700"><ele>281.9</ele></trkpt>
            <trkpt lat="53.0525900" lon="-1.8426900"><ele>287.1</ele></trkpt>
            <trkpt lat="53.0539200" lon="-1.8424000"><ele>304.1</ele></trkpt>
            <trkpt lat="53.0543900" lon="-1.8423600"><ele>311.6</ele></trkpt>
            <trkpt lat="53.0548000" lon="-1.8423600"><ele>315.0</ele></trkpt>
            <trkpt lat="53.0552100" lon="-1.8422900"><ele>317.3</ele></trkpt>
            <trkpt lat="53.0557000" lon="-1.8420800"><ele>319.4</ele></trkpt>
            <trkpt lat="53.0560800" lon="-1.8419900"><ele>321.8</ele></trkpt>
            <trkpt lat="53.0562800" lon="-1.8420500"><ele>322.9</ele></trkpt>
            <trkpt lat="53.0563900" lon="-1.8421200"><ele>323.6</ele></trkpt>
            <trkpt lat="53.0567000" lon="-1.8425000"><ele>327.0</ele></trkpt>
            <trkpt lat="53.0569800" lon="-1.8427400"><ele>328.3</ele></trkpt>
            <trkpt lat="53.0576500" lon="-1.8432200"><ele>328.0</ele></trkpt>
            <trkpt lat="53.0581000" lon="-1.8436500"><ele>329.4</ele></trkpt>
            <trkpt lat="53.0589100" lon="-1.8441500"><ele>332.0</ele></trkpt>
            <trkpt lat="53.0590900" lon="-1.8443600"><ele>331.4</ele></trkpt>
            <trkpt lat="53.0591800" lon="-1.8446100"><ele>331.2</ele></trkpt>
            <trkpt lat="53.0593500" lon="-1.8448400"><ele>331.7</ele></trkpt>
            <trkpt lat="53.0597600" lon="-1.8451000"><ele>332.9</ele></trkpt>
            <trkpt lat="53.0614300" lon="-1.8459300"><ele>332.2</ele></trkpt>
            <trkpt lat="53.0619600" lon="-1.8460700"><ele>329.8</ele></trkpt>
            <trkpt lat="53.0628900" lon="-1.8462300"><ele>322.6</ele></trkpt>
            <trkpt lat="53.0630100" lon="-1.8464200"><ele>322.5</ele></trkpt>
            <trkpt lat="53.0643100" lon="-1.8474600"><ele>314.9</ele></trkpt>
            <trkpt lat="53.0648300" lon="-1.8477200"><ele>311.6</ele></trkpt>
            <trkpt lat="53.0657200" lon="-1.8480000"><ele>305.5</ele></trkpt>
            <trkpt lat="53.0683300" lon="-1.8484000"><ele>285.7</ele></trkpt>
            <trkpt lat="53.0691700" lon="-1.8485900"><ele>279.2</ele></trkpt>
            <trkpt lat="53.0693300" lon="-1.8486800"><ele>276.6</ele></trkpt>
            <trkpt lat="53.0708800" lon="-1.8498000"><ele>266.3</ele></trkpt>
            <trkpt lat="53.0711100" lon="-1.8500600"><ele>264.2</ele></trkpt>
            <trkpt lat="53.0714600" lon="-1.8503300"><ele>262.5</ele></trkpt>
            <trkpt lat="53.0718100" lon="-1.8505200"><ele>258.8</ele></trkpt>
            <trkpt lat="53.0720500" lon="-1.8507300"><ele>257.9</ele></trkpt>
            <trkpt lat="53.0728700" lon="-1.8515500"><ele>253.6</ele></trkpt>
            <trkpt lat="53.0731200" lon="-1.8518300"><ele>254.0</ele></trkpt>
            <trkpt lat="53.0734300" lon="-1.8520500"><ele>251.9</ele></trkpt>
            <trkpt lat="53.0735700" lon="-1.8521100"><ele>251.6</ele></trkpt>
            <trkpt lat="53.0740700" lon="-1.8522100"><ele>248.4</ele></trkpt>
            <trkpt lat="53.0745100" lon="-1.8522300"><ele>241.8</ele></trkpt>
            <trkpt lat="53.0754900" lon="-1.8523800"><ele>233.0</ele></trkpt>
            <trkpt lat="53.0762800" lon="-1.8523600"><ele>221.3</ele></trkpt>
            <trkpt lat="53.0764000" lon="-1.8523000"><ele>218.7</ele></trkpt>
            <trkpt lat="53.0764900" lon="-1.8522100"><ele>216.5</ele></trkpt>
            <trkpt lat="53.0767900" lon="-1.8517500"><ele>211.4</ele></trkpt>
            <trkpt lat="53.0771300" lon="-1.8514300"><ele>207.0</ele></trkpt>
            <trkpt lat="53.0776500" lon="-1.8511800"><ele>196.6</ele></trkpt>
            <trkpt lat="53.0780000" lon="-1.8511300"><ele>186.4</ele></trkpt>
            <trkpt lat="53.0780800" lon="-1.8511600"><ele>184.6</ele></trkpt>
            <trkpt lat="53.0782200" lon="-1.8514400"><ele>183.2</ele></trkpt>
            <trkpt lat="53.0782600" lon="-1.8514600"><ele>182.4</ele></trkpt>
            <trkpt lat="53.0782900" lon="-1.8512800"><ele>181.4</ele></trkpt>
            <trkpt lat="53.0784500" lon="-1.8508500"><ele>180.1</ele></trkpt>
            <trkpt lat="53.0786500" lon="-1.8506000"><ele>180.0</ele></trkpt>
            <trkpt lat="53.0787800" lon="-1.8505100"><ele>179.8</ele></trkpt>
            <trkpt lat="53.0789500" lon="-1.8504400"><ele>181.1</ele></trkpt>
            <trkpt lat="53.0791100" lon="-1.8504500"><ele>182.2</ele></trkpt>
            <trkpt lat="53.0796600" lon="-1.8508100"><ele>183.6</ele></trkpt>
            <trkpt lat="53.0798100" lon="-1.8508400"><ele>182.5</ele></trkpt>
            <trkpt lat="53.0800700" lon="-1.8508200"><ele>180.5</ele></trkpt>
            <trkpt lat="53.0809700" lon="-1.8503000"><ele>182.2</ele></trkpt>
            <trkpt lat="53.0810800" lon="-1.8501600"><ele>180.9</ele></trkpt>
            <trkpt lat="53.0812500" lon="-1.8497700"><ele>181.0</ele></trkpt>
            <trkpt lat="53.0813900" lon="-1.8490000"><ele>180.0</ele></trkpt>
            <trkpt lat="53.0814100" lon="-1.8486700"><ele>182.0</ele></trkpt>
            <trkpt lat="53.0814400" lon="-1.8484100"><ele>184.0</ele></trkpt>
            <trkpt lat="53.0815100" lon="-1.8481200"><ele>185.3</ele></trkpt>
            <trkpt lat="53.0821900" lon="-1.8468200"><ele>178.0</ele></trkpt>
            <trkpt lat="53.0823500" lon="-1.8466300"><ele>177.3</ele></trkpt>
            <trkpt lat="53.0826000" lon="-1.8464500"><ele>176.5</ele></trkpt>
            <trkpt lat="53.0826700" lon="-1.8464400"><ele>176.1</ele></trkpt>
            <trkpt lat="53.0826600" lon="-1.8463800"><ele>175.7</ele></trkpt>
            <trkpt lat="53.0828400" lon="-1.8459700"><ele>173.3</ele></trkpt>
            <trkpt lat="53.0830400" lon="-1.8456700"><ele>171.5</ele></trkpt>
            <trkpt lat="53.0829100" lon="-1.8453100"><ele>173.0</ele></trkpt>
            <trkpt lat="53.0828900" lon="-1.8452000"><ele>173.2</ele></trkpt>
            <trkpt lat="53.0829600" lon="-1.8444600"><ele>173.8</ele></trkpt>
            <trkpt lat="53.0829600" lon="-1.8437200"><ele>173.9</ele></trkpt>
            <trkpt lat="53.0828700" lon="-1.8431100"><ele>176.8</ele></trkpt>
            <trkpt lat="53.0828500" lon="-1.8428400"><ele>178.7</ele></trkpt>
            <trkpt lat="53.0827700" lon="-1.8425900"><ele>182.1</ele></trkpt>
            <trkpt lat="53.0825100" lon="-1.8421800"><ele>189.3</ele></trkpt>
            <trkpt lat="53.0819300" lon="-1.8411700"><ele>195.3</ele></trkpt>
            <trkpt lat="53.0818400" lon="-1.8410400"><ele>195.2</ele></trkpt>
            <trkpt lat="53.0817100" lon="-1.8409500"><ele>196.0</ele></trkpt>
            <trkpt lat="53.0813300" lon="-1.8408100"><ele>201.2</ele></trkpt>
            <trkpt lat="53.0810900" lon="-1.8406900"><ele>203.2</ele></trkpt>
            <trkpt lat="53.0808400" lon="-1.8406900"><ele>204.4</ele></trkpt>
            <trkpt lat="53.0801100" lon="-1.8409400"><ele>206.1</ele></trkpt>
            <trkpt lat="53.0798000" lon="-1.8410200"><ele>206.3</ele></trkpt>
            <trkpt lat="53.0793700" lon="-1.8412300"><ele>207.4</ele></trkpt>
            <trkpt lat="53.0790700" lon="-1.8415000"><ele>211.4</ele></trkpt>
            <trkpt lat="53.0788200" lon="-1.8416400"><ele>213.9</ele></trkpt>
            <trkpt lat="53.0786700" lon="-1.8416700"><ele>215.2</ele></trkpt>
            <trkpt lat="53.0784600" lon="-1.8416500"><ele>216.1</ele></trkpt>
            <trkpt lat="53.0780500" lon="-1.8418000"><ele>220.2</ele></trkpt>
            <trkpt lat="53.0779700" lon="-1.8417900"><ele>219.9</ele></trkpt>
            <trkpt lat="53.0777400" lon="-1.8416800"><ele>220.1</ele></trkpt>
            <trkpt lat="53.0775400" lon="-1.8416500"><ele>221.0</ele></trkpt>
            <trkpt lat="53.0772800" lon="-1.8416500"><ele>222.8</ele></trkpt>
            <trkpt lat="53.0772000" lon="-1.8416700"><ele>224.0</ele></trkpt>
            <trkpt lat="53.0771100" lon="-1.8417500"><ele>225.8</ele></trkpt>
            <trkpt lat="53.0770000" lon="-1.8417900"><ele>227.8</ele></trkpt>
            <trkpt lat="53.0769100" lon="-1.8417800"><ele>228.8</ele></trkpt>
            <trkpt lat="53.0764700" lon="-1.8410700"><ele>234.7</ele></trkpt>
            <trkpt lat="53.0762300" lon="-1.8408900"><ele>241.1</ele></trkpt>
            <trkpt lat="53.0747900" lon="-1.8408800"><ele>269.8</ele></trkpt>
            <trkpt lat="53.0742300" lon="-1.8408400"><ele>278.0</ele></trkpt>
            <trkpt lat="53.0737900" lon="-1.8409400"><ele>282.1</ele></trkpt>
            <trkpt lat="53.0734600" lon="-1.8409800"><ele>282.1</ele></trkpt>
            <trkpt lat="53.0731200" lon="-1.8408200"><ele>279.3</ele></trkpt>
            <trkpt lat="53.0728600" lon="-1.8406100"><ele>276.0</ele></trkpt>
            <trkpt lat="53.0723200" lon="-1.8404000"><ele>271.0</ele></trkpt>
            <trkpt lat="53.0722300" lon="-1.8402800"><ele>269.8</ele></trkpt>
            <trkpt lat="53.0720600" lon="-1.8399700"><ele>266.2</ele></trkpt>
            <trkpt lat="53.0713100" lon="-1.8390300"><ele>257.2</ele></trkpt>
            <trkpt lat="53.0707500" lon="-1.8380700"><ele>250.0</ele></trkpt>
            <trkpt lat="53.0705900" lon="-1.8379600"><ele>249.6</ele></trkpt>
            <trkpt lat="53.0705100" lon="-1.8377800"><ele>249.0</ele></trkpt>
            <trkpt lat="53.0704400" lon="-1.8374800"><ele>247.8</ele></trkpt>
            <trkpt lat="53.0703600" lon="-1.8374800"><ele>247.8</ele></trkpt>
            <trkpt lat="53.0702800" lon="-1.8375100"><ele>248.0</ele></trkpt>
            <trkpt lat="53.0702600" lon="-1.8374100"><ele>247.5</ele></trkpt>
            <trkpt lat="53.0702200" lon="-1.8373500"><ele>247.2</ele></trkpt>
            <trkpt lat="53.0701000" lon="-1.8373700"><ele>246.9</ele></trkpt>
            <trkpt lat="53.0698500" lon="-1.8375500"><ele>246.7</ele></trkpt>
            <trkpt lat="53.0697000" lon="-1.8376100"><ele>245.9</ele></trkpt>
            <trkpt lat="53.0696300" lon="-1.8376100"><ele>245.5</ele></trkpt>
            <trkpt lat="53.0695300" lon="-1.8375300"><ele>244.5</ele></trkpt>
            <trkpt lat="53.0694100" lon="-1.8373200"><ele>243.0</ele></trkpt>
            <trkpt lat="53.0692300" lon="-1.8369200"><ele>241.0</ele></trkpt>
            <trkpt lat="53.0691500" lon="-1.8366300"><ele>239.4</ele></trkpt>
            <trkpt lat="53.0686400" lon="-1.8362600"><ele>246.9</ele></trkpt>
            <trkpt lat="53.0683800" lon="-1.8361000"><ele>252.8</ele></trkpt>
            <trkpt lat="53.0686400" lon="-1.8362600"><ele>246.9</ele></trkpt>
            <trkpt lat="53.0691500" lon="-1.8366300"><ele>239.4</ele></trkpt>
            <trkpt lat="53.0691200" lon="-1.8364500"><ele>238.4</ele></trkpt>
            <trkpt lat="53.0691200" lon="-1.8362400"><ele>236.6</ele></trkpt>
            <trkpt lat="53.0692200" lon="-1.8356100"><ele>234.2</ele></trkpt>
            <trkpt lat="53.0692200" lon="-1.8355200"><ele>233.8</ele></trkpt>
            <trkpt lat="53.0691800" lon="-1.8354100"><ele>233.6</ele></trkpt>
            <trkpt lat="53.0691100" lon="-1.8353000"><ele>233.4</ele></trkpt>
            <trkpt lat="53.0688300" lon="-1.8350600"><ele>234.3</ele></trkpt>
            <trkpt lat="53.0684800" lon="-1.8348300"><ele>234.3</ele></trkpt>
            <trkpt lat="53.0681300" lon="-1.8343600"><ele>232.8</ele></trkpt>
            <trkpt lat="53.0676300" lon="-1.8339800"><ele>234.5</ele></trkpt>
            <trkpt lat="53.0674400" lon="-1.8337500"><ele>233.3</ele></trkpt>
            <trkpt lat="53.0673000" lon="-1.8336100"><ele>233.5</ele></trkpt>
            <trkpt lat="53.0670700" lon="-1.8334500"><ele>234.6</ele></trkpt>
            <trkpt lat="53.0667200" lon="-1.8333100"><ele>234.8</ele></trkpt>
            <trkpt lat="53.0658000" lon="-1.8330400"><ele>233.8</ele></trkpt>
            <trkpt lat="53.0655300" lon="-1.8327800"><ele>231.1</ele></trkpt>
            <trkpt lat="53.0650500" lon="-1.8322500"><ele>227.8</ele></trkpt>
            <trkpt lat="53.0648300" lon="-1.8320900"><ele>230.7</ele></trkpt>
            <trkpt lat="53.0648200" lon="-1.8319500"><ele>229.3</ele></trkpt>
            <trkpt lat="53.0648900" lon="-1.8315400"><ele>223.2</ele></trkpt>
            <trkpt lat="53.0649100" lon="-1.8312200"><ele>219.4</ele></trkpt>
            <trkpt lat="53.0644500" lon="-1.8284300"><ele>207.5</ele></trkpt>
            <trkpt lat="53.0643500" lon="-1.8275300"><ele>202.1</ele></trkpt>
            <trkpt lat="53.0639400" lon="-1.8258400"><ele>193.2</ele></trkpt>
            <trkpt lat="53.0636500" lon="-1.8235600"><ele>185.5</ele></trkpt>
            <trkpt lat="53.0632400" lon="-1.8226300"><ele>186.5</ele></trkpt>
            <trkpt lat="53.0629800" lon="-1.8222900"><ele>188.6</ele></trkpt>
            <trkpt lat="53.0627700" lon="-1.8220600"><ele>191.4</ele></trkpt>
            <trkpt lat="53.0623400" lon="-1.8214800"><ele>189.0</ele></trkpt>
            <trkpt lat="53.0621500" lon="-1.8211900"><ele>185.8</ele></trkpt>
            <trkpt lat="53.0617100" lon="-1.8201900"><ele>179.5</ele></trkpt>
            <trkpt lat="53.0614200" lon="-1.8197000"><ele>177.9</ele></trkpt>
            <trkpt lat="53.0612400" lon="-1.8188500"><ele>172.2</ele></trkpt>
            <trkpt lat="53.0610700" lon="-1.8181900"><ele>168.6</ele></trkpt>
            <trkpt lat="53.0608900" lon="-1.8177400"><ele>168.0</ele></trkpt>
            <trkpt lat="53.0607900" lon="-1.8175300"><ele>166.9</ele></trkpt>
            <trkpt lat="53.0604600" lon="-1.8171200"><ele>163.0</ele></trkpt>
            <trkpt lat="53.0604200" lon="-1.8170400"><ele>162.6</ele></trkpt>
            <trkpt lat="53.0604400" lon="-1.8169400"><ele>161.6</ele></trkpt>
            <trkpt lat="53.0608500" lon="-1.8166800"><ele>157.4</ele></trkpt>
            <trkpt lat="53.0608200" lon="-1.8165200"><ele>156.3</ele></trkpt>
            <trkpt lat="53.0607700" lon="-1.8164100"><ele>156.3</ele></trkpt>
            <trkpt lat="53.0603000" lon="-1.8157000"><ele>159.9</ele></trkpt>
            <trkpt lat="53.0599600" lon="-1.8147900"><ele>167.4</ele></trkpt>
            <trkpt lat="53.0597300" lon="-1.8142500"><ele>171.1</ele></trkpt>
            <trkpt lat="53.0589700" lon="-1.8136300"><ele>171.9</ele></trkpt>
            <trkpt lat="53.0573900" lon="-1.8121900"><ele>156.8</ele></trkpt>
            <trkpt lat="53.0569000" lon="-1.8118400"><ele>150.9</ele></trkpt>
            <trkpt lat="53.0568200" lon="-1.8117300"><ele>149.7</ele></trkpt>
            <trkpt lat="53.0563800" lon="-1.8107400"><ele>144.0</ele></trkpt>
            <trkpt lat="53.0563200" lon="-1.8103200"><ele>149.0</ele></trkpt>
            <trkpt lat="53.0560100" lon="-1.8104100"><ele>148.3</ele></trkpt>
            <trkpt lat="53.0558800" lon="-1.8103000"><ele>150.3</ele></trkpt>
            <trkpt lat="53.0554900" lon="-1.8101800"><ele>154.9</ele></trkpt>
            <trkpt lat="53.0548200" lon="-1.8100800"><ele>162.5</ele></trkpt>
            <trkpt lat="53.0547400" lon="-1.8099900"><ele>164.3</ele></trkpt>
            <trkpt lat="53.0546900" lon="-1.8096800"><ele>165.8</ele></trkpt>
            <trkpt lat="53.0544800" lon="-1.8089900"><ele>166.1</ele></trkpt>
            <trkpt lat="53.0534200" lon="-1.8066900"><ele>161.3</ele></trkpt>
            <trkpt lat="53.0533100" lon="-1.8065500"><ele>162.1</ele></trkpt>
            <trkpt lat="53.0532400" lon="-1.8064200"><ele>162.1</ele></trkpt>
            <trkpt lat="53.0531800" lon="-1.8062300"><ele>162.8</ele></trkpt>
            <trkpt lat="53.0531400" lon="-1.8061700"><ele>162.8</ele></trkpt>
            <trkpt lat="53.0531100" lon="-1.8059100"><ele>161.5</ele></trkpt>
            <trkpt lat="53.0531400" lon="-1.8058900"><ele>161.2</ele></trkpt>
            <trkpt lat="53.0531600" lon="-1.8058200"><ele>160.4</ele></trkpt>
            <trkpt lat="53.0532500" lon="-1.8053500"><ele>157.5</ele></trkpt>
            <trkpt lat="53.0533000" lon="-1.8048100"><ele>155.4</ele></trkpt>
            <trkpt lat="53.0533400" lon="-1.8047000"><ele>155.7</ele></trkpt>
            <trkpt lat="53.0534000" lon="-1.8046000"><ele>156.1</ele></trkpt>
            <trkpt lat="53.0535100" lon="-1.8050500"><ele>159.9</ele></trkpt>
            <trkpt lat="53.0535900" lon="-1.8052800"><ele>161.3</ele></trkpt>
            <trkpt lat="53.0535700" lon="-1.8053300"><ele>160.8</ele></trkpt>
            <trkpt lat="53.0535800" lon="-1.8054400"><ele>161.1</ele></trkpt>
            <trkpt lat="53.0536100" lon="-1.8055000"><ele>161.4</ele></trkpt>
            <trkpt lat="53.0536600" lon="-1.8055100"><ele>162.3</ele></trkpt>
            <trkpt lat="53.0536500" lon="-1.8059000"><ele>160.9</ele></trkpt>
            <trkpt lat="53.0536300" lon="-1.8061000"><ele>160.4</ele></trkpt>
            <trkpt lat="53.0536000" lon="-1.8061100"><ele>160.2</ele></trkpt>
        </trkseg>
    </trk>
<!-- ele-hash:9e8f14550ded12ee -->
</gpx>
