<?xml version="1.0" encoding="UTF-8" standalone="yes"?>
<gpx version="1.1" creator="OS Maps - Web" xmlns="http://www.topografix.com/GPX/1/1"
xmlns:xsi="http://www.w3.org/2001/XMLSchema-instance"
xsi:schemaLocation="http://www.topografix.com/GPX/1/1 http://www.topografix.com/GPX/1/1/gpx.xsd"
xmlns:gs="http://www.topografix.com/GPX/gpx_style/0/2"
xmlns:gh="https://graphhopper.com/public/schema/gpx/1.1"
xmlns:os="https://ordnancesurvey.co.uk/public/schema/route/0.1">
    <metadata>
        <name>Oliver Hill (Ethel) - Circular (www.thelostpeak.co.uk)</name>
        <desc>www.thelostpeak.co.uk</desc>
        <bounds minlat="53.1992290" minlon="-1.9890640" maxlat="53.2146300" maxlon="-1.9564050"/>
        <extensions>
            <os:version>2.0</os:version>
            <os:point lat="53.2043520" lon="-1.9564260" type="start"/>
            <os:point lat="53.2043200" lon="-1.9564400" type="end"/>
            <os:activity>ON_FOOT_WALKING</os:activity>
            <os:difficulty>MODERATE</os:difficulty>
            <os:paths/>
            <os:distance>8405.8643814</os:distance>
            <os:elevation_ascent>304.3800000</os:elevation_ascent>
        </extensions>
    </metadata>
    <wpt lat="53.2043520" lon="-1.9564260"/>
    <wpt lat="53.2110200" lon="-1.9649500"/>
    <wpt lat="53.2065100" lon="-1.9646200"/>
    <wpt lat="53.2058400" lon="-1.9619800"/>
    <wpt lat="53.2053200" lon="-1.9610000"/>
    <wpt lat="53.2056900" lon="-1.9651700"/>
    <wpt lat="53.2012900" lon="-1.9660300"/>
    <wpt lat="53.2043200" lon="-1.9564400"/>
    <trk>
        <name>Oliver Hill (Ethel) - Circular (www.thelostpeak.co.uk)</name>
        <trkseg>
            <trkpt lat="53.2043520" lon="-1.9564260"><ele>463.8</ele></trkpt>
            <trkpt lat="53.2044340" lon="-1.9564050"><ele>464.1</ele></trkpt>
            <trkpt lat="53.2044250" lon="-1.9564660"><ele>464.5</ele></trkpt>
            <trkpt lat="53.2042210" lon="-1.9567810"><ele>465.9</ele></trkpt>
            <trkpt lat="53.2038230" lon="-1.9576830"><ele>468.3</ele></trkpt>
            <trkpt lat="53.2035890" lon="-1.9584140"><ele>468.9</ele></trkpt>
            <trkpt lat="53.2030220" lon="-1.9599450"><ele>470.6</ele></trkpt>
            <trkpt lat="53.2025000" lon="-1.9612050"><ele>470.2</ele></trkpt>
            <trkpt lat="53.2022500" lon="-1.9619100"><ele>468.0</ele></trkpt>
            <trkpt lat="53.2018500" lon="-1.9632610"><ele>467.0</ele></trkpt>
            <trkpt lat="53.2017860" lon="-1.9639060"><ele>468.9</ele></trkpt>
            <trkpt lat="53.2017400" lon="-1.9642270"><ele>470.0</ele></trkpt>
            <trkpt lat="53.2015920" lon="-1.9647240"><ele>471.5</ele></trkpt>
            <trkpt lat="53.2012050" lon="-1.9663860"><ele>471.3</ele></trkpt>
            <trkpt lat="53.2011910" lon="-1.9666770"><ele>469.5</ele></trkpt>
            <trkpt lat="53.2012130" lon="-1.9670690"><ele>465.3</ele></trkpt>
            <trkpt lat="53.2013250" lon="-1.9675900"><ele>460.3</ele></trkpt>
            <trkpt lat="53.2013280" lon="-1.9677640"><ele>458.0</ele></trkpt>
            <trkpt lat="53.2012050" lon="-1.9685460"><ele>447.3</ele></trkpt>
            <trkpt lat="53.2011530" lon="-1.9693390"><ele>436.8</ele></trkpt>
            <trkpt lat="53.2010900" lon="-1.9698140"><ele>430.2</ele></trkpt>
            <trkpt lat="53.2008680" lon="-1.9707620"><ele>418.4</ele></trkpt>
            <trkpt lat="53.2006160" lon="-1.9714890"><ele>410.9</ele></trkpt>
            <trkpt lat="53.2002890" lon="-1.9722470"><ele>405.4</ele></trkpt>
            <trkpt lat="53.1997800" lon="-1.9733170"><ele>390.6</ele></trkpt>
            <trkpt lat="53.1994840" lon="-1.9738730"><ele>388.6</ele></trkpt>
            <trkpt lat="53.1993120" lon="-1.9740600"><ele>390.0</ele></trkpt>
            <trkpt lat="53.1992500" lon="-1.9741640"><ele>389.9</ele></trkpt>
            <trkpt lat="53.1992290" lon="-1.9743040"><ele>389.4</ele></trkpt>
            <trkpt lat="53.1993070" lon="-1.9746890"><ele>385.3</ele></trkpt>
            <trkpt lat="53.1993110" lon="-1.9747840"><ele>385.0</ele></trkpt>
            <trkpt lat="53.1992700" lon="-1.9749600"><ele>385.9</ele></trkpt>
            <trkpt lat="53.1992750" lon="-1.9753750"><ele>384.6</ele></trkpt>
            <trkpt lat="53.1993500" lon="-1.9758990"><ele>382.8</ele></trkpt>
            <trkpt lat="53.1994030" lon="-1.9760300"><ele>381.4</ele></trkpt>
            <trkpt lat="53.1994560" lon="-1.9760740"><ele>379.9</ele></trkpt>
            <trkpt lat="53.1995360" lon="-1.9760840"><ele>377.6</ele></trkpt>
            <trkpt lat="53.1998730" lon="-1.9758720"><ele>368.7</ele></trkpt>
            <trkpt lat="53.1999670" lon="-1.9758770"><ele>366.8</ele></trkpt>
            <trkpt lat="53.2000260" lon="-1.9759250"><ele>365.8</ele></trkpt>
            <trkpt lat="53.2001400" lon="-1.9761020"><ele>363.3</ele></trkpt>
            <trkpt lat="53.2001750" lon="-1.9768110"><ele>357.9</ele></trkpt>
            <trkpt lat="53.2002750" lon="-1.9771920"><ele>356.4</ele></trkpt>
            <trkpt lat="53.2003850" lon="-1.9774030"><ele>355.4</ele></trkpt>
            <trkpt lat="53.2007030" lon="-1.9778830"><ele>348.2</ele></trkpt>
            <trkpt lat="53.2009130" lon="-1.9780380"><ele>344.2</ele></trkpt>
            <trkpt lat="53.2011000" lon="-1.9780870"><ele>342.8</ele></trkpt>
            <trkpt lat="53.2014560" lon="-1.9779170"><ele>345.0</ele></trkpt>
            <trkpt lat="53.2016620" lon="-1.9778450"><ele>346.8</ele></trkpt>
            <trkpt lat="53.2016820" lon="-1.9778850"><ele>347.1</ele></trkpt>
            <trkpt lat="53.2018420" lon="-1.9778340"><ele>349.5</ele></trkpt>
            <trkpt lat="53.2021330" lon="-1.9778320"><ele>353.0</ele></trkpt>
            <trkpt lat="53.2022890" lon="-1.9776600"><ele>354.6</ele></trkpt>
            <trkpt lat="53.2026920" lon="-1.9774160"><ele>361.7</ele></trkpt>
            <trkpt lat="53.2027400" lon="-1.9777270"><ele>363.7</ele></trkpt>
            <trkpt lat="53.2027850" lon="-1.9783190"><ele>370.2</ele></trkpt>
            <trkpt lat="53.2027070" lon="-1.9786500"><ele>370.3</ele></trkpt>
            <trkpt lat="53.2026720" lon="-1.9791270"><ele>373.2</ele></trkpt>
            <trkpt lat="53.2027980" lon="-1.9791180"><ele>376.8</ele></trkpt>
            <trkpt lat="53.2026010" lon="-1.9796560"><ele>375.1</ele></trkpt>
            <trkpt lat="53.2025680" lon="-1.9798750"><ele>375.5</ele></trkpt>
            <trkpt lat="53.2025790" lon="-1.9805730"><ele>375.9</ele></trkpt>
            <trkpt lat="53.2027190" lon="-1.9814450"><ele>381.8</ele></trkpt>
            <trkpt lat="53.2027950" lon="-1.9824240"><ele>383.6</ele></trkpt>
            <trkpt lat="53.2029690" lon="-1.9833050"><ele>387.8</ele></trkpt>
            <trkpt lat="53.2031830" lon="-1.9845620"><ele>389.5</ele></trkpt>
            <trkpt lat="53.2032620" lon="-1.9852880"><ele>386.4</ele></trkpt>
            <trkpt lat="53.2032590" lon="-1.9856640"><ele>382.4</ele></trkpt>
            <trkpt lat="53.2035810" lon="-1.9865670"><ele>380.2</ele></trkpt>
            <trkpt lat="53.2037810" lon="-1.9867640"><ele>383.9</ele></trkpt>
            <trkpt lat="53.2044210" lon="-1.9875560"><ele>384.7</ele></trkpt>
            <trkpt lat="53.2046050" lon="-1.9878230"><ele>382.4</ele></trkpt>
            <trkpt lat="53.2051660" lon="-1.9884440"><ele>376.3</ele></trkpt>
            <trkpt lat="53.2058590" lon="-1.9889580"><ele>371.2</ele></trkpt>
            <trkpt lat="53.2062070" lon="-1.9890640"><ele>368.3</ele></trkpt>
            <trkpt lat="53.2067850" lon="-1.9889230"><ele>367.5</ele></trkpt>
            <trkpt lat="53.2070590" lon="-1.9887950"><ele>366.9</ele></trkpt>
            <trkpt lat="53.2072920" lon="-1.9887730"><ele>365.3</ele></trkpt>
            <trkpt lat="53.2075600" lon="-1.9885960"><ele>365.6</ele></trkpt>
            <trkpt lat="53.2080260" lon="-1.9883340"><ele>367.0</ele></trkpt>
            <trkpt lat="53.2084720" lon="-1.9882390"><ele>366.2</ele></trkpt>
            <trkpt lat="53.2099850" lon="-1.9876710"><ele>358.3</ele></trkpt>
            <trkpt lat="53.2105750" lon="-1.9873950"><ele>357.3</ele></trkpt>
            <trkpt lat="53.2107870" lon="-1.9872560"><ele>357.5</ele></trkpt>
            <trkpt lat="53.2108410" lon="-1.9872760"><ele>356.7</ele></trkpt>
            <trkpt lat="53.2112130" lon="-1.9872090"><ele>354.4</ele></trkpt>
            <trkpt lat="53.2115790" lon="-1.9870650"><ele>352.0</ele></trkpt>
            <trkpt lat="53.2117460" lon="-1.9868650"><ele>355.3</ele></trkpt>
            <trkpt lat="53.2119640" lon="-1.9867650"><ele>358.9</ele></trkpt>
            <trkpt lat="53.2124050" lon="-1.9867840"><ele>357.1</ele></trkpt>
            <trkpt lat="53.2128480" lon="-1.9869240"><ele>357.8</ele></trkpt>
            <trkpt lat="53.2135230" lon="-1.9871920"><ele>358.6</ele></trkpt>
            <trkpt lat="53.2137130" lon="-1.9871430"><ele>357.6</ele></trkpt>
            <trkpt lat="53.2139190" lon="-1.9873810"><ele>358.0</ele></trkpt>
            <trkpt lat="53.2139210" lon="-1.9874560"><ele>358.7</ele></trkpt>
            <trkpt lat="53.2138830" lon="-1.9875940"><ele>360.5</ele></trkpt>
            <trkpt lat="53.2138820" lon="-1.9876370"><ele>361.2</ele></trkpt>
            <trkpt lat="53.2138830" lon="-1.9875940"><ele>360.5</ele></trkpt>
            <trkpt lat="53.2139210" lon="-1.9874560"><ele>358.7</ele></trkpt>
            <trkpt lat="53.2139190" lon="-1.9873810"><ele>358.0</ele></trkpt>
            <trkpt lat="53.2139420" lon="-1.9872390"><ele>357.1</ele></trkpt>
            <trkpt lat="53.2144850" lon="-1.9857640"><ele>372.2</ele></trkpt>
            <trkpt lat="53.2146150" lon="-1.9849050"><ele>372.7</ele></trkpt>
            <trkpt lat="53.2146300" lon="-1.9838770"><ele>372.1</ele></trkpt>
            <trkpt lat="53.2145970" lon="-1.9836940"><ele>372.2</ele></trkpt>
            <trkpt lat="53.2145270" lon="-1.9835270"><ele>372.6</ele></trkpt>
            <trkpt lat="53.2140650" lon="-1.9831900"><ele>378.8</ele></trkpt>
            <trkpt lat="53.2137430" lon="-1.9826780"><ele>383.0</ele></trkpt>
            <trkpt lat="53.2133010" lon="-1.9820530"><ele>389.1</ele></trkpt>
            <trkpt lat="53.2128900" lon="-1.9816350"><ele>395.7</ele></trkpt>
            <trkpt lat="53.2122550" lon="-1.9811630"><ele>404.5</ele></trkpt>
            <trkpt lat="53.2122390" lon="-1.9811120"><ele>404.9</ele></trkpt>
            <trkpt lat="53.2122860" lon="-1.9806360"><ele>408.0</ele></trkpt>
            <trkpt lat="53.2124770" lon="-1.9792110"><ele>423.1</ele></trkpt>
            <trkpt lat="53.2123500" lon="-1.9790020"><ele>425.1</ele></trkpt>
            <trkpt lat="53.2117300" lon="-1.9783120"><ele>432.1</ele></trkpt>
            <trkpt lat="53.2115070" lon="-1.9777670"><ele>434.1</ele></trkpt>
            <trkpt lat="53.2114600" lon="-1.9776190"><ele>435.0</ele></trkpt>
            <trkpt lat="53.2113570" lon="-1.9769880"><ele>435.4</ele></trkpt>
            <trkpt lat="53.2112730" lon="-1.9762180"><ele>435.6</ele></trkpt>
            <trkpt lat="53.2112440" lon="-1.9757950"><ele>434.9</ele></trkpt>
            <trkpt lat="53.2112740" lon="-1.9753660"><ele>433.7</ele></trkpt>
            <trkpt lat="53.2112350" lon="-1.9751400"><ele>432.0</ele></trkpt>
            <trkpt lat="53.2103820" lon="-1.9745910"><ele>423.1</ele></trkpt>
            <trkpt lat="53.2099520" lon="-1.9743540"><ele>418.9</ele></trkpt>
            <trkpt lat="53.2097790" lon="-1.9742200"><ele>416.4</ele></trkpt>
            <trkpt lat="53.2097520" lon="-1.9739370"><ele>414.7</ele></trkpt>
            <trkpt lat="53.2097880" lon="-1.9738070"><ele>413.9</ele></trkpt>
            <trkpt lat="53.2098090" lon="-1.9734150"><ele>411.8</ele></trkpt>
            <trkpt lat="53.2097030" lon="-1.9725370"><ele>409.1</ele></trkpt>
            <trkpt lat="53.2097110" lon="-1.9724070"><ele>409.1</ele></trkpt>
            <trkpt lat="53.2099070" lon="-1.9719430"><ele>409.2</ele></trkpt>
            <trkpt lat="53.2101150" lon="-1.9713580"><ele>409.7</ele></trkpt>
            <trkpt lat="53.2101380" lon="-1.9708810"><ele>410.6</ele></trkpt>
            <trkpt lat="53.2102460" lon="-1.9703930"><ele>412.5</ele></trkpt>
            <trkpt lat="53.2106160" lon="-1.9694470"><ele>416.5</ele></trkpt>
            <trkpt lat="53.2109590" lon="-1.9688430"><ele>417.3</ele></trkpt>
            <trkpt lat="53.2110580" lon="-1.9685090"><ele>418.5</ele></trkpt>
            <trkpt lat="53.2113420" lon="-1.9679760"><ele>419.2</ele></trkpt>
            <trkpt lat="53.2113570" lon="-1.9678810"><ele>419.3</ele></trkpt>
            <trkpt lat="53.2113090" lon="-1.9675610"><ele>419.5</ele></trkpt>
            <trkpt lat="53.2113080" lon="-1.9659840"><ele>426.3</ele></trkpt>
            <trkpt lat="53.2112670" lon="-1.9655660"><ele>429.5</ele></trkpt>
            <trkpt lat="53.2111600" lon="-1.9652200"><ele>432.7</ele></trkpt>
            <trkpt lat="53.2110200" lon="-1.9649500"><ele>435.4</ele></trkpt>
            <trkpt lat="53.2108500" lon="-1.9646000"><ele>438.1</ele></trkpt>
            <trkpt lat="53.2107800" lon="-1.9644200"><ele>439.6</ele></trkpt>
            <trkpt lat="53.2107500" lon="-1.9642600"><ele>440.5</ele></trkpt>
            <trkpt lat="53.2107200" lon="-1.9633400"><ele>446.2</ele></trkpt>
            <trkpt lat="53.2105400" lon="-1.9621900"><ele>451.6</ele></trkpt>
            <trkpt lat="53.2105000" lon="-1.9617500"><ele>453.4</ele></trkpt>
            <trkpt lat="53.2100400" lon="-1.9620600"><ele>452.4</ele></trkpt>
            <trkpt lat="53.2096200" lon="-1.9622400"><ele>455.8</ele></trkpt>
            <trkpt lat="53.2081800" lon="-1.9637400"><ele>478.4</ele></trkpt>
            <trkpt lat="53.2075800" lon="-1.9641700"><ele>484.2</ele></trkpt>
            <trkpt lat="53.2065100" lon="-1.9646200"><ele>490.6</ele></trkpt>
            <trkpt lat="53.2058400" lon="-1.9619800"><ele>500.7</ele></trkpt>
            <trkpt lat="53.2053200" lon="-1.9610000"><ele>510.4</ele></trkpt>
            <trkpt lat="53.2056900" lon="-1.9651700"><ele>484.1</ele></trkpt>
            <trkpt lat="53.2053600" lon="-1.9652800"><ele>480.5</ele></trkpt>
            <trkpt lat="53.2051100" lon="-1.9655200"><ele>479.5</ele></trkpt>
            <trkpt lat="53.2047600" lon="-1.9656600"><ele>476.9</ele></trkpt>
            <trkpt lat="53.2043400" lon="-1.9657300"><ele>475.6</ele></trkpt>
            <trkpt lat="53.2042000" lon="-1.9657000"><ele>476.5</ele></trkpt>
            <trkpt lat="53.2039700" lon="-1.9655900"><ele>479.3</ele></trkpt>
            <trkpt lat="53.2032300" lon="-1.9654600"><ele>482.1</ele></trkpt>
            <trkpt lat="53.2026200" lon="-1.9655900"><ele>482.4</ele></trkpt>
            <trkpt lat="53.2019200" lon="-1.9658900"><ele>477.3</ele></trkpt>
            <trkpt lat="53.2016700" lon="-1.9660400"><ele>475.6</ele></trkpt>
            <trkpt lat="53.2015800" lon="-1.9660300"><ele>475.3</ele></trkpt>
            <trkpt lat="53.2015500" lon="-1.9658800"><ele>475.4</ele></trkpt>
            <trkpt lat="53.2015400" lon="-1.9657300"><ele>475.5</ele></trkpt>
            <trkpt lat="53.2015800" lon="-1.9654800"><ele>476.1</ele></trkpt>
            <trkpt lat="53.2015400" lon="-1.9653300"><ele>475.1</ele></trkpt>
            <trkpt lat="53.2014700" lon="-1.9652000"><ele>473.1</ele></trkpt>
            <trkpt lat="53.2012900" lon="-1.9660300"><ele>473.2</ele></trkpt>
            <trkpt lat="53.2015900" lon="-1.9647300"><ele>471.5</ele></trkpt>
            <trkpt lat="53.2017300" lon="-1.9642300"><ele>469.8</ele></trkpt>
            <trkpt lat="53.2017800" lon="-1.9639100"><ele>468.9</ele></trkpt>
            <trkpt lat="53.2018500" lon="-1.9632700"><ele>467.0</ele></trkpt>
            <trkpt lat="53.2022400" lon="-1.9619100"><ele>468.0</ele></trkpt>
            <trkpt lat="53.2024900" lon="-1.9612100"><ele>470.2</ele></trkpt>
            <trkpt lat="53.2027900" lon="-1.9605200"><ele>471.5</ele></trkpt>
            <trkpt lat="53.2030200" lon="-1.9599500"><ele>470.6</ele></trkpt>
            <trkpt lat="53.2035800" lon="-1.9584200"><ele>468.9</ele></trkpt>
            <trkpt lat="53.2038200" lon="-1.9576900"><ele>467.9</ele></trkpt>
            <trkpt lat="53.2039800" lon="-1.9573000"><ele>467.5</ele></trkpt>
            <trkpt lat="53.2042200" lon="-1.9567900"><ele>465.9</ele></trkpt>
            <trkpt lat="53.2044200" lon="-1.9564700"><ele>464.9</ele></trkpt>
            <trkpt lat="53.2044300" lon="-1.9564100"><ele>464.1</ele></trkpt>
            <trkpt lat="53.2043200" lon="-1.9564400"><ele>463.6</ele></trkpt>
        </trkseg>
    </trk>
<!-- ele-hash:9854242fb0f088d5 -->
</gpx>
