<?xml version="1.0" encoding="UTF-8" standalone="yes"?>
<gpx version="1.1" creator="OS Maps - Web" xmlns="http://www.topografix.com/GPX/1/1"
xmlns:xsi="http://www.w3.org/2001/XMLSchema-instance"
xsi:schemaLocation="http://www.topografix.com/GPX/1/1 http://www.topografix.com/GPX/1/1/gpx.xsd"
xmlns:gs="http://www.topografix.com/GPX/gpx_style/0/2"
xmlns:gh="https://graphhopper.com/public/schema/gpx/1.1"
xmlns:os="https://ordnancesurvey.co.uk/public/schema/route/0.1">
    <metadata>
        <name>Revidge (Ethel) - Circular (www.thelostpeak.co.uk)</name>
        <desc>www.thelostpeak.co.uk</desc>
        <bounds minlat="53.1242310" minlon="-1.9461020" maxlat="53.1519800" maxlon="-1.8727890"/>
        <extensions>
            <os:version>2.0</os:version>
            <os:point lat="53.1253080" lon="-1.8730340" type="start"/>
            <os:point lat="53.1253080" lon="-1.8730340" type="end"/>
            <os:activity>OTHER</os:activity>
            <os:difficulty>MODERATE</os:difficulty>
            <os:paths/>
            <os:distance>17015.4377384</os:distance>
            <os:elevation_ascent>510.9600000</os:elevation_ascent>
        </extensions>
    </metadata>
    <wpt lat="53.1253080" lon="-1.8730340"/>
    <wpt lat="53.1485530" lon="-1.9409130">
        <name>Merryton Low Trig Point and 5th Staffs Leicester Battalion Memorial</name>
    </wpt>
    <wpt lat="53.1253080" lon="-1.8730340"/>
    <trk>
        <name>Revidge (Ethel) - Circular (www.thelostpeak.co.uk)</name>
        <trkseg>
            <trkpt lat="53.1253080" lon="-1.8730340"/>
            <trkpt lat="53.1255690" lon="-1.8729330"/>
            <trkpt lat="53.1258040" lon="-1.8727890"/>
            <trkpt lat="53.1261390" lon="-1.8734720"/>
            <trkpt lat="53.1262750" lon="-1.8738600"/>
            <trkpt lat="53.1263930" lon="-1.8744830"/>
            <trkpt lat="53.1265200" lon="-1.8752660"/>
            <trkpt lat="53.1268070" lon="-1.8771820"/>
            <trkpt lat="53.1269180" lon="-1.8778510"/>
            <trkpt lat="53.1269850" lon="-1.8781270"/>
            <trkpt lat="53.1269890" lon="-1.8783890"/>
            <trkpt lat="53.1272070" lon="-1.8798430"/>
            <trkpt lat="53.1275440" lon="-1.8818750"/>
            <trkpt lat="53.1275980" lon="-1.8823050"/>
            <trkpt lat="53.1276660" lon="-1.8833430"/>
            <trkpt lat="53.1276740" lon="-1.8836550"/>
            <trkpt lat="53.1276460" lon="-1.8839190"/>
            <trkpt lat="53.1272760" lon="-1.8851950"/>
            <trkpt lat="53.1270290" lon="-1.8861620"/>
            <trkpt lat="53.1270830" lon="-1.8862700"/>
            <trkpt lat="53.1273230" lon="-1.8885110"/>
            <trkpt lat="53.1274510" lon="-1.8887930"/>
            <trkpt lat="53.1274720" lon="-1.8888720"/>
            <trkpt lat="53.1274460" lon="-1.8889270"/>
            <trkpt lat="53.1274880" lon="-1.8890150"/>
            <trkpt lat="53.1274870" lon="-1.8890970"/>
            <trkpt lat="53.1274070" lon="-1.8895890"/>
            <trkpt lat="53.1267910" lon="-1.8914130"/>
            <trkpt lat="53.1267600" lon="-1.8918340"/>
            <trkpt lat="53.1268210" lon="-1.8920890"/>
            <trkpt lat="53.1268430" lon="-1.8925150"/>
            <trkpt lat="53.1268370" lon="-1.8930660"/>
            <trkpt lat="53.1268930" lon="-1.8942310"/>
            <trkpt lat="53.1270280" lon="-1.8980000"/>
            <trkpt lat="53.1270030" lon="-1.8980530"/>
            <trkpt lat="53.1275340" lon="-1.8983610"/>
            <trkpt lat="53.1275100" lon="-1.8984480"/>
            <trkpt lat="53.1279540" lon="-1.8989600"/>
            <trkpt lat="53.1282880" lon="-1.8995840"/>
            <trkpt lat="53.1288540" lon="-1.9008430"/>
            <trkpt lat="53.1292170" lon="-1.9014140"/>
            <trkpt lat="53.1294170" lon="-1.9020960"/>
            <trkpt lat="53.1297810" lon="-1.9030360"/>
            <trkpt lat="53.1302450" lon="-1.9038790"/>
            <trkpt lat="53.1301470" lon="-1.9048320"/>
            <trkpt lat="53.1300710" lon="-1.9053090"/>
            <trkpt lat="53.1298290" lon="-1.9063260"/>
            <trkpt lat="53.1292480" lon="-1.9076990"/>
            <trkpt lat="53.1289500" lon="-1.9081910"/>
            <trkpt lat="53.1290120" lon="-1.9088830"/>
            <trkpt lat="53.1291370" lon="-1.9090960"/>
            <trkpt lat="53.1292360" lon="-1.9095760"/>
            <trkpt lat="53.1293010" lon="-1.9097120"/>
            <trkpt lat="53.1295130" lon="-1.9099250"/>
            <trkpt lat="53.1298700" lon="-1.9107880"/>
            <trkpt lat="53.1298270" lon="-1.9115470"/>
            <trkpt lat="53.1294200" lon="-1.9124160"/>
            <trkpt lat="53.1294350" lon="-1.9127160"/>
            <trkpt lat="53.1297140" lon="-1.9132200"/>
            <trkpt lat="53.1297130" lon="-1.9133290"/>
            <trkpt lat="53.1299430" lon="-1.9141650"/>
            <trkpt lat="53.1299340" lon="-1.9142100"/>
            <trkpt lat="53.1298710" lon="-1.9142510"/>
            <trkpt lat="53.1298730" lon="-1.9143220"/>
            <trkpt lat="53.1298450" lon="-1.9143380"/>
            <trkpt lat="53.1298070" lon="-1.9144270"/>
            <trkpt lat="53.1297200" lon="-1.9144750"/>
            <trkpt lat="53.1284730" lon="-1.9171950"/>
            <trkpt lat="53.1284130" lon="-1.9176230"/>
            <trkpt lat="53.1286860" lon="-1.9178820"/>
            <trkpt lat="53.1287300" lon="-1.9180290"/>
            <trkpt lat="53.1287150" lon="-1.9180930"/>
            <trkpt lat="53.1285440" lon="-1.9182620"/>
            <trkpt lat="53.1285180" lon="-1.9184380"/>
            <trkpt lat="53.1285960" lon="-1.9189180"/>
            <trkpt lat="53.1285530" lon="-1.9189520"/>
            <trkpt lat="53.1284540" lon="-1.9191910"/>
            <trkpt lat="53.1282760" lon="-1.9192860"/>
            <trkpt lat="53.1281640" lon="-1.9192470"/>
            <trkpt lat="53.1279030" lon="-1.9189690"/>
            <trkpt lat="53.1276750" lon="-1.9188980"/>
            <trkpt lat="53.1272810" lon="-1.9188380"/>
            <trkpt lat="53.1271080" lon="-1.9188350"/>
            <trkpt lat="53.1268760" lon="-1.9189490"/>
            <trkpt lat="53.1261510" lon="-1.9189990"/>
            <trkpt lat="53.1259570" lon="-1.9190440"/>
            <trkpt lat="53.1257700" lon="-1.9189510"/>
            <trkpt lat="53.1253490" lon="-1.9188470"/>
            <trkpt lat="53.1243410" lon="-1.9189510"/>
            <trkpt lat="53.1242310" lon="-1.9189940"/>
            <trkpt lat="53.1242480" lon="-1.9194250"/>
            <trkpt lat="53.1243230" lon="-1.9201850"/>
            <trkpt lat="53.1244050" lon="-1.9206310"/>
            <trkpt lat="53.1244090" lon="-1.9211860"/>
            <trkpt lat="53.1243580" lon="-1.9240020"/>
            <trkpt lat="53.1245570" lon="-1.9251020"/>
            <trkpt lat="53.1244370" lon="-1.9251220"/>
            <trkpt lat="53.1243370" lon="-1.9257970"/>
            <trkpt lat="53.1243480" lon="-1.9265710"/>
            <trkpt lat="53.1244040" lon="-1.9275260"/>
            <trkpt lat="53.1246450" lon="-1.9292200"/>
            <trkpt lat="53.1246110" lon="-1.9301630"/>
            <trkpt lat="53.1246240" lon="-1.9325700"/>
            <trkpt lat="53.1246740" lon="-1.9326560"/>
            <trkpt lat="53.1247240" lon="-1.9331550"/>
            <trkpt lat="53.1246830" lon="-1.9339790"/>
            <trkpt lat="53.1246640" lon="-1.9340240"/>
            <trkpt lat="53.1247180" lon="-1.9340190"/>
            <trkpt lat="53.1249990" lon="-1.9338840"/>
            <trkpt lat="53.1249000" lon="-1.9337160"/>
            <trkpt lat="53.1249030" lon="-1.9335820"/>
            <trkpt lat="53.1249380" lon="-1.9334620"/>
            <trkpt lat="53.1250080" lon="-1.9333390"/>
            <trkpt lat="53.1251060" lon="-1.9332470"/>
            <trkpt lat="53.1252480" lon="-1.9331960"/>
            <trkpt lat="53.1253070" lon="-1.9329430"/>
            <trkpt lat="53.1252300" lon="-1.9328080"/>
            <trkpt lat="53.1251630" lon="-1.9327720"/>
            <trkpt lat="53.1252000" lon="-1.9327350"/>
            <trkpt lat="53.1253380" lon="-1.9327730"/>
            <trkpt lat="53.1254200" lon="-1.9327530"/>
            <trkpt lat="53.1258290" lon="-1.9328470"/>
            <trkpt lat="53.1265340" lon="-1.9328330"/>
            <trkpt lat="53.1266730" lon="-1.9327790"/>
            <trkpt lat="53.1282720" lon="-1.9330170"/>
            <trkpt lat="53.1285000" lon="-1.9330110"/>
            <trkpt lat="53.1287110" lon="-1.9331300"/>
            <trkpt lat="53.1293570" lon="-1.9334110"/>
            <trkpt lat="53.1299010" lon="-1.9336990"/>
            <trkpt lat="53.1305240" lon="-1.9341240"/>
            <trkpt lat="53.1309700" lon="-1.9342040"/>
            <trkpt lat="53.1311470" lon="-1.9343240"/>
            <trkpt lat="53.1313160" lon="-1.9343130"/>
            <trkpt lat="53.1313740" lon="-1.9343820"/>
            <trkpt lat="53.1314350" lon="-1.9346100"/>
            <trkpt lat="53.1314880" lon="-1.9346600"/>
            <trkpt lat="53.1316080" lon="-1.9346440"/>
            <trkpt lat="53.1318600" lon="-1.9349890"/>
            <trkpt lat="53.1320940" lon="-1.9352400"/>
            <trkpt lat="53.1324810" lon="-1.9355640"/>
            <trkpt lat="53.1328370" lon="-1.9360370"/>
            <trkpt lat="53.1329520" lon="-1.9360540"/>
            <trkpt lat="53.1332470" lon="-1.9365970"/>
            <trkpt lat="53.1337180" lon="-1.9376250"/>
            <trkpt lat="53.1340930" lon="-1.9383700"/>
            <trkpt lat="53.1342740" lon="-1.9388420"/>
            <trkpt lat="53.1345390" lon="-1.9392050"/>
            <trkpt lat="53.1345720" lon="-1.9394150"/>
            <trkpt lat="53.1345780" lon="-1.9398490"/>
            <trkpt lat="53.1352530" lon="-1.9415230"/>
            <trkpt lat="53.1353330" lon="-1.9423690"/>
            <trkpt lat="53.1355900" lon="-1.9420110"/>
            <trkpt lat="53.1355380" lon="-1.9427010"/>
            <trkpt lat="53.1355480" lon="-1.9433160"/>
            <trkpt lat="53.1355910" lon="-1.9433980"/>
            <trkpt lat="53.1359480" lon="-1.9434050"/>
            <trkpt lat="53.1362460" lon="-1.9431950"/>
            <trkpt lat="53.1365380" lon="-1.9430620"/>
            <trkpt lat="53.1369700" lon="-1.9432880"/>
            <trkpt lat="53.1374340" lon="-1.9439520"/>
            <trkpt lat="53.1375890" lon="-1.9446220"/>
            <trkpt lat="53.1376110" lon="-1.9446400"/>
            <trkpt lat="53.1381650" lon="-1.9443570"/>
            <trkpt lat="53.1384030" lon="-1.9442980"/>
            <trkpt lat="53.1386330" lon="-1.9443040"/>
            <trkpt lat="53.1393700" lon="-1.9444850"/>
            <trkpt lat="53.1407720" lon="-1.9446320"/>
            <trkpt lat="53.1409020" lon="-1.9453150"/>
            <trkpt lat="53.1411450" lon="-1.9461020"/>
            <trkpt lat="53.1413660" lon="-1.9456610"/>
            <trkpt lat="53.1416540" lon="-1.9452150"/>
            <trkpt lat="53.1420200" lon="-1.9448440"/>
            <trkpt lat="53.1427170" lon="-1.9445940"/>
            <trkpt lat="53.1429370" lon="-1.9444320"/>
            <trkpt lat="53.1431310" lon="-1.9441660"/>
            <trkpt lat="53.1434200" lon="-1.9435930"/>
            <trkpt lat="53.1437460" lon="-1.9430770"/>
            <trkpt lat="53.1439260" lon="-1.9428900"/>
            <trkpt lat="53.1441320" lon="-1.9427010"/>
            <trkpt lat="53.1457590" lon="-1.9414330"/>
            <trkpt lat="53.1478050" lon="-1.9408680"/>
            <trkpt lat="53.1481650" lon="-1.9409300"/>
            <trkpt lat="53.1486480" lon="-1.9411030"/>
            <trkpt lat="53.1485530" lon="-1.9409130"/>
            <trkpt lat="53.1453060" lon="-1.9362830"/>
            <trkpt lat="53.1445460" lon="-1.9350550"/>
            <trkpt lat="53.1438640" lon="-1.9338710"/>
            <trkpt lat="53.1434900" lon="-1.9331660"/>
            <trkpt lat="53.1439150" lon="-1.9324280"/>
            <trkpt lat="53.1449060" lon="-1.9304750"/>
            <trkpt lat="53.1452470" lon="-1.9301100"/>
            <trkpt lat="53.1455750" lon="-1.9296060"/>
            <trkpt lat="53.1457330" lon="-1.9292130"/>
            <trkpt lat="53.1459550" lon="-1.9284040"/>
            <trkpt lat="53.1461160" lon="-1.9282000"/>
            <trkpt lat="53.1468240" lon="-1.9262690"/>
            <trkpt lat="53.1470620" lon="-1.9254430"/>
            <trkpt lat="53.1472150" lon="-1.9254090"/>
            <trkpt lat="53.1474420" lon="-1.9239410"/>
            <trkpt lat="53.1474610" lon="-1.9234900"/>
            <trkpt lat="53.1471690" lon="-1.9203130"/>
            <trkpt lat="53.1473560" lon="-1.9202550"/>
            <trkpt lat="53.1473390" lon="-1.9202130"/>
            <trkpt lat="53.1473440" lon="-1.9200930"/>
            <trkpt lat="53.1474070" lon="-1.9198670"/>
            <trkpt lat="53.1474160" lon="-1.9196820"/>
            <trkpt lat="53.1473980" lon="-1.9190220"/>
            <trkpt lat="53.1475430" lon="-1.9182210"/>
            <trkpt lat="53.1475850" lon="-1.9180930"/>
            <trkpt lat="53.1475690" lon="-1.9180640"/>
            <trkpt lat="53.1475570" lon="-1.9174340"/>
            <trkpt lat="53.1475250" lon="-1.9171700"/>
            <trkpt lat="53.1475670" lon="-1.9170460"/>
            <trkpt lat="53.1477030" lon="-1.9170180"/>
            <trkpt lat="53.1477330" lon="-1.9168080"/>
            <trkpt lat="53.1478100" lon="-1.9166750"/>
            <trkpt lat="53.1478480" lon="-1.9158570"/>
            <trkpt lat="53.1478840" lon="-1.9155410"/>
            <trkpt lat="53.1478340" lon="-1.9154600"/>
            <trkpt lat="53.1474800" lon="-1.9153370"/>
            <trkpt lat="53.1474050" lon="-1.9152540"/>
            <trkpt lat="53.1473450" lon="-1.9148540"/>
            <trkpt lat="53.1473320" lon="-1.9144950"/>
            <trkpt lat="53.1474420" lon="-1.9136950"/>
            <trkpt lat="53.1475820" lon="-1.9132380"/>
            <trkpt lat="53.1477410" lon="-1.9128820"/>
            <trkpt lat="53.1479580" lon="-1.9125450"/>
            <trkpt lat="53.1481490" lon="-1.9123320"/>
            <trkpt lat="53.1482270" lon="-1.9121830"/>
            <trkpt lat="53.1484400" lon="-1.9114150"/>
            <trkpt lat="53.1485290" lon="-1.9111740"/>
            <trkpt lat="53.1486550" lon="-1.9115140"/>
            <trkpt lat="53.1487670" lon="-1.9116770"/>
            <trkpt lat="53.1487940" lon="-1.9116530"/>
            <trkpt lat="53.1493040" lon="-1.9109270"/>
            <trkpt lat="53.1494040" lon="-1.9104600"/>
            <trkpt lat="53.1495260" lon="-1.9102300"/>
            <trkpt lat="53.1499540" lon="-1.9098540"/>
            <trkpt lat="53.1501680" lon="-1.9094710"/>
            <trkpt lat="53.1501770" lon="-1.9093840"/>
            <trkpt lat="53.1503490" lon="-1.9093240"/>
            <trkpt lat="53.1504760" lon="-1.9064730"/>
            <trkpt lat="53.1506140" lon="-1.9045330"/>
            <trkpt lat="53.1507350" lon="-1.9037300"/>
            <trkpt lat="53.1506730" lon="-1.9032890"/>
            <trkpt lat="53.1503930" lon="-1.9023110"/>
            <trkpt lat="53.1502850" lon="-1.9021580"/>
            <trkpt lat="53.1503150" lon="-1.9017400"/>
            <trkpt lat="53.1505250" lon="-1.9009060"/>
            <trkpt lat="53.1506110" lon="-1.9003810"/>
            <trkpt lat="53.1506560" lon="-1.8999300"/>
            <trkpt lat="53.1506290" lon="-1.8994180"/>
            <trkpt lat="53.1506270" lon="-1.8983500"/>
            <trkpt lat="53.1506910" lon="-1.8978060"/>
            <trkpt lat="53.1508500" lon="-1.8968850"/>
            <trkpt lat="53.1510480" lon="-1.8959760"/>
            <trkpt lat="53.1514830" lon="-1.8941830"/>
            <trkpt lat="53.1519780" lon="-1.8910250"/>
            <trkpt lat="53.1519800" lon="-1.8907030"/>
            <trkpt lat="53.1519440" lon="-1.8905960"/>
            <trkpt lat="53.1519680" lon="-1.8903170"/>
            <trkpt lat="53.1513180" lon="-1.8894100"/>
            <trkpt lat="53.1513050" lon="-1.8892890"/>
            <trkpt lat="53.1503390" lon="-1.8878850"/>
            <trkpt lat="53.1501880" lon="-1.8875710"/>
            <trkpt lat="53.1499040" lon="-1.8874460"/>
            <trkpt lat="53.1499310" lon="-1.8871420"/>
            <trkpt lat="53.1496220" lon="-1.8848220"/>
            <trkpt lat="53.1495140" lon="-1.8832370"/>
            <trkpt lat="53.1491510" lon="-1.8826610"/>
            <trkpt lat="53.1483250" lon="-1.8821850"/>
            <trkpt lat="53.1482720" lon="-1.8821970"/>
            <trkpt lat="53.1482540" lon="-1.8821140"/>
            <trkpt lat="53.1480190" lon="-1.8823610"/>
            <trkpt lat="53.1456020" lon="-1.8850860"/>
            <trkpt lat="53.1455160" lon="-1.8851650"/>
            <trkpt lat="53.1447970" lon="-1.8851790"/>
            <trkpt lat="53.1419870" lon="-1.8841320"/>
            <trkpt lat="53.1414440" lon="-1.8839100"/>
            <trkpt lat="53.1413600" lon="-1.8838640"/>
            <trkpt lat="53.1412930" lon="-1.8837810"/>
            <trkpt lat="53.1404600" lon="-1.8835960"/>
            <trkpt lat="53.1399460" lon="-1.8836210"/>
            <trkpt lat="53.1388890" lon="-1.8836170"/>
            <trkpt lat="53.1383240" lon="-1.8835790"/>
            <trkpt lat="53.1374590" lon="-1.8836040"/>
            <trkpt lat="53.1374490" lon="-1.8836730"/>
            <trkpt lat="53.1373310" lon="-1.8838900"/>
            <trkpt lat="53.1371250" lon="-1.8840390"/>
            <trkpt lat="53.1368110" lon="-1.8841820"/>
            <trkpt lat="53.1366480" lon="-1.8842920"/>
            <trkpt lat="53.1364730" lon="-1.8845990"/>
            <trkpt lat="53.1363490" lon="-1.8847070"/>
            <trkpt lat="53.1362890" lon="-1.8848230"/>
            <trkpt lat="53.1363220" lon="-1.8857890"/>
            <trkpt lat="53.1362890" lon="-1.8848230"/>
            <trkpt lat="53.1360830" lon="-1.8846980"/>
            <trkpt lat="53.1360350" lon="-1.8845810"/>
            <trkpt lat="53.1360510" lon="-1.8843490"/>
            <trkpt lat="53.1360120" lon="-1.8838340"/>
            <trkpt lat="53.1354050" lon="-1.8843500"/>
            <trkpt lat="53.1349190" lon="-1.8846610"/>
            <trkpt lat="53.1338880" lon="-1.8847400"/>
            <trkpt lat="53.1337870" lon="-1.8847310"/>
            <trkpt lat="53.1328800" lon="-1.8848130"/>
            <trkpt lat="53.1324100" lon="-1.8848170"/>
            <trkpt lat="53.1312550" lon="-1.8846960"/>
            <trkpt lat="53.1305520" lon="-1.8845060"/>
            <trkpt lat="53.1304260" lon="-1.8845630"/>
            <trkpt lat="53.1296170" lon="-1.8852490"/>
            <trkpt lat="53.1294130" lon="-1.8847950"/>
            <trkpt lat="53.1278800" lon="-1.8856790"/>
            <trkpt lat="53.1278470" lon="-1.8855090"/>
            <trkpt lat="53.1277630" lon="-1.8848910"/>
            <trkpt lat="53.1277750" lon="-1.8847140"/>
            <trkpt lat="53.1277320" lon="-1.8841560"/>
            <trkpt lat="53.1276460" lon="-1.8839190"/>
            <trkpt lat="53.1276740" lon="-1.8836550"/>
            <trkpt lat="53.1276660" lon="-1.8833430"/>
            <trkpt lat="53.1275980" lon="-1.8823050"/>
            <trkpt lat="53.1275440" lon="-1.8818750"/>
            <trkpt lat="53.1272070" lon="-1.8798430"/>
            <trkpt lat="53.1269890" lon="-1.8783890"/>
            <trkpt lat="53.1269850" lon="-1.8781270"/>
            <trkpt lat="53.1269180" lon="-1.8778510"/>
            <trkpt lat="53.1268070" lon="-1.8771820"/>
            <trkpt lat="53.1265200" lon="-1.8752660"/>
            <trkpt lat="53.1263930" lon="-1.8744830"/>
            <trkpt lat="53.1262750" lon="-1.8738600"/>
            <trkpt lat="53.1261390" lon="-1.8734720"/>
            <trkpt lat="53.1258040" lon="-1.8727890"/>
            <trkpt lat="53.1255690" lon="-1.8729330"/>
            <trkpt lat="53.1253080" lon="-1.8730340"/>
        </trkseg>
    </trk>
</gpx>
