<?xml version="1.0" encoding="UTF-8" standalone="yes"?>
<gpx version="1.1" creator="OS Maps - Web" xmlns="http://www.topografix.com/GPX/1/1"
xmlns:xsi="http://www.w3.org/2001/XMLSchema-instance"
xsi:schemaLocation="http://www.topografix.com/GPX/1/1 http://www.topografix.com/GPX/1/1/gpx.xsd"
xmlns:gs="http://www.topografix.com/GPX/gpx_style/0/2"
xmlns:gh="https://graphhopper.com/public/schema/gpx/1.1"
xmlns:os="https://ordnancesurvey.co.uk/public/schema/route/0.1">
    <metadata>
        <name>Shutlingsloe (Ethel) - Circular (www.thelostpeak.co.uk)</name>
        <desc>www.thelostpeak.co.uk</desc>
        <bounds minlat="53.2101200" minlon="-2.0778800" maxlat="53.2408400" maxlon="-2.0274100"/>
        <extensions>
            <os:version>2.0</os:version>
            <os:point lat="53.2372900" lon="-2.0589600" type="start"/>
            <os:point lat="53.2372900" lon="-2.0589600" type="end"/>
            <os:activity>ON_FOOT_WALKING</os:activity>
            <os:difficulty>MODERATE</os:difficulty>
            <os:paths/>
            <os:distance>12049.2561075</os:distance>
            <os:elevation_ascent>478.1400000</os:elevation_ascent>
        </extensions>
    </metadata>
    <wpt lat="53.2372900" lon="-2.0589600"/>
    <wpt lat="53.2372900" lon="-2.0589600"/>
    <trk>
        <name>Shutlingsloe (Ethel) - Circular (www.thelostpeak.co.uk)</name>
        <trkseg>
            <trkpt lat="53.2372900" lon="-2.0589600"/>
            <trkpt lat="53.2373000" lon="-2.0589900"/>
            <trkpt lat="53.2374000" lon="-2.0589700"/>
            <trkpt lat="53.2374600" lon="-2.0588400"/>
            <trkpt lat="53.2374800" lon="-2.0586600"/>
            <trkpt lat="53.2374700" lon="-2.0578200"/>
            <trkpt lat="53.2374300" lon="-2.0576700"/>
            <trkpt lat="53.2373700" lon="-2.0575600"/>
            <trkpt lat="53.2373300" lon="-2.0575100"/>
            <trkpt lat="53.2372100" lon="-2.0572900"/>
            <trkpt lat="53.2371700" lon="-2.0572400"/>
            <trkpt lat="53.2371200" lon="-2.0572200"/>
            <trkpt lat="53.2370800" lon="-2.0572200"/>
            <trkpt lat="53.2370300" lon="-2.0572500"/>
            <trkpt lat="53.2369000" lon="-2.0574700"/>
            <trkpt lat="53.2365600" lon="-2.0578500"/>
            <trkpt lat="53.2361400" lon="-2.0581900"/>
            <trkpt lat="53.2358800" lon="-2.0584800"/>
            <trkpt lat="53.2357800" lon="-2.0585200"/>
            <trkpt lat="53.2356800" lon="-2.0585200"/>
            <trkpt lat="53.2356400" lon="-2.0585100"/>
            <trkpt lat="53.2355500" lon="-2.0584400"/>
            <trkpt lat="53.2352500" lon="-2.0579300"/>
            <trkpt lat="53.2350500" lon="-2.0574900"/>
            <trkpt lat="53.2347700" lon="-2.0567700"/>
            <trkpt lat="53.2347400" lon="-2.0565200"/>
            <trkpt lat="53.2347400" lon="-2.0562500"/>
            <trkpt lat="53.2350300" lon="-2.0553300"/>
            <trkpt lat="53.2352000" lon="-2.0549200"/>
            <trkpt lat="53.2352200" lon="-2.0548200"/>
            <trkpt lat="53.2352000" lon="-2.0547500"/>
            <trkpt lat="53.2351600" lon="-2.0547100"/>
            <trkpt lat="53.2349100" lon="-2.0545900"/>
            <trkpt lat="53.2341700" lon="-2.0541400"/>
            <trkpt lat="53.2337700" lon="-2.0535900"/>
            <trkpt lat="53.2333200" lon="-2.0530800"/>
            <trkpt lat="53.2331300" lon="-2.0528000"/>
            <trkpt lat="53.2328600" lon="-2.0521100"/>
            <trkpt lat="53.2325500" lon="-2.0513700"/>
            <trkpt lat="53.2324200" lon="-2.0511200"/>
            <trkpt lat="53.2322500" lon="-2.0509300"/>
            <trkpt lat="53.2321100" lon="-2.0508200"/>
            <trkpt lat="53.2320000" lon="-2.0506700"/>
            <trkpt lat="53.2319300" lon="-2.0505400"/>
            <trkpt lat="53.2318000" lon="-2.0503800"/>
            <trkpt lat="53.2313400" lon="-2.0500300"/>
            <trkpt lat="53.2304800" lon="-2.0492700"/>
            <trkpt lat="53.2304100" lon="-2.0490600"/>
            <trkpt lat="53.2303600" lon="-2.0488200"/>
            <trkpt lat="53.2303100" lon="-2.0486800"/>
            <trkpt lat="53.2302300" lon="-2.0483300"/>
            <trkpt lat="53.2301800" lon="-2.0471800"/>
            <trkpt lat="53.2301800" lon="-2.0465800"/>
            <trkpt lat="53.2302400" lon="-2.0461300"/>
            <trkpt lat="53.2302300" lon="-2.0460500"/>
            <trkpt lat="53.2301400" lon="-2.0457700"/>
            <trkpt lat="53.2301200" lon="-2.0456100"/>
            <trkpt lat="53.2301200" lon="-2.0455300"/>
            <trkpt lat="53.2301700" lon="-2.0451300"/>
            <trkpt lat="53.2302100" lon="-2.0449000"/>
            <trkpt lat="53.2302100" lon="-2.0447400"/>
            <trkpt lat="53.2301900" lon="-2.0446700"/>
            <trkpt lat="53.2300900" lon="-2.0444800"/>
            <trkpt lat="53.2299900" lon="-2.0442200"/>
            <trkpt lat="53.2299600" lon="-2.0440800"/>
            <trkpt lat="53.2299200" lon="-2.0437700"/>
            <trkpt lat="53.2298700" lon="-2.0435300"/>
            <trkpt lat="53.2296700" lon="-2.0430900"/>
            <trkpt lat="53.2294600" lon="-2.0425600"/>
            <trkpt lat="53.2291600" lon="-2.0419000"/>
            <trkpt lat="53.2290100" lon="-2.0414700"/>
            <trkpt lat="53.2289600" lon="-2.0412700"/>
            <trkpt lat="53.2287000" lon="-2.0409000"/>
            <trkpt lat="53.2286400" lon="-2.0406900"/>
            <trkpt lat="53.2285300" lon="-2.0404700"/>
            <trkpt lat="53.2284100" lon="-2.0403400"/>
            <trkpt lat="53.2282800" lon="-2.0402400"/>
            <trkpt lat="53.2281800" lon="-2.0400800"/>
            <trkpt lat="53.2281000" lon="-2.0400000"/>
            <trkpt lat="53.2277700" lon="-2.0397300"/>
            <trkpt lat="53.2274700" lon="-2.0393900"/>
            <trkpt lat="53.2272000" lon="-2.0390500"/>
            <trkpt lat="53.2268900" lon="-2.0385800"/>
            <trkpt lat="53.2268600" lon="-2.0385100"/>
            <trkpt lat="53.2268200" lon="-2.0384800"/>
            <trkpt lat="53.2265100" lon="-2.0384400"/>
            <trkpt lat="53.2257600" lon="-2.0382300"/>
            <trkpt lat="53.2244300" lon="-2.0377600"/>
            <trkpt lat="53.2240900" lon="-2.0375500"/>
            <trkpt lat="53.2240300" lon="-2.0375300"/>
            <trkpt lat="53.2238300" lon="-2.0373500"/>
            <trkpt lat="53.2236600" lon="-2.0372500"/>
            <trkpt lat="53.2236100" lon="-2.0372000"/>
            <trkpt lat="53.2235800" lon="-2.0371400"/>
            <trkpt lat="53.2235200" lon="-2.0369200"/>
            <trkpt lat="53.2234900" lon="-2.0368700"/>
            <trkpt lat="53.2234400" lon="-2.0368700"/>
            <trkpt lat="53.2233100" lon="-2.0369200"/>
            <trkpt lat="53.2232600" lon="-2.0369000"/>
            <trkpt lat="53.2232400" lon="-2.0368700"/>
            <trkpt lat="53.2232200" lon="-2.0367700"/>
            <trkpt lat="53.2231700" lon="-2.0367400"/>
            <trkpt lat="53.2231200" lon="-2.0367300"/>
            <trkpt lat="53.2229800" lon="-2.0367600"/>
            <trkpt lat="53.2224600" lon="-2.0367900"/>
            <trkpt lat="53.2222400" lon="-2.0369000"/>
            <trkpt lat="53.2222000" lon="-2.0368500"/>
            <trkpt lat="53.2221500" lon="-2.0365400"/>
            <trkpt lat="53.2221500" lon="-2.0361400"/>
            <trkpt lat="53.2221800" lon="-2.0360000"/>
            <trkpt lat="53.2221800" lon="-2.0359200"/>
            <trkpt lat="53.2221200" lon="-2.0355400"/>
            <trkpt lat="53.2220800" lon="-2.0353900"/>
            <trkpt lat="53.2220500" lon="-2.0352100"/>
            <trkpt lat="53.2220500" lon="-2.0349700"/>
            <trkpt lat="53.2220600" lon="-2.0348900"/>
            <trkpt lat="53.2220300" lon="-2.0346200"/>
            <trkpt lat="53.2220300" lon="-2.0342200"/>
            <trkpt lat="53.2220100" lon="-2.0340700"/>
            <trkpt lat="53.2219000" lon="-2.0336300"/>
            <trkpt lat="53.2218800" lon="-2.0334600"/>
            <trkpt lat="53.2217800" lon="-2.0330300"/>
            <trkpt lat="53.2217800" lon="-2.0328700"/>
            <trkpt lat="53.2218200" lon="-2.0325600"/>
            <trkpt lat="53.2217800" lon="-2.0325000"/>
            <trkpt lat="53.2217400" lon="-2.0324900"/>
            <trkpt lat="53.2216100" lon="-2.0323700"/>
            <trkpt lat="53.2214300" lon="-2.0321700"/>
            <trkpt lat="53.2213600" lon="-2.0320700"/>
            <trkpt lat="53.2212200" lon="-2.0315600"/>
            <trkpt lat="53.2211500" lon="-2.0311700"/>
            <trkpt lat="53.2208800" lon="-2.0305900"/>
            <trkpt lat="53.2208700" lon="-2.0305900"/>
            <trkpt lat="53.2208300" lon="-2.0304500"/>
            <trkpt lat="53.2208100" lon="-2.0302900"/>
            <trkpt lat="53.2207200" lon="-2.0300000"/>
            <trkpt lat="53.2206600" lon="-2.0296300"/>
            <trkpt lat="53.2205900" lon="-2.0293800"/>
            <trkpt lat="53.2204900" lon="-2.0291800"/>
            <trkpt lat="53.2204100" lon="-2.0290800"/>
            <trkpt lat="53.2199100" lon="-2.0287300"/>
            <trkpt lat="53.2194600" lon="-2.0281800"/>
            <trkpt lat="53.2192900" lon="-2.0280000"/>
            <trkpt lat="53.2190600" lon="-2.0278200"/>
            <trkpt lat="53.2185300" lon="-2.0275000"/>
            <trkpt lat="53.2183400" lon="-2.0274300"/>
            <trkpt lat="53.2180900" lon="-2.0274100"/>
            <trkpt lat="53.2176800" lon="-2.0274200"/>
            <trkpt lat="53.2175800" lon="-2.0274400"/>
            <trkpt lat="53.2174900" lon="-2.0274800"/>
            <trkpt lat="53.2172300" lon="-2.0276700"/>
            <trkpt lat="53.2164900" lon="-2.0279900"/>
            <trkpt lat="53.2164000" lon="-2.0280100"/>
            <trkpt lat="53.2157000" lon="-2.0280000"/>
            <trkpt lat="53.2155000" lon="-2.0279500"/>
            <trkpt lat="53.2152400" lon="-2.0277800"/>
            <trkpt lat="53.2149600" lon="-2.0276500"/>
            <trkpt lat="53.2145400" lon="-2.0275200"/>
            <trkpt lat="53.2144400" lon="-2.0275100"/>
            <trkpt lat="53.2143500" lon="-2.0275600"/>
            <trkpt lat="53.2142400" lon="-2.0277000"/>
            <trkpt lat="53.2141700" lon="-2.0277600"/>
            <trkpt lat="53.2134000" lon="-2.0289400"/>
            <trkpt lat="53.2133700" lon="-2.0291200"/>
            <trkpt lat="53.2133600" lon="-2.0292800"/>
            <trkpt lat="53.2133400" lon="-2.0293500"/>
            <trkpt lat="53.2133100" lon="-2.0294000"/>
            <trkpt lat="53.2130000" lon="-2.0298500"/>
            <trkpt lat="53.2129100" lon="-2.0299200"/>
            <trkpt lat="53.2128300" lon="-2.0300200"/>
            <trkpt lat="53.2126700" lon="-2.0301400"/>
            <trkpt lat="53.2125400" lon="-2.0303100"/>
            <trkpt lat="53.2124100" lon="-2.0305500"/>
            <trkpt lat="53.2124000" lon="-2.0307100"/>
            <trkpt lat="53.2124200" lon="-2.0308600"/>
            <trkpt lat="53.2124000" lon="-2.0309300"/>
            <trkpt lat="53.2120700" lon="-2.0313900"/>
            <trkpt lat="53.2115200" lon="-2.0325200"/>
            <trkpt lat="53.2114100" lon="-2.0330000"/>
            <trkpt lat="53.2113900" lon="-2.0331600"/>
            <trkpt lat="53.2113900" lon="-2.0333900"/>
            <trkpt lat="53.2113700" lon="-2.0334800"/>
            <trkpt lat="53.2112100" lon="-2.0338700"/>
            <trkpt lat="53.2109200" lon="-2.0347400"/>
            <trkpt lat="53.2108200" lon="-2.0353200"/>
            <trkpt lat="53.2105500" lon="-2.0367100"/>
            <trkpt lat="53.2105600" lon="-2.0376300"/>
            <trkpt lat="53.2107400" lon="-2.0386400"/>
            <trkpt lat="53.2107400" lon="-2.0388300"/>
            <trkpt lat="53.2106700" lon="-2.0394100"/>
            <trkpt lat="53.2106500" lon="-2.0397300"/>
            <trkpt lat="53.2106300" lon="-2.0398500"/>
            <trkpt lat="53.2105300" lon="-2.0412200"/>
            <trkpt lat="53.2106000" lon="-2.0414400"/>
            <trkpt lat="53.2107400" lon="-2.0417600"/>
            <trkpt lat="53.2108500" lon="-2.0419000"/>
            <trkpt lat="53.2110300" lon="-2.0423000"/>
            <trkpt lat="53.2111400" lon="-2.0424400"/>
            <trkpt lat="53.2111700" lon="-2.0425000"/>
            <trkpt lat="53.2111700" lon="-2.0425800"/>
            <trkpt lat="53.2111000" lon="-2.0427800"/>
            <trkpt lat="53.2111100" lon="-2.0428600"/>
            <trkpt lat="53.2111000" lon="-2.0429300"/>
            <trkpt lat="53.2110200" lon="-2.0430300"/>
            <trkpt lat="53.2108900" lon="-2.0431200"/>
            <trkpt lat="53.2107700" lon="-2.0433500"/>
            <trkpt lat="53.2107100" lon="-2.0435200"/>
            <trkpt lat="53.2106700" lon="-2.0437600"/>
            <trkpt lat="53.2105700" lon="-2.0441400"/>
            <trkpt lat="53.2105100" lon="-2.0444500"/>
            <trkpt lat="53.2104800" lon="-2.0446900"/>
            <trkpt lat="53.2104100" lon="-2.0449800"/>
            <trkpt lat="53.2102900" lon="-2.0457700"/>
            <trkpt lat="53.2102600" lon="-2.0461100"/>
            <trkpt lat="53.2102000" lon="-2.0463200"/>
            <trkpt lat="53.2101700" lon="-2.0465500"/>
            <trkpt lat="53.2101200" lon="-2.0467600"/>
            <trkpt lat="53.2101300" lon="-2.0468400"/>
            <trkpt lat="53.2102800" lon="-2.0471900"/>
            <trkpt lat="53.2105000" lon="-2.0475200"/>
            <trkpt lat="53.2106600" lon="-2.0478100"/>
            <trkpt lat="53.2107100" lon="-2.0479700"/>
            <trkpt lat="53.2107800" lon="-2.0486000"/>
            <trkpt lat="53.2108900" lon="-2.0491800"/>
            <trkpt lat="53.2108800" lon="-2.0493400"/>
            <trkpt lat="53.2108600" lon="-2.0494100"/>
            <trkpt lat="53.2108400" lon="-2.0495700"/>
            <trkpt lat="53.2108400" lon="-2.0497300"/>
            <trkpt lat="53.2108800" lon="-2.0499500"/>
            <trkpt lat="53.2110400" lon="-2.0505600"/>
            <trkpt lat="53.2111800" lon="-2.0509400"/>
            <trkpt lat="53.2116200" lon="-2.0515900"/>
            <trkpt lat="53.2121000" lon="-2.0521900"/>
            <trkpt lat="53.2123500" lon="-2.0526900"/>
            <trkpt lat="53.2127000" lon="-2.0534700"/>
            <trkpt lat="53.2128400" lon="-2.0539500"/>
            <trkpt lat="53.2131400" lon="-2.0545400"/>
            <trkpt lat="53.2134200" lon="-2.0549700"/>
            <trkpt lat="53.2136600" lon="-2.0552300"/>
            <trkpt lat="53.2138300" lon="-2.0555000"/>
            <trkpt lat="53.2141200" lon="-2.0557600"/>
            <trkpt lat="53.2144100" lon="-2.0559500"/>
            <trkpt lat="53.2147700" lon="-2.0560900"/>
            <trkpt lat="53.2149900" lon="-2.0562800"/>
            <trkpt lat="53.2152300" lon="-2.0566300"/>
            <trkpt lat="53.2154800" lon="-2.0568800"/>
            <trkpt lat="53.2155300" lon="-2.0568900"/>
            <trkpt lat="53.2156200" lon="-2.0568500"/>
            <trkpt lat="53.2159500" lon="-2.0568200"/>
            <trkpt lat="53.2161000" lon="-2.0568500"/>
            <trkpt lat="53.2164100" lon="-2.0570200"/>
            <trkpt lat="53.2165100" lon="-2.0570300"/>
            <trkpt lat="53.2167300" lon="-2.0571300"/>
            <trkpt lat="53.2168400" lon="-2.0571100"/>
            <trkpt lat="53.2168900" lon="-2.0570800"/>
            <trkpt lat="53.2170400" lon="-2.0569000"/>
            <trkpt lat="53.2171300" lon="-2.0568600"/>
            <trkpt lat="53.2172200" lon="-2.0568600"/>
            <trkpt lat="53.2175000" lon="-2.0569100"/>
            <trkpt lat="53.2176800" lon="-2.0570100"/>
            <trkpt lat="53.2177700" lon="-2.0570300"/>
            <trkpt lat="53.2179100" lon="-2.0569700"/>
            <trkpt lat="53.2181300" lon="-2.0569300"/>
            <trkpt lat="53.2182200" lon="-2.0568600"/>
            <trkpt lat="53.2182700" lon="-2.0568700"/>
            <trkpt lat="53.2183300" lon="-2.0569800"/>
            <trkpt lat="53.2183800" lon="-2.0570100"/>
            <trkpt lat="53.2184700" lon="-2.0570200"/>
            <trkpt lat="53.2185600" lon="-2.0570600"/>
            <trkpt lat="53.2187900" lon="-2.0569500"/>
            <trkpt lat="53.2188800" lon="-2.0569800"/>
            <trkpt lat="53.2189400" lon="-2.0570600"/>
            <trkpt lat="53.2190600" lon="-2.0573900"/>
            <trkpt lat="53.2191400" lon="-2.0576700"/>
            <trkpt lat="53.2192900" lon="-2.0579800"/>
            <trkpt lat="53.2194700" lon="-2.0582200"/>
            <trkpt lat="53.2197200" lon="-2.0584500"/>
            <trkpt lat="53.2198400" lon="-2.0587000"/>
            <trkpt lat="53.2201000" lon="-2.0590400"/>
            <trkpt lat="53.2201500" lon="-2.0591600"/>
            <trkpt lat="53.2201900" lon="-2.0592000"/>
            <trkpt lat="53.2202400" lon="-2.0592300"/>
            <trkpt lat="53.2204800" lon="-2.0592700"/>
            <trkpt lat="53.2208000" lon="-2.0594200"/>
            <trkpt lat="53.2210500" lon="-2.0594200"/>
            <trkpt lat="53.2211500" lon="-2.0595200"/>
            <trkpt lat="53.2214400" lon="-2.0595600"/>
            <trkpt lat="53.2216200" lon="-2.0596700"/>
            <trkpt lat="53.2217300" lon="-2.0597700"/>
            <trkpt lat="53.2218500" lon="-2.0598100"/>
            <trkpt lat="53.2220300" lon="-2.0598300"/>
            <trkpt lat="53.2222100" lon="-2.0597900"/>
            <trkpt lat="53.2222500" lon="-2.0598400"/>
            <trkpt lat="53.2222500" lon="-2.0599900"/>
            <trkpt lat="53.2222700" lon="-2.0601400"/>
            <trkpt lat="53.2224300" lon="-2.0608800"/>
            <trkpt lat="53.2225300" lon="-2.0611400"/>
            <trkpt lat="53.2227000" lon="-2.0613700"/>
            <trkpt lat="53.2228800" lon="-2.0615700"/>
            <trkpt lat="53.2232600" lon="-2.0624500"/>
            <trkpt lat="53.2233000" lon="-2.0625200"/>
            <trkpt lat="53.2233800" lon="-2.0626000"/>
            <trkpt lat="53.2234500" lon="-2.0627000"/>
            <trkpt lat="53.2234700" lon="-2.0627600"/>
            <trkpt lat="53.2235100" lon="-2.0629100"/>
            <trkpt lat="53.2235100" lon="-2.0631500"/>
            <trkpt lat="53.2234700" lon="-2.0637500"/>
            <trkpt lat="53.2234700" lon="-2.0644100"/>
            <trkpt lat="53.2236200" lon="-2.0659200"/>
            <trkpt lat="53.2236600" lon="-2.0660600"/>
            <trkpt lat="53.2236900" lon="-2.0661200"/>
            <trkpt lat="53.2238000" lon="-2.0665400"/>
            <trkpt lat="53.2238800" lon="-2.0667400"/>
            <trkpt lat="53.2240200" lon="-2.0667700"/>
            <trkpt lat="53.2241100" lon="-2.0668100"/>
            <trkpt lat="53.2241000" lon="-2.0668900"/>
            <trkpt lat="53.2240700" lon="-2.0669500"/>
            <trkpt lat="53.2240100" lon="-2.0691300"/>
            <trkpt lat="53.2239300" lon="-2.0701500"/>
            <trkpt lat="53.2238800" lon="-2.0723400"/>
            <trkpt lat="53.2238600" lon="-2.0724900"/>
            <trkpt lat="53.2238700" lon="-2.0726500"/>
            <trkpt lat="53.2239000" lon="-2.0727000"/>
            <trkpt lat="53.2239900" lon="-2.0727600"/>
            <trkpt lat="53.2242200" lon="-2.0729700"/>
            <trkpt lat="53.2247400" lon="-2.0740200"/>
            <trkpt lat="53.2249900" lon="-2.0744500"/>
            <trkpt lat="53.2250100" lon="-2.0746000"/>
            <trkpt lat="53.2250100" lon="-2.0750900"/>
            <trkpt lat="53.2250400" lon="-2.0752600"/>
            <trkpt lat="53.2252800" lon="-2.0761100"/>
            <trkpt lat="53.2254800" lon="-2.0765600"/>
            <trkpt lat="53.2255300" lon="-2.0765300"/>
            <trkpt lat="53.2256400" lon="-2.0763800"/>
            <trkpt lat="53.2260800" lon="-2.0759400"/>
            <trkpt lat="53.2261800" lon="-2.0758700"/>
            <trkpt lat="53.2265600" lon="-2.0759000"/>
            <trkpt lat="53.2268300" lon="-2.0757800"/>
            <trkpt lat="53.2270300" lon="-2.0756600"/>
            <trkpt lat="53.2273000" lon="-2.0754300"/>
            <trkpt lat="53.2278200" lon="-2.0750900"/>
            <trkpt lat="53.2279100" lon="-2.0750700"/>
            <trkpt lat="53.2280900" lon="-2.0751900"/>
            <trkpt lat="53.2282700" lon="-2.0752500"/>
            <trkpt lat="53.2285500" lon="-2.0752800"/>
            <trkpt lat="53.2288500" lon="-2.0752300"/>
            <trkpt lat="53.2291700" lon="-2.0750700"/>
            <trkpt lat="53.2293900" lon="-2.0749100"/>
            <trkpt lat="53.2293900" lon="-2.0748800"/>
            <trkpt lat="53.2294400" lon="-2.0748300"/>
            <trkpt lat="53.2294600" lon="-2.0747600"/>
            <trkpt lat="53.2296100" lon="-2.0744600"/>
            <trkpt lat="53.2296800" lon="-2.0743600"/>
            <trkpt lat="53.2303300" lon="-2.0738800"/>
            <trkpt lat="53.2303700" lon="-2.0738300"/>
            <trkpt lat="53.2304000" lon="-2.0737800"/>
            <trkpt lat="53.2304600" lon="-2.0735700"/>
            <trkpt lat="53.2305200" lon="-2.0734500"/>
            <trkpt lat="53.2305600" lon="-2.0733100"/>
            <trkpt lat="53.2305500" lon="-2.0730800"/>
            <trkpt lat="53.2305800" lon="-2.0729300"/>
            <trkpt lat="53.2307400" lon="-2.0727800"/>
            <trkpt lat="53.2310100" lon="-2.0726600"/>
            <trkpt lat="53.2311800" lon="-2.0725400"/>
            <trkpt lat="53.2312100" lon="-2.0725300"/>
            <trkpt lat="53.2313000" lon="-2.0725500"/>
            <trkpt lat="53.2316100" lon="-2.0726800"/>
            <trkpt lat="53.2318700" lon="-2.0726800"/>
            <trkpt lat="53.2320000" lon="-2.0726200"/>
            <trkpt lat="53.2322700" lon="-2.0727900"/>
            <trkpt lat="53.2326900" lon="-2.0729200"/>
            <trkpt lat="53.2328700" lon="-2.0729000"/>
            <trkpt lat="53.2330500" lon="-2.0727900"/>
            <trkpt lat="53.2331400" lon="-2.0727800"/>
            <trkpt lat="53.2332900" lon="-2.0727200"/>
            <trkpt lat="53.2335800" lon="-2.0725700"/>
            <trkpt lat="53.2336700" lon="-2.0725400"/>
            <trkpt lat="53.2337700" lon="-2.0725500"/>
            <trkpt lat="53.2341100" lon="-2.0727000"/>
            <trkpt lat="53.2344800" lon="-2.0727900"/>
            <trkpt lat="53.2346900" lon="-2.0727700"/>
            <trkpt lat="53.2348500" lon="-2.0726400"/>
            <trkpt lat="53.2349900" lon="-2.0726000"/>
            <trkpt lat="53.2350800" lon="-2.0725500"/>
            <trkpt lat="53.2352500" lon="-2.0726500"/>
            <trkpt lat="53.2353900" lon="-2.0726400"/>
            <trkpt lat="53.2357800" lon="-2.0727000"/>
            <trkpt lat="53.2358900" lon="-2.0726800"/>
            <trkpt lat="53.2360700" lon="-2.0726800"/>
            <trkpt lat="53.2362900" lon="-2.0727200"/>
            <trkpt lat="53.2364300" lon="-2.0729300"/>
            <trkpt lat="53.2364500" lon="-2.0730000"/>
            <trkpt lat="53.2365300" lon="-2.0731700"/>
            <trkpt lat="53.2366400" lon="-2.0735400"/>
            <trkpt lat="53.2366700" lon="-2.0737600"/>
            <trkpt lat="53.2367100" lon="-2.0739400"/>
            <trkpt lat="53.2370200" lon="-2.0741100"/>
            <trkpt lat="53.2371400" lon="-2.0740900"/>
            <trkpt lat="53.2372700" lon="-2.0740100"/>
            <trkpt lat="53.2373200" lon="-2.0738800"/>
            <trkpt lat="53.2373200" lon="-2.0738100"/>
            <trkpt lat="53.2373800" lon="-2.0736900"/>
            <trkpt lat="53.2375600" lon="-2.0736500"/>
            <trkpt lat="53.2376700" lon="-2.0736700"/>
            <trkpt lat="53.2377500" lon="-2.0737300"/>
            <trkpt lat="53.2378700" lon="-2.0738900"/>
            <trkpt lat="53.2382400" lon="-2.0746900"/>
            <trkpt lat="53.2386100" lon="-2.0759100"/>
            <trkpt lat="53.2388000" lon="-2.0762600"/>
            <trkpt lat="53.2392000" lon="-2.0769100"/>
            <trkpt lat="53.2394300" lon="-2.0772200"/>
            <trkpt lat="53.2400000" lon="-2.0777000"/>
            <trkpt lat="53.2401600" lon="-2.0778600"/>
            <trkpt lat="53.2402100" lon="-2.0778800"/>
            <trkpt lat="53.2402500" lon="-2.0778500"/>
            <trkpt lat="53.2403300" lon="-2.0774600"/>
            <trkpt lat="53.2403300" lon="-2.0773100"/>
            <trkpt lat="53.2402700" lon="-2.0770000"/>
            <trkpt lat="53.2402200" lon="-2.0765200"/>
            <trkpt lat="53.2402100" lon="-2.0761400"/>
            <trkpt lat="53.2402300" lon="-2.0752500"/>
            <trkpt lat="53.2403100" lon="-2.0748800"/>
            <trkpt lat="53.2405500" lon="-2.0739900"/>
            <trkpt lat="53.2407600" lon="-2.0730700"/>
            <trkpt lat="53.2408400" lon="-2.0726000"/>
            <trkpt lat="53.2408300" lon="-2.0725100"/>
            <trkpt lat="53.2407800" lon="-2.0722800"/>
            <trkpt lat="53.2406700" lon="-2.0719900"/>
            <trkpt lat="53.2405400" lon="-2.0715100"/>
            <trkpt lat="53.2405300" lon="-2.0715100"/>
            <trkpt lat="53.2405000" lon="-2.0713600"/>
            <trkpt lat="53.2404900" lon="-2.0712000"/>
            <trkpt lat="53.2404100" lon="-2.0709300"/>
            <trkpt lat="53.2402400" lon="-2.0702500"/>
            <trkpt lat="53.2401100" lon="-2.0693600"/>
            <trkpt lat="53.2399900" lon="-2.0688100"/>
            <trkpt lat="53.2398900" lon="-2.0680600"/>
            <trkpt lat="53.2395800" lon="-2.0660400"/>
            <trkpt lat="53.2395300" lon="-2.0656600"/>
            <trkpt lat="53.2395200" lon="-2.0653200"/>
            <trkpt lat="53.2395000" lon="-2.0651700"/>
            <trkpt lat="53.2394000" lon="-2.0650000"/>
            <trkpt lat="53.2393800" lon="-2.0649200"/>
            <trkpt lat="53.2393600" lon="-2.0647000"/>
            <trkpt lat="53.2391900" lon="-2.0638000"/>
            <trkpt lat="53.2391300" lon="-2.0636700"/>
            <trkpt lat="53.2388000" lon="-2.0634900"/>
            <trkpt lat="53.2384300" lon="-2.0633300"/>
            <trkpt lat="53.2377100" lon="-2.0628900"/>
            <trkpt lat="53.2372900" lon="-2.0625500"/>
            <trkpt lat="53.2372700" lon="-2.0624800"/>
            <trkpt lat="53.2372600" lon="-2.0623300"/>
            <trkpt lat="53.2372900" lon="-2.0620800"/>
            <trkpt lat="53.2373000" lon="-2.0617400"/>
            <trkpt lat="53.2374100" lon="-2.0604200"/>
            <trkpt lat="53.2374600" lon="-2.0596800"/>
            <trkpt lat="53.2374500" lon="-2.0590600"/>
            <trkpt lat="53.2373800" lon="-2.0590000"/>
            <trkpt lat="53.2373000" lon="-2.0589900"/>
            <trkpt lat="53.2372900" lon="-2.0589600"/>
        </trkseg>
    </trk>
</gpx>
