<?xml version="1.0" encoding="UTF-8" standalone="yes"?>
<gpx version="1.1" creator="OS Maps - Web" xmlns="http://www.topografix.com/GPX/1/1"
xmlns:xsi="http://www.w3.org/2001/XMLSchema-instance"
xsi:schemaLocation="http://www.topografix.com/GPX/1/1 http://www.topografix.com/GPX/1/1/gpx.xsd"
xmlns:gs="http://www.topografix.com/GPX/gpx_style/0/2"
xmlns:gh="https://graphhopper.com/public/schema/gpx/1.1"
xmlns:os="https://ordnancesurvey.co.uk/public/schema/route/0.1">
    <metadata>
        <name>Sir William Hill, Durham Edge &amp; Burton Bole (Ethels) - Circular (www.thelostpeak.co.uk)</name>
        <desc></desc>
        <bounds minlat="53.2863900" minlon="-1.7293200" maxlat="53.3237700" maxlon="-1.6744400"/>
        <extensions>
            <os:version>2.0</os:version>
            <os:point lat="53.2870700" lon="-1.6763000" type="start"/>
            <os:point lat="53.2870600" lon="-1.6762700" type="end"/>
            <os:activity>ON_FOOT_WALKING</os:activity>
            <os:difficulty>MODERATE</os:difficulty>
            <os:paths/>
            <os:distance>17339.9100320</os:distance>
            <os:elevation_ascent>526.7100000</os:elevation_ascent>
            <os:route_type>SINGLE</os:route_type>
        </extensions>
    </metadata>
    <wpt lat="53.2870700" lon="-1.6763000"/>
    <wpt lat="53.2873000" lon="-1.6775300"/>
    <wpt lat="53.2869500" lon="-1.6775300"/>
    <wpt lat="53.2864100" lon="-1.6780500"/>
    <wpt lat="53.2870900" lon="-1.6800100"/>
    <wpt lat="53.2891100" lon="-1.6809800"/>
    <wpt lat="53.2890300" lon="-1.6813900"/>
    <wpt lat="53.2893200" lon="-1.6814100"/>
    <wpt lat="53.2895100" lon="-1.6809300"/>
    <wpt lat="53.2915100" lon="-1.6816400"/>
    <wpt lat="53.2920700" lon="-1.6805000"/>
    <wpt lat="53.2927700" lon="-1.6798900"/>
    <wpt lat="53.2924500" lon="-1.6787900"/>
    <wpt lat="53.2928500" lon="-1.6785600"/>
    <wpt lat="53.2918300" lon="-1.6760200"/>
    <wpt lat="53.2917800" lon="-1.6755300"/>
    <wpt lat="53.2976300" lon="-1.6744400"/>
    <wpt lat="53.2974000" lon="-1.6782000"/>
    <wpt lat="53.2971200" lon="-1.6784500"/>
    <wpt lat="53.2959300" lon="-1.6874300"/>
    <wpt lat="53.2970600" lon="-1.6954000"/>
    <wpt lat="53.2978400" lon="-1.6997300"/>
    <wpt lat="53.2981200" lon="-1.7038300"/>
    <wpt lat="53.2992400" lon="-1.7133500"/>
    <wpt lat="53.2994900" lon="-1.7184600"/>
    <wpt lat="53.2985900" lon="-1.7217500"/>
    <wpt lat="53.2986200" lon="-1.7238600"/>
    <wpt lat="53.2996200" lon="-1.7284500"/>
    <wpt lat="53.3012100" lon="-1.7291900"/>
    <wpt lat="53.3032800" lon="-1.7284600"/>
    <wpt lat="53.3036500" lon="-1.7250400"/>
    <wpt lat="53.3064500" lon="-1.7265100"/>
    <wpt lat="53.3109900" lon="-1.7293200"/>
    <wpt lat="53.3128300" lon="-1.7272500"/>
    <wpt lat="53.3135700" lon="-1.7270300"/>
    <wpt lat="53.3142600" lon="-1.7239600"/>
    <wpt lat="53.3163200" lon="-1.7238800"/>
    <wpt lat="53.3181800" lon="-1.7246600"/>
    <wpt lat="53.3174600" lon="-1.7234000"/>
    <wpt lat="53.3173700" lon="-1.7213500"/>
    <wpt lat="53.3175300" lon="-1.7188800"/>
    <wpt lat="53.3179500" lon="-1.7183400"/>
    <wpt lat="53.3183100" lon="-1.7167100"/>
    <wpt lat="53.3190700" lon="-1.7151600"/>
    <wpt lat="53.3200000" lon="-1.7138100"/>
    <wpt lat="53.3204800" lon="-1.7125500"/>
    <wpt lat="53.3217200" lon="-1.7112200"/>
    <wpt lat="53.3216500" lon="-1.7119100"/>
    <wpt lat="53.3220900" lon="-1.7120400"/>
    <wpt lat="53.3222000" lon="-1.7097300"/>
    <wpt lat="53.3228700" lon="-1.7090100"/>
    <wpt lat="53.3232100" lon="-1.7080000"/>
    <wpt lat="53.3234800" lon="-1.7043100"/>
    <wpt lat="53.3237700" lon="-1.7030400"/>
    <wpt lat="53.3235200" lon="-1.7008700"/>
    <wpt lat="53.3227600" lon="-1.7002200"/>
    <wpt lat="53.3209000" lon="-1.6915800"/>
    <wpt lat="53.3196600" lon="-1.6948700"/>
    <wpt lat="53.3191500" lon="-1.6972500"/>
    <wpt lat="53.3178800" lon="-1.6985700"/>
    <wpt lat="53.3174700" lon="-1.7003300"/>
    <wpt lat="53.3168100" lon="-1.7000100"/>
    <wpt lat="53.3163700" lon="-1.6994400"/>
    <wpt lat="53.3155500" lon="-1.7033000"/>
    <wpt lat="53.3140000" lon="-1.7054600"/>
    <wpt lat="53.3135600" lon="-1.7048000"/>
    <wpt lat="53.3133700" lon="-1.7039900"/>
    <wpt lat="53.3129700" lon="-1.7040000"/>
    <wpt lat="53.3109000" lon="-1.7017100"/>
    <wpt lat="53.3096700" lon="-1.7012500"/>
    <wpt lat="53.3082100" lon="-1.6998300"/>
    <wpt lat="53.3071900" lon="-1.6999500"/>
    <wpt lat="53.3059100" lon="-1.6982600"/>
    <wpt lat="53.3052900" lon="-1.6980800"/>
    <wpt lat="53.3046400" lon="-1.6984000"/>
    <wpt lat="53.3043000" lon="-1.6991900"/>
    <wpt lat="53.3037000" lon="-1.6989500"/>
    <wpt lat="53.3035700" lon="-1.6993800"/>
    <wpt lat="53.3028400" lon="-1.6997000"/>
    <wpt lat="53.3018000" lon="-1.6986800"/>
    <wpt lat="53.3008900" lon="-1.6971400"/>
    <wpt lat="53.2987600" lon="-1.7002400"/>
    <wpt lat="53.2978900" lon="-1.7006500"/>
    <wpt lat="53.2978500" lon="-1.6998000"/>
    <wpt lat="53.2975300" lon="-1.6985300"/>
    <wpt lat="53.2968000" lon="-1.6990800"/>
    <wpt lat="53.2958700" lon="-1.6976800"/>
    <wpt lat="53.2938400" lon="-1.6963200"/>
    <wpt lat="53.2932100" lon="-1.6947400"/>
    <wpt lat="53.2919800" lon="-1.6980700"/>
    <wpt lat="53.2901400" lon="-1.6945400"/>
    <wpt lat="53.2901200" lon="-1.6915600"/>
    <wpt lat="53.2890600" lon="-1.6892500"/>
    <wpt lat="53.2880500" lon="-1.6845500"/>
    <wpt lat="53.2874800" lon="-1.6831200"/>
    <wpt lat="53.2870900" lon="-1.6800200"/>
    <wpt lat="53.2863900" lon="-1.6780400"/>
    <wpt lat="53.2869400" lon="-1.6775700"/>
    <wpt lat="53.2873000" lon="-1.6775400"/>
    <wpt lat="53.2870600" lon="-1.6762700"/>
    <trk>
        <name>Sir William Hill, Durham Edge &amp; Burton Bole (Ethels) - Circular (www.thelostpeak.co.uk)</name>
        <trkseg>
            <trkpt lat="53.2870700" lon="-1.6763000"><ele>258.2</ele></trkpt>
            <trkpt lat="53.2873000" lon="-1.6775300"><ele>254.0</ele></trkpt>
            <trkpt lat="53.2869500" lon="-1.6775300"><ele>251.8</ele></trkpt>
            <trkpt lat="53.2864100" lon="-1.6780500"><ele>247.5</ele></trkpt>
            <trkpt lat="53.2868300" lon="-1.6790700"><ele>251.7</ele></trkpt>
            <trkpt lat="53.2870900" lon="-1.6800100"><ele>254.5</ele></trkpt>
            <trkpt lat="53.2873800" lon="-1.6802900"><ele>258.4</ele></trkpt>
            <trkpt lat="53.2877900" lon="-1.6804700"><ele>261.1</ele></trkpt>
            <trkpt lat="53.2883100" lon="-1.6807500"><ele>265.6</ele></trkpt>
            <trkpt lat="53.2891100" lon="-1.6809800"><ele>277.4</ele></trkpt>
            <trkpt lat="53.2890300" lon="-1.6813900"><ele>274.1</ele></trkpt>
            <trkpt lat="53.2891400" lon="-1.6813400"><ele>275.8</ele></trkpt>
            <trkpt lat="53.2893200" lon="-1.6814100"><ele>278.0</ele></trkpt>
            <trkpt lat="53.2895100" lon="-1.6809300"><ele>280.7</ele></trkpt>
            <trkpt lat="53.2900900" lon="-1.6811800"><ele>288.8</ele></trkpt>
            <trkpt lat="53.2915100" lon="-1.6816400"><ele>321.8</ele></trkpt>
            <trkpt lat="53.2920700" lon="-1.6805000"><ele>344.4</ele></trkpt>
            <trkpt lat="53.2927700" lon="-1.6798900"><ele>361.9</ele></trkpt>
            <trkpt lat="53.2924500" lon="-1.6787900"><ele>358.0</ele></trkpt>
            <trkpt lat="53.2928500" lon="-1.6785600"><ele>368.4</ele></trkpt>
            <trkpt lat="53.2918300" lon="-1.6760200"><ele>370.1</ele></trkpt>
            <trkpt lat="53.2917800" lon="-1.6755300"><ele>371.8</ele></trkpt>
            <trkpt lat="53.2976300" lon="-1.6744400"><ele>400.2</ele></trkpt>
            <trkpt lat="53.2974000" lon="-1.6782000"><ele>424.4</ele></trkpt>
            <trkpt lat="53.2971200" lon="-1.6784500"><ele>420.8</ele></trkpt>
            <trkpt lat="53.2968700" lon="-1.6807800"><ele>406.7</ele></trkpt>
            <trkpt lat="53.2961500" lon="-1.6863500"><ele>394.2</ele></trkpt>
            <trkpt lat="53.2959300" lon="-1.6874300"><ele>391.4</ele></trkpt>
            <trkpt lat="53.2960100" lon="-1.6877300"><ele>391.4</ele></trkpt>
            <trkpt lat="53.2970600" lon="-1.6954000"><ele>391.6</ele></trkpt>
            <trkpt lat="53.2974000" lon="-1.6971700"><ele>393.3</ele></trkpt>
            <trkpt lat="53.2975600" lon="-1.6984500"><ele>389.9</ele></trkpt>
            <trkpt lat="53.2978400" lon="-1.6997300"><ele>385.7</ele></trkpt>
            <trkpt lat="53.2981200" lon="-1.7038300"><ele>366.7</ele></trkpt>
            <trkpt lat="53.2992400" lon="-1.7133500"><ele>370.3</ele></trkpt>
            <trkpt lat="53.2994900" lon="-1.7184600"><ele>371.3</ele></trkpt>
            <trkpt lat="53.2985900" lon="-1.7217500"><ele>359.8</ele></trkpt>
            <trkpt lat="53.2986200" lon="-1.7238600"><ele>365.1</ele></trkpt>
            <trkpt lat="53.2990300" lon="-1.7260400"><ele>372.5</ele></trkpt>
            <trkpt lat="53.2996200" lon="-1.7284500"><ele>384.7</ele></trkpt>
            <trkpt lat="53.3001600" lon="-1.7285800"><ele>388.1</ele></trkpt>
            <trkpt lat="53.3012100" lon="-1.7291900"><ele>385.9</ele></trkpt>
            <trkpt lat="53.3021800" lon="-1.7289500"><ele>382.0</ele></trkpt>
            <trkpt lat="53.3032800" lon="-1.7284600"><ele>384.3</ele></trkpt>
            <trkpt lat="53.3032910" lon="-1.7284650"><ele>384.5</ele></trkpt>
            <trkpt lat="53.3033100" lon="-1.7282570"><ele>384.0</ele></trkpt>
            <trkpt lat="53.3032370" lon="-1.7274150"><ele>383.0</ele></trkpt>
            <trkpt lat="53.3032440" lon="-1.7272080"><ele>382.4</ele></trkpt>
            <trkpt lat="53.3033580" lon="-1.7262710"><ele>378.6</ele></trkpt>
            <trkpt lat="53.3035760" lon="-1.7251750"><ele>377.9</ele></trkpt>
            <trkpt lat="53.3036500" lon="-1.7250400"><ele>377.7</ele></trkpt>
            <trkpt lat="53.3064500" lon="-1.7265100"><ele>397.8</ele></trkpt>
            <trkpt lat="53.3109900" lon="-1.7293200"><ele>412.1</ele></trkpt>
            <trkpt lat="53.3128300" lon="-1.7272500"><ele>399.7</ele></trkpt>
            <trkpt lat="53.3135700" lon="-1.7270300"><ele>402.0</ele></trkpt>
            <trkpt lat="53.3142600" lon="-1.7239600"><ele>378.8</ele></trkpt>
            <trkpt lat="53.3155600" lon="-1.7238900"><ele>383.8</ele></trkpt>
            <trkpt lat="53.3163200" lon="-1.7238800"><ele>389.5</ele></trkpt>
            <trkpt lat="53.3169800" lon="-1.7240600"><ele>386.3</ele></trkpt>
            <trkpt lat="53.3176700" lon="-1.7244300"><ele>381.3</ele></trkpt>
            <trkpt lat="53.3181800" lon="-1.7246600"><ele>376.0</ele></trkpt>
            <trkpt lat="53.3174600" lon="-1.7234000"><ele>375.7</ele></trkpt>
            <trkpt lat="53.3173700" lon="-1.7213500"><ele>370.8</ele></trkpt>
            <trkpt lat="53.3175300" lon="-1.7188800"><ele>364.0</ele></trkpt>
            <trkpt lat="53.3179500" lon="-1.7183400"><ele>361.4</ele></trkpt>
            <trkpt lat="53.3183100" lon="-1.7167100"><ele>365.6</ele></trkpt>
            <trkpt lat="53.3190700" lon="-1.7151600"><ele>370.4</ele></trkpt>
            <trkpt lat="53.3200000" lon="-1.7138100"><ele>377.4</ele></trkpt>
            <trkpt lat="53.3204800" lon="-1.7125500"><ele>380.6</ele></trkpt>
            <trkpt lat="53.3210600" lon="-1.7117700"><ele>382.7</ele></trkpt>
            <trkpt lat="53.3217200" lon="-1.7112200"><ele>380.9</ele></trkpt>
            <trkpt lat="53.3216500" lon="-1.7119100"><ele>383.3</ele></trkpt>
            <trkpt lat="53.3220900" lon="-1.7120400"><ele>384.0</ele></trkpt>
            <trkpt lat="53.3220800" lon="-1.7105000"><ele>389.9</ele></trkpt>
            <trkpt lat="53.3222000" lon="-1.7097300"><ele>397.4</ele></trkpt>
            <trkpt lat="53.3228700" lon="-1.7090100"><ele>413.3</ele></trkpt>
            <trkpt lat="53.3232100" lon="-1.7080000"><ele>408.4</ele></trkpt>
            <trkpt lat="53.3231800" lon="-1.7071900"><ele>406.1</ele></trkpt>
            <trkpt lat="53.3233800" lon="-1.7062400"><ele>403.5</ele></trkpt>
            <trkpt lat="53.3234800" lon="-1.7043100"><ele>394.0</ele></trkpt>
            <trkpt lat="53.3237700" lon="-1.7030400"><ele>385.1</ele></trkpt>
            <trkpt lat="53.3235200" lon="-1.7008700"><ele>374.9</ele></trkpt>
            <trkpt lat="53.3227600" lon="-1.7002200"><ele>371.9</ele></trkpt>
            <trkpt lat="53.3221400" lon="-1.6976000"><ele>362.8</ele></trkpt>
            <trkpt lat="53.3215700" lon="-1.6950600"><ele>352.8</ele></trkpt>
            <trkpt lat="53.3209000" lon="-1.6915800"><ele>346.3</ele></trkpt>
            <trkpt lat="53.3196600" lon="-1.6948700"><ele>356.6</ele></trkpt>
            <trkpt lat="53.3191500" lon="-1.6972500"><ele>349.3</ele></trkpt>
            <trkpt lat="53.3178800" lon="-1.6985700"><ele>329.0</ele></trkpt>
            <trkpt lat="53.3174700" lon="-1.7003300"><ele>313.5</ele></trkpt>
            <trkpt lat="53.3168100" lon="-1.7000100"><ele>302.2</ele></trkpt>
            <trkpt lat="53.3163700" lon="-1.6994400"><ele>295.7</ele></trkpt>
            <trkpt lat="53.3155500" lon="-1.7033000"><ele>298.0</ele></trkpt>
            <trkpt lat="53.3140000" lon="-1.7054600"><ele>302.0</ele></trkpt>
            <trkpt lat="53.3135600" lon="-1.7048000"><ele>296.0</ele></trkpt>
            <trkpt lat="53.3133700" lon="-1.7039900"><ele>290.6</ele></trkpt>
            <trkpt lat="53.3129700" lon="-1.7040000"><ele>293.6</ele></trkpt>
            <trkpt lat="53.3109000" lon="-1.7017100"><ele>306.5</ele></trkpt>
            <trkpt lat="53.3096700" lon="-1.7012500"><ele>305.6</ele></trkpt>
            <trkpt lat="53.3082100" lon="-1.6998300"><ele>298.4</ele></trkpt>
            <trkpt lat="53.3071900" lon="-1.6999500"><ele>286.4</ele></trkpt>
            <trkpt lat="53.3064600" lon="-1.6988400"><ele>273.7</ele></trkpt>
            <trkpt lat="53.3059100" lon="-1.6982600"><ele>264.8</ele></trkpt>
            <trkpt lat="53.3052900" lon="-1.6980800"><ele>259.0</ele></trkpt>
            <trkpt lat="53.3046400" lon="-1.6984000"><ele>265.6</ele></trkpt>
            <trkpt lat="53.3043000" lon="-1.6991900"><ele>271.6</ele></trkpt>
            <trkpt lat="53.3037000" lon="-1.6989500"><ele>287.4</ele></trkpt>
            <trkpt lat="53.3035700" lon="-1.6993800"><ele>293.6</ele></trkpt>
            <trkpt lat="53.3028400" lon="-1.6997000"><ele>325.8</ele></trkpt>
            <trkpt lat="53.3018000" lon="-1.6986800"><ele>344.8</ele></trkpt>
            <trkpt lat="53.3008900" lon="-1.6971400"><ele>359.7</ele></trkpt>
            <trkpt lat="53.2996600" lon="-1.6988700"><ele>370.5</ele></trkpt>
            <trkpt lat="53.2987600" lon="-1.7002400"><ele>381.8</ele></trkpt>
            <trkpt lat="53.2978900" lon="-1.7006500"><ele>380.4</ele></trkpt>
            <trkpt lat="53.2978500" lon="-1.6998000"><ele>385.2</ele></trkpt>
            <trkpt lat="53.2975300" lon="-1.6985300"><ele>389.4</ele></trkpt>
            <trkpt lat="53.2968000" lon="-1.6990800"><ele>367.4</ele></trkpt>
            <trkpt lat="53.2958700" lon="-1.6976800"><ele>352.4</ele></trkpt>
            <trkpt lat="53.2938400" lon="-1.6963200"><ele>316.8</ele></trkpt>
            <trkpt lat="53.2932100" lon="-1.6947400"><ele>317.8</ele></trkpt>
            <trkpt lat="53.2919800" lon="-1.6980700"><ele>298.8</ele></trkpt>
            <trkpt lat="53.2901400" lon="-1.6945400"><ele>304.8</ele></trkpt>
            <trkpt lat="53.2901200" lon="-1.6915600"><ele>304.9</ele></trkpt>
            <trkpt lat="53.2890600" lon="-1.6892500"><ele>293.8</ele></trkpt>
            <trkpt lat="53.2885700" lon="-1.6868900"><ele>288.4</ele></trkpt>
            <trkpt lat="53.2880500" lon="-1.6845500"><ele>273.1</ele></trkpt>
            <trkpt lat="53.2874800" lon="-1.6831200"><ele>265.7</ele></trkpt>
            <trkpt lat="53.2872800" lon="-1.6817900"><ele>260.1</ele></trkpt>
            <trkpt lat="53.2873200" lon="-1.6814900"><ele>259.4</ele></trkpt>
            <trkpt lat="53.2871900" lon="-1.6813200"><ele>258.2</ele></trkpt>
            <trkpt lat="53.2871200" lon="-1.6802800"><ele>256.0</ele></trkpt>
            <trkpt lat="53.2870900" lon="-1.6800200"><ele>254.5</ele></trkpt>
            <trkpt lat="53.2868400" lon="-1.6790800"><ele>251.7</ele></trkpt>
            <trkpt lat="53.2863900" lon="-1.6780400"><ele>247.4</ele></trkpt>
            <trkpt lat="53.2869400" lon="-1.6775700"><ele>251.5</ele></trkpt>
            <trkpt lat="53.2873000" lon="-1.6775400"><ele>254.0</ele></trkpt>
            <trkpt lat="53.2870600" lon="-1.6762700"><ele>258.4</ele></trkpt>
        </trkseg>
    </trk>
<!-- ele-hash:df42d0f98619320f -->
</gpx>
