<?xml version="1.0" encoding="UTF-8" standalone="yes"?>
<gpx version="1.1" creator="OS Maps - Web" xmlns="http://www.topografix.com/GPX/1/1"
xmlns:xsi="http://www.w3.org/2001/XMLSchema-instance"
xsi:schemaLocation="http://www.topografix.com/GPX/1/1 http://www.topografix.com/GPX/1/1/gpx.xsd"
xmlns:gs="http://www.topografix.com/GPX/gpx_style/0/2"
xmlns:gh="https://graphhopper.com/public/schema/gpx/1.1"
xmlns:os="https://ordnancesurvey.co.uk/public/schema/route/0.1">
    <metadata>
        <name>Stanton Moor (Ethel) - Circular (www.thelostpeak.co.uk)</name>
        <desc>www.thelostpeak.co.uk</desc>
        <bounds minlat="53.1533080" minlon="-1.6827270" maxlat="53.1890620" maxlon="-1.6282470"/>
        <extensions>
            <os:version>2.0</os:version>
            <os:point lat="53.1585810" lon="-1.6410180" type="start"/>
            <os:point lat="53.1585810" lon="-1.6410180" type="end"/>
            <os:activity>ON_FOOT_WALKING</os:activity>
            <os:difficulty>MODERATE</os:difficulty>
            <os:paths/>
            <os:distance>14784.5796765</os:distance>
            <os:elevation_ascent>437.0800000</os:elevation_ascent>
        </extensions>
    </metadata>
    <wpt lat="53.1585810" lon="-1.6410180"/>
    <wpt lat="53.1585810" lon="-1.6410180"/>
    <trk>
        <name>Stanton Moor (Ethel) - Circular (www.thelostpeak.co.uk)</name>
        <trkseg>
            <trkpt lat="53.1585810" lon="-1.6410180"/>
            <trkpt lat="53.1587400" lon="-1.6409810"/>
            <trkpt lat="53.1587700" lon="-1.6414440"/>
            <trkpt lat="53.1587160" lon="-1.6416540"/>
            <trkpt lat="53.1584770" lon="-1.6420170"/>
            <trkpt lat="53.1581010" lon="-1.6427320"/>
            <trkpt lat="53.1577280" lon="-1.6431640"/>
            <trkpt lat="53.1569740" lon="-1.6450500"/>
            <trkpt lat="53.1568620" lon="-1.6452620"/>
            <trkpt lat="53.1565660" lon="-1.6462710"/>
            <trkpt lat="53.1563080" lon="-1.6462930"/>
            <trkpt lat="53.1562190" lon="-1.6462180"/>
            <trkpt lat="53.1562160" lon="-1.6461280"/>
            <trkpt lat="53.1560490" lon="-1.6460970"/>
            <trkpt lat="53.1559020" lon="-1.6474440"/>
            <trkpt lat="53.1557550" lon="-1.6482950"/>
            <trkpt lat="53.1558740" lon="-1.6484130"/>
            <trkpt lat="53.1560120" lon="-1.6484090"/>
            <trkpt lat="53.1560700" lon="-1.6483300"/>
            <trkpt lat="53.1560120" lon="-1.6484090"/>
            <trkpt lat="53.1558740" lon="-1.6484130"/>
            <trkpt lat="53.1557550" lon="-1.6482950"/>
            <trkpt lat="53.1556780" lon="-1.6487400"/>
            <trkpt lat="53.1556210" lon="-1.6492730"/>
            <trkpt lat="53.1556020" lon="-1.6504340"/>
            <trkpt lat="53.1556390" lon="-1.6512810"/>
            <trkpt lat="53.1556930" lon="-1.6515600"/>
            <trkpt lat="53.1558570" lon="-1.6521620"/>
            <trkpt lat="53.1561650" lon="-1.6531100"/>
            <trkpt lat="53.1561800" lon="-1.6532950"/>
            <trkpt lat="53.1560900" lon="-1.6536800"/>
            <trkpt lat="53.1558670" lon="-1.6542360"/>
            <trkpt lat="53.1558160" lon="-1.6543080"/>
            <trkpt lat="53.1555860" lon="-1.6556920"/>
            <trkpt lat="53.1556110" lon="-1.6559980"/>
            <trkpt lat="53.1554350" lon="-1.6563810"/>
            <trkpt lat="53.1553350" lon="-1.6564630"/>
            <trkpt lat="53.1552190" lon="-1.6566470"/>
            <trkpt lat="53.1550710" lon="-1.6567810"/>
            <trkpt lat="53.1549520" lon="-1.6570820"/>
            <trkpt lat="53.1548810" lon="-1.6573390"/>
            <trkpt lat="53.1548840" lon="-1.6574790"/>
            <trkpt lat="53.1546480" lon="-1.6582400"/>
            <trkpt lat="53.1546580" lon="-1.6586340"/>
            <trkpt lat="53.1545940" lon="-1.6586700"/>
            <trkpt lat="53.1545960" lon="-1.6588060"/>
            <trkpt lat="53.1534620" lon="-1.6595630"/>
            <trkpt lat="53.1533080" lon="-1.6596380"/>
            <trkpt lat="53.1533270" lon="-1.6598900"/>
            <trkpt lat="53.1537310" lon="-1.6600520"/>
            <trkpt lat="53.1545580" lon="-1.6602610"/>
            <trkpt lat="53.1550720" lon="-1.6604850"/>
            <trkpt lat="53.1554320" lon="-1.6607230"/>
            <trkpt lat="53.1558220" lon="-1.6610910"/>
            <trkpt lat="53.1562060" lon="-1.6615690"/>
            <trkpt lat="53.1563840" lon="-1.6620530"/>
            <trkpt lat="53.1568550" lon="-1.6631650"/>
            <trkpt lat="53.1569850" lon="-1.6635990"/>
            <trkpt lat="53.1571510" lon="-1.6636260"/>
            <trkpt lat="53.1572440" lon="-1.6633440"/>
            <trkpt lat="53.1572640" lon="-1.6635510"/>
            <trkpt lat="53.1573170" lon="-1.6634320"/>
            <trkpt lat="53.1572790" lon="-1.6630250"/>
            <trkpt lat="53.1572960" lon="-1.6629150"/>
            <trkpt lat="53.1573790" lon="-1.6628210"/>
            <trkpt lat="53.1574770" lon="-1.6625460"/>
            <trkpt lat="53.1574560" lon="-1.6623970"/>
            <trkpt lat="53.1575510" lon="-1.6622340"/>
            <trkpt lat="53.1575530" lon="-1.6617250"/>
            <trkpt lat="53.1576370" lon="-1.6614590"/>
            <trkpt lat="53.1575810" lon="-1.6609540"/>
            <trkpt lat="53.1576080" lon="-1.6607690"/>
            <trkpt lat="53.1575810" lon="-1.6609540"/>
            <trkpt lat="53.1576370" lon="-1.6614590"/>
            <trkpt lat="53.1575530" lon="-1.6617250"/>
            <trkpt lat="53.1575500" lon="-1.6621030"/>
            <trkpt lat="53.1579330" lon="-1.6623030"/>
            <trkpt lat="53.1579690" lon="-1.6620490"/>
            <trkpt lat="53.1580500" lon="-1.6619420"/>
            <trkpt lat="53.1579690" lon="-1.6620490"/>
            <trkpt lat="53.1579330" lon="-1.6623030"/>
            <trkpt lat="53.1578210" lon="-1.6627790"/>
            <trkpt lat="53.1576480" lon="-1.6632590"/>
            <trkpt lat="53.1575280" lon="-1.6639350"/>
            <trkpt lat="53.1573770" lon="-1.6644360"/>
            <trkpt lat="53.1573590" lon="-1.6645690"/>
            <trkpt lat="53.1573270" lon="-1.6646760"/>
            <trkpt lat="53.1574410" lon="-1.6647840"/>
            <trkpt lat="53.1576960" lon="-1.6649190"/>
            <trkpt lat="53.1576840" lon="-1.6650440"/>
            <trkpt lat="53.1575500" lon="-1.6652430"/>
            <trkpt lat="53.1574290" lon="-1.6655400"/>
            <trkpt lat="53.1574200" lon="-1.6657090"/>
            <trkpt lat="53.1572250" lon="-1.6661470"/>
            <trkpt lat="53.1572040" lon="-1.6662290"/>
            <trkpt lat="53.1572250" lon="-1.6661470"/>
            <trkpt lat="53.1574200" lon="-1.6657090"/>
            <trkpt lat="53.1574290" lon="-1.6655400"/>
            <trkpt lat="53.1575500" lon="-1.6652430"/>
            <trkpt lat="53.1576840" lon="-1.6650440"/>
            <trkpt lat="53.1576960" lon="-1.6649190"/>
            <trkpt lat="53.1579330" lon="-1.6650340"/>
            <trkpt lat="53.1581070" lon="-1.6652710"/>
            <trkpt lat="53.1581370" lon="-1.6654580"/>
            <trkpt lat="53.1583100" lon="-1.6657820"/>
            <trkpt lat="53.1592740" lon="-1.6666130"/>
            <trkpt lat="53.1604970" lon="-1.6677310"/>
            <trkpt lat="53.1604970" lon="-1.6678070"/>
            <trkpt lat="53.1609790" lon="-1.6673010"/>
            <trkpt lat="53.1612180" lon="-1.6670960"/>
            <trkpt lat="53.1617150" lon="-1.6667910"/>
            <trkpt lat="53.1622490" lon="-1.6666480"/>
            <trkpt lat="53.1633400" lon="-1.6664990"/>
            <trkpt lat="53.1635150" lon="-1.6670110"/>
            <trkpt lat="53.1637980" lon="-1.6674750"/>
            <trkpt lat="53.1640710" lon="-1.6682300"/>
            <trkpt lat="53.1644410" lon="-1.6688140"/>
            <trkpt lat="53.1642710" lon="-1.6702130"/>
            <trkpt lat="53.1643540" lon="-1.6705990"/>
            <trkpt lat="53.1645290" lon="-1.6709590"/>
            <trkpt lat="53.1647960" lon="-1.6711140"/>
            <trkpt lat="53.1650220" lon="-1.6713460"/>
            <trkpt lat="53.1650670" lon="-1.6718890"/>
            <trkpt lat="53.1649990" lon="-1.6722530"/>
            <trkpt lat="53.1648320" lon="-1.6725820"/>
            <trkpt lat="53.1643280" lon="-1.6730280"/>
            <trkpt lat="53.1639930" lon="-1.6732770"/>
            <trkpt lat="53.1632470" lon="-1.6741390"/>
            <trkpt lat="53.1632870" lon="-1.6743270"/>
            <trkpt lat="53.1636080" lon="-1.6743790"/>
            <trkpt lat="53.1640150" lon="-1.6745770"/>
            <trkpt lat="53.1641570" lon="-1.6746930"/>
            <trkpt lat="53.1642370" lon="-1.6748300"/>
            <trkpt lat="53.1642690" lon="-1.6750010"/>
            <trkpt lat="53.1642880" lon="-1.6754280"/>
            <trkpt lat="53.1642690" lon="-1.6761320"/>
            <trkpt lat="53.1642880" lon="-1.6763410"/>
            <trkpt lat="53.1644380" lon="-1.6765460"/>
            <trkpt lat="53.1649350" lon="-1.6769730"/>
            <trkpt lat="53.1660640" lon="-1.6783360"/>
            <trkpt lat="53.1669810" lon="-1.6786730"/>
            <trkpt lat="53.1672340" lon="-1.6788780"/>
            <trkpt lat="53.1688980" lon="-1.6800020"/>
            <trkpt lat="53.1690920" lon="-1.6805550"/>
            <trkpt lat="53.1692560" lon="-1.6811990"/>
            <trkpt lat="53.1693330" lon="-1.6812640"/>
            <trkpt lat="53.1697050" lon="-1.6811560"/>
            <trkpt lat="53.1698350" lon="-1.6811530"/>
            <trkpt lat="53.1699290" lon="-1.6812770"/>
            <trkpt lat="53.1708930" lon="-1.6823240"/>
            <trkpt lat="53.1711560" lon="-1.6825040"/>
            <trkpt lat="53.1712390" lon="-1.6825080"/>
            <trkpt lat="53.1717270" lon="-1.6826240"/>
            <trkpt lat="53.1719030" lon="-1.6827130"/>
            <trkpt lat="53.1719690" lon="-1.6827270"/>
            <trkpt lat="53.1721190" lon="-1.6824540"/>
            <trkpt lat="53.1722760" lon="-1.6823220"/>
            <trkpt lat="53.1726800" lon="-1.6820580"/>
            <trkpt lat="53.1723820" lon="-1.6815370"/>
            <trkpt lat="53.1723220" lon="-1.6813720"/>
            <trkpt lat="53.1723080" lon="-1.6811670"/>
            <trkpt lat="53.1723590" lon="-1.6808750"/>
            <trkpt lat="53.1725700" lon="-1.6802300"/>
            <trkpt lat="53.1726550" lon="-1.6800770"/>
            <trkpt lat="53.1727680" lon="-1.6799660"/>
            <trkpt lat="53.1730220" lon="-1.6799060"/>
            <trkpt lat="53.1731080" lon="-1.6798060"/>
            <trkpt lat="53.1733600" lon="-1.6796190"/>
            <trkpt lat="53.1735090" lon="-1.6794500"/>
            <trkpt lat="53.1741310" lon="-1.6783580"/>
            <trkpt lat="53.1742950" lon="-1.6782430"/>
            <trkpt lat="53.1743710" lon="-1.6781380"/>
            <trkpt lat="53.1745050" lon="-1.6776470"/>
            <trkpt lat="53.1746550" lon="-1.6769770"/>
            <trkpt lat="53.1750890" lon="-1.6753820"/>
            <trkpt lat="53.1751580" lon="-1.6752020"/>
            <trkpt lat="53.1753040" lon="-1.6751100"/>
            <trkpt lat="53.1756000" lon="-1.6750350"/>
            <trkpt lat="53.1760210" lon="-1.6746270"/>
            <trkpt lat="53.1764100" lon="-1.6745630"/>
            <trkpt lat="53.1764870" lon="-1.6744770"/>
            <trkpt lat="53.1767390" lon="-1.6737970"/>
            <trkpt lat="53.1768550" lon="-1.6731070"/>
            <trkpt lat="53.1769210" lon="-1.6729310"/>
            <trkpt lat="53.1771490" lon="-1.6724750"/>
            <trkpt lat="53.1773720" lon="-1.6720900"/>
            <trkpt lat="53.1775030" lon="-1.6719570"/>
            <trkpt lat="53.1776170" lon="-1.6719260"/>
            <trkpt lat="53.1776420" lon="-1.6719490"/>
            <trkpt lat="53.1776710" lon="-1.6719340"/>
            <trkpt lat="53.1777620" lon="-1.6719670"/>
            <trkpt lat="53.1778060" lon="-1.6718910"/>
            <trkpt lat="53.1779000" lon="-1.6719190"/>
            <trkpt lat="53.1781360" lon="-1.6723150"/>
            <trkpt lat="53.1782740" lon="-1.6725960"/>
            <trkpt lat="53.1784180" lon="-1.6730220"/>
            <trkpt lat="53.1784660" lon="-1.6735050"/>
            <trkpt lat="53.1786620" lon="-1.6748100"/>
            <trkpt lat="53.1789980" lon="-1.6768380"/>
            <trkpt lat="53.1791360" lon="-1.6773880"/>
            <trkpt lat="53.1794330" lon="-1.6780430"/>
            <trkpt lat="53.1800910" lon="-1.6789140"/>
            <trkpt lat="53.1803250" lon="-1.6790880"/>
            <trkpt lat="53.1811990" lon="-1.6799650"/>
            <trkpt lat="53.1820100" lon="-1.6806340"/>
            <trkpt lat="53.1823200" lon="-1.6809270"/>
            <trkpt lat="53.1826890" lon="-1.6813670"/>
            <trkpt lat="53.1828870" lon="-1.6810130"/>
            <trkpt lat="53.1832560" lon="-1.6805000"/>
            <trkpt lat="53.1833560" lon="-1.6802720"/>
            <trkpt lat="53.1834180" lon="-1.6798360"/>
            <trkpt lat="53.1832290" lon="-1.6788430"/>
            <trkpt lat="53.1832730" lon="-1.6787100"/>
            <trkpt lat="53.1834030" lon="-1.6789420"/>
            <trkpt lat="53.1834410" lon="-1.6788460"/>
            <trkpt lat="53.1833680" lon="-1.6785940"/>
            <trkpt lat="53.1834270" lon="-1.6785170"/>
            <trkpt lat="53.1838990" lon="-1.6789690"/>
            <trkpt lat="53.1839810" lon="-1.6792500"/>
            <trkpt lat="53.1842400" lon="-1.6795030"/>
            <trkpt lat="53.1842910" lon="-1.6794740"/>
            <trkpt lat="53.1843980" lon="-1.6774820"/>
            <trkpt lat="53.1845400" lon="-1.6769000"/>
            <trkpt lat="53.1848630" lon="-1.6759930"/>
            <trkpt lat="53.1848820" lon="-1.6758220"/>
            <trkpt lat="53.1851710" lon="-1.6741600"/>
            <trkpt lat="53.1857740" lon="-1.6722330"/>
            <trkpt lat="53.1871170" lon="-1.6683670"/>
            <trkpt lat="53.1876260" lon="-1.6662250"/>
            <trkpt lat="53.1890620" lon="-1.6624670"/>
            <trkpt lat="53.1889990" lon="-1.6624340"/>
            <trkpt lat="53.1876160" lon="-1.6611200"/>
            <trkpt lat="53.1864560" lon="-1.6602320"/>
            <trkpt lat="53.1860340" lon="-1.6595910"/>
            <trkpt lat="53.1858150" lon="-1.6593480"/>
            <trkpt lat="53.1855360" lon="-1.6591270"/>
            <trkpt lat="53.1852060" lon="-1.6590810"/>
            <trkpt lat="53.1849390" lon="-1.6587450"/>
            <trkpt lat="53.1839390" lon="-1.6576570"/>
            <trkpt lat="53.1824370" lon="-1.6559170"/>
            <trkpt lat="53.1821340" lon="-1.6556680"/>
            <trkpt lat="53.1818710" lon="-1.6553330"/>
            <trkpt lat="53.1817110" lon="-1.6551780"/>
            <trkpt lat="53.1815740" lon="-1.6551440"/>
            <trkpt lat="53.1814410" lon="-1.6550540"/>
            <trkpt lat="53.1812800" lon="-1.6550440"/>
            <trkpt lat="53.1808680" lon="-1.6552090"/>
            <trkpt lat="53.1806020" lon="-1.6552150"/>
            <trkpt lat="53.1804280" lon="-1.6550930"/>
            <trkpt lat="53.1803010" lon="-1.6552650"/>
            <trkpt lat="53.1801680" lon="-1.6551770"/>
            <trkpt lat="53.1800070" lon="-1.6551480"/>
            <trkpt lat="53.1795970" lon="-1.6551710"/>
            <trkpt lat="53.1795850" lon="-1.6549020"/>
            <trkpt lat="53.1795310" lon="-1.6545290"/>
            <trkpt lat="53.1792610" lon="-1.6542790"/>
            <trkpt lat="53.1791270" lon="-1.6537350"/>
            <trkpt lat="53.1789650" lon="-1.6523570"/>
            <trkpt lat="53.1787870" lon="-1.6512870"/>
            <trkpt lat="53.1787420" lon="-1.6509050"/>
            <trkpt lat="53.1783520" lon="-1.6504300"/>
            <trkpt lat="53.1780840" lon="-1.6502160"/>
            <trkpt lat="53.1779720" lon="-1.6497700"/>
            <trkpt lat="53.1778940" lon="-1.6495830"/>
            <trkpt lat="53.1756910" lon="-1.6470790"/>
            <trkpt lat="53.1756600" lon="-1.6470110"/>
            <trkpt lat="53.1756160" lon="-1.6469670"/>
            <trkpt lat="53.1757980" lon="-1.6465420"/>
            <trkpt lat="53.1760230" lon="-1.6459090"/>
            <trkpt lat="53.1761400" lon="-1.6454930"/>
            <trkpt lat="53.1762230" lon="-1.6448950"/>
            <trkpt lat="53.1761840" lon="-1.6440990"/>
            <trkpt lat="53.1760740" lon="-1.6433970"/>
            <trkpt lat="53.1759490" lon="-1.6429710"/>
            <trkpt lat="53.1755920" lon="-1.6421340"/>
            <trkpt lat="53.1754430" lon="-1.6416920"/>
            <trkpt lat="53.1754630" lon="-1.6412850"/>
            <trkpt lat="53.1751720" lon="-1.6403140"/>
            <trkpt lat="53.1750820" lon="-1.6400830"/>
            <trkpt lat="53.1749690" lon="-1.6399460"/>
            <trkpt lat="53.1748520" lon="-1.6399180"/>
            <trkpt lat="53.1747570" lon="-1.6399320"/>
            <trkpt lat="53.1743360" lon="-1.6398380"/>
            <trkpt lat="53.1741060" lon="-1.6397000"/>
            <trkpt lat="53.1740150" lon="-1.6394120"/>
            <trkpt lat="53.1739280" lon="-1.6385900"/>
            <trkpt lat="53.1738390" lon="-1.6380000"/>
            <trkpt lat="53.1737500" lon="-1.6377610"/>
            <trkpt lat="53.1720640" lon="-1.6373720"/>
            <trkpt lat="53.1711660" lon="-1.6361380"/>
            <trkpt lat="53.1706620" lon="-1.6355770"/>
            <trkpt lat="53.1698290" lon="-1.6350280"/>
            <trkpt lat="53.1697820" lon="-1.6349680"/>
            <trkpt lat="53.1697670" lon="-1.6349250"/>
            <trkpt lat="53.1697620" lon="-1.6341620"/>
            <trkpt lat="53.1699900" lon="-1.6333340"/>
            <trkpt lat="53.1701140" lon="-1.6330070"/>
            <trkpt lat="53.1700520" lon="-1.6325750"/>
            <trkpt lat="53.1698760" lon="-1.6322650"/>
            <trkpt lat="53.1698660" lon="-1.6320050"/>
            <trkpt lat="53.1698310" lon="-1.6318870"/>
            <trkpt lat="53.1697330" lon="-1.6317270"/>
            <trkpt lat="53.1694270" lon="-1.6316680"/>
            <trkpt lat="53.1693890" lon="-1.6316400"/>
            <trkpt lat="53.1691420" lon="-1.6309370"/>
            <trkpt lat="53.1689130" lon="-1.6299460"/>
            <trkpt lat="53.1689170" lon="-1.6297780"/>
            <trkpt lat="53.1687470" lon="-1.6297230"/>
            <trkpt lat="53.1681700" lon="-1.6298780"/>
            <trkpt lat="53.1678960" lon="-1.6302130"/>
            <trkpt lat="53.1678640" lon="-1.6300180"/>
            <trkpt lat="53.1678460" lon="-1.6293450"/>
            <trkpt lat="53.1679370" lon="-1.6289690"/>
            <trkpt lat="53.1680050" lon="-1.6289280"/>
            <trkpt lat="53.1680380" lon="-1.6288420"/>
            <trkpt lat="53.1680680" lon="-1.6282470"/>
            <trkpt lat="53.1678940" lon="-1.6282750"/>
            <trkpt lat="53.1672410" lon="-1.6288270"/>
            <trkpt lat="53.1666410" lon="-1.6292190"/>
            <trkpt lat="53.1661670" lon="-1.6296580"/>
            <trkpt lat="53.1655310" lon="-1.6300220"/>
            <trkpt lat="53.1652750" lon="-1.6301150"/>
            <trkpt lat="53.1652620" lon="-1.6303640"/>
            <trkpt lat="53.1650670" lon="-1.6310450"/>
            <trkpt lat="53.1646880" lon="-1.6316940"/>
            <trkpt lat="53.1641530" lon="-1.6324240"/>
            <trkpt lat="53.1639390" lon="-1.6328460"/>
            <trkpt lat="53.1635590" lon="-1.6334790"/>
            <trkpt lat="53.1629500" lon="-1.6348500"/>
            <trkpt lat="53.1627980" lon="-1.6350450"/>
            <trkpt lat="53.1626490" lon="-1.6353510"/>
            <trkpt lat="53.1625170" lon="-1.6355320"/>
            <trkpt lat="53.1624560" lon="-1.6356680"/>
            <trkpt lat="53.1623790" lon="-1.6360370"/>
            <trkpt lat="53.1621120" lon="-1.6364210"/>
            <trkpt lat="53.1619300" lon="-1.6368420"/>
            <trkpt lat="53.1618360" lon="-1.6369260"/>
            <trkpt lat="53.1617250" lon="-1.6371020"/>
            <trkpt lat="53.1615800" lon="-1.6374610"/>
            <trkpt lat="53.1615700" lon="-1.6379800"/>
            <trkpt lat="53.1617270" lon="-1.6389330"/>
            <trkpt lat="53.1611540" lon="-1.6389720"/>
            <trkpt lat="53.1609740" lon="-1.6392040"/>
            <trkpt lat="53.1609380" lon="-1.6394270"/>
            <trkpt lat="53.1608040" lon="-1.6397270"/>
            <trkpt lat="53.1608040" lon="-1.6397760"/>
            <trkpt lat="53.1604470" lon="-1.6399120"/>
            <trkpt lat="53.1595460" lon="-1.6404750"/>
            <trkpt lat="53.1587160" lon="-1.6407660"/>
            <trkpt lat="53.1587400" lon="-1.6409810"/>
            <trkpt lat="53.1585810" lon="-1.6410180"/>
        </trkseg>
    </trk>
</gpx>
