<?xml version="1.0" encoding="UTF-8" standalone="yes"?>
<gpx version="1.1" creator="OS Maps - Web" xmlns="http://www.topografix.com/GPX/1/1"
xmlns:xsi="http://www.w3.org/2001/XMLSchema-instance"
xsi:schemaLocation="http://www.topografix.com/GPX/1/1 http://www.topografix.com/GPX/1/1/gpx.xsd"
xmlns:gs="http://www.topografix.com/GPX/gpx_style/0/2"
xmlns:gh="https://graphhopper.com/public/schema/gpx/1.1"
xmlns:os="https://ordnancesurvey.co.uk/public/schema/route/0.1">
    <metadata>
        <name>The Cloud (Ethel) - Circular (www.thelostpeak.co.uk)</name>
        <desc>www.thelostpeak.co.uk</desc>
        <bounds minlat="53.1616000" minlon="-2.1592600" maxlat="53.1704300" maxlon="-2.1437000"/>
        <extensions>
            <os:version>2.0</os:version>
            <os:point lat="53.1621300" lon="-2.1592600" type="start"/>
            <os:point lat="53.1621300" lon="-2.1592600" type="end"/>
            <os:activity>ON_FOOT_WALKING</os:activity>
            <os:difficulty>MODERATE</os:difficulty>
            <os:paths/>
            <os:distance>3944.4946082</os:distance>
            <os:elevation_ascent>195.0700000</os:elevation_ascent>
        </extensions>
    </metadata>
    <wpt lat="53.1621300" lon="-2.1592600"/>
    <wpt lat="53.1621400" lon="-2.1585000"/>
    <wpt lat="53.1616400" lon="-2.1577900"/>
    <wpt lat="53.1616100" lon="-2.1574500"/>
    <wpt lat="53.1629300" lon="-2.1568400"/>
    <wpt lat="53.1643400" lon="-2.1558400"/>
    <wpt lat="53.1638900" lon="-2.1553800"/>
    <wpt lat="53.1629300" lon="-2.1556700"/>
    <wpt lat="53.1624900" lon="-2.1554800"/>
    <wpt lat="53.1624400" lon="-2.1551900"/>
    <wpt lat="53.1629400" lon="-2.1538800"/>
    <wpt lat="53.1645700" lon="-2.1530800"/>
    <wpt lat="53.1649300" lon="-2.1533700"/>
    <wpt lat="53.1657200" lon="-2.1524000"/>
    <wpt lat="53.1661300" lon="-2.1526400"/>
    <wpt lat="53.1672600" lon="-2.1519600"/>
    <wpt lat="53.1688300" lon="-2.1497500"/>
    <wpt lat="53.1689900" lon="-2.1486600"/>
    <wpt lat="53.1699100" lon="-2.1473700"/>
    <wpt lat="53.1703200" lon="-2.1464100"/>
    <wpt lat="53.1704300" lon="-2.1460500"/>
    <wpt lat="53.1703700" lon="-2.1450000"/>
    <wpt lat="53.1700000" lon="-2.1441800"/>
    <wpt lat="53.1677200" lon="-2.1439200"/>
    <wpt lat="53.1673900" lon="-2.1437000"/>
    <wpt lat="53.1666400" lon="-2.1437600"/>
    <wpt lat="53.1657200" lon="-2.1524000"/>
    <wpt lat="53.1649500" lon="-2.1533600"/>
    <wpt lat="53.1645700" lon="-2.1530800"/>
    <wpt lat="53.1629400" lon="-2.1538800"/>
    <wpt lat="53.1624400" lon="-2.1551900"/>
    <wpt lat="53.1625800" lon="-2.1562200"/>
    <wpt lat="53.1616400" lon="-2.1577900"/>
    <wpt lat="53.1621400" lon="-2.1585000"/>
    <wpt lat="53.1621300" lon="-2.1592600"/>
    <trk>
        <name>The Cloud (Ethel) - Circular (www.thelostpeak.co.uk)</name>
        <trkseg>
            <trkpt lat="53.1621300" lon="-2.1592600"><ele>161.0</ele></trkpt>
            <trkpt lat="53.1621200" lon="-2.1592600"><ele>161.0</ele></trkpt>
            <trkpt lat="53.1621000" lon="-2.1591700"><ele>161.7</ele></trkpt>
            <trkpt lat="53.1620900" lon="-2.1587200"><ele>165.2</ele></trkpt>
            <trkpt lat="53.1621400" lon="-2.1585800"><ele>165.7</ele></trkpt>
            <trkpt lat="53.1621400" lon="-2.1585000"><ele>166.3</ele></trkpt>
            <trkpt lat="53.1619300" lon="-2.1582000"><ele>169.6</ele></trkpt>
            <trkpt lat="53.1618700" lon="-2.1580300"><ele>170.9</ele></trkpt>
            <trkpt lat="53.1616400" lon="-2.1577900"><ele>172.3</ele></trkpt>
            <trkpt lat="53.1616000" lon="-2.1577000"><ele>172.8</ele></trkpt>
            <trkpt lat="53.1616000" lon="-2.1574900"><ele>174.2</ele></trkpt>
            <trkpt lat="53.1616100" lon="-2.1574500"><ele>174.6</ele></trkpt>
            <trkpt lat="53.1617800" lon="-2.1574000"><ele>175.9</ele></trkpt>
            <trkpt lat="53.1619400" lon="-2.1573200"><ele>177.7</ele></trkpt>
            <trkpt lat="53.1621900" lon="-2.1571400"><ele>181.1</ele></trkpt>
            <trkpt lat="53.1625900" lon="-2.1570200"><ele>183.5</ele></trkpt>
            <trkpt lat="53.1628600" lon="-2.1568600"><ele>185.9</ele></trkpt>
            <trkpt lat="53.1629300" lon="-2.1568400"><ele>185.7</ele></trkpt>
            <trkpt lat="53.1638500" lon="-2.1562100"><ele>195.3</ele></trkpt>
            <trkpt lat="53.1643400" lon="-2.1558400"><ele>201.8</ele></trkpt>
            <trkpt lat="53.1643300" lon="-2.1557800"><ele>202.2</ele></trkpt>
            <trkpt lat="53.1642500" lon="-2.1556800"><ele>203.3</ele></trkpt>
            <trkpt lat="53.1639500" lon="-2.1554500"><ele>206.7</ele></trkpt>
            <trkpt lat="53.1638900" lon="-2.1553800"><ele>208.4</ele></trkpt>
            <trkpt lat="53.1636300" lon="-2.1553500"><ele>210.2</ele></trkpt>
            <trkpt lat="53.1630900" lon="-2.1556300"><ele>211.6</ele></trkpt>
            <trkpt lat="53.1629300" lon="-2.1556700"><ele>212.1</ele></trkpt>
            <trkpt lat="53.1627100" lon="-2.1556800"><ele>213.1</ele></trkpt>
            <trkpt lat="53.1627100" lon="-2.1556300"><ele>214.0</ele></trkpt>
            <trkpt lat="53.1627100" lon="-2.1556800"><ele>213.1</ele></trkpt>
            <trkpt lat="53.1625900" lon="-2.1556000"><ele>214.1</ele></trkpt>
            <trkpt lat="53.1624900" lon="-2.1554800"><ele>216.0</ele></trkpt>
            <trkpt lat="53.1624400" lon="-2.1553300"><ele>216.7</ele></trkpt>
            <trkpt lat="53.1624400" lon="-2.1551900"><ele>217.5</ele></trkpt>
            <trkpt lat="53.1626000" lon="-2.1547100"><ele>221.4</ele></trkpt>
            <trkpt lat="53.1628800" lon="-2.1540000"><ele>222.9</ele></trkpt>
            <trkpt lat="53.1629400" lon="-2.1538800"><ele>223.8</ele></trkpt>
            <trkpt lat="53.1631400" lon="-2.1536700"><ele>226.0</ele></trkpt>
            <trkpt lat="53.1637400" lon="-2.1534600"><ele>236.2</ele></trkpt>
            <trkpt lat="53.1645700" lon="-2.1530800"><ele>251.9</ele></trkpt>
            <trkpt lat="53.1646300" lon="-2.1530700"><ele>253.2</ele></trkpt>
            <trkpt lat="53.1646700" lon="-2.1532300"><ele>252.9</ele></trkpt>
            <trkpt lat="53.1647300" lon="-2.1533500"><ele>251.6</ele></trkpt>
            <trkpt lat="53.1648000" lon="-2.1534000"><ele>251.3</ele></trkpt>
            <trkpt lat="53.1649300" lon="-2.1533700"><ele>251.7</ele></trkpt>
            <trkpt lat="53.1650900" lon="-2.1532000"><ele>254.4</ele></trkpt>
            <trkpt lat="53.1655600" lon="-2.1526400"><ele>264.1</ele></trkpt>
            <trkpt lat="53.1656600" lon="-2.1524700"><ele>266.2</ele></trkpt>
            <trkpt lat="53.1657200" lon="-2.1524000"><ele>267.2</ele></trkpt>
            <trkpt lat="53.1658000" lon="-2.1524400"><ele>267.7</ele></trkpt>
            <trkpt lat="53.1659600" lon="-2.1526100"><ele>266.6</ele></trkpt>
            <trkpt lat="53.1660300" lon="-2.1526400"><ele>265.9</ele></trkpt>
            <trkpt lat="53.1661300" lon="-2.1526400"><ele>266.0</ele></trkpt>
            <trkpt lat="53.1663300" lon="-2.1525800"><ele>268.4</ele></trkpt>
            <trkpt lat="53.1664300" lon="-2.1525100"><ele>269.9</ele></trkpt>
            <trkpt lat="53.1665600" lon="-2.1524900"><ele>271.9</ele></trkpt>
            <trkpt lat="53.1668700" lon="-2.1523200"><ele>276.2</ele></trkpt>
            <trkpt lat="53.1672600" lon="-2.1519600"><ele>278.3</ele></trkpt>
            <trkpt lat="53.1673600" lon="-2.1517800"><ele>279.4</ele></trkpt>
            <trkpt lat="53.1674400" lon="-2.1516900"><ele>279.5</ele></trkpt>
            <trkpt lat="53.1678200" lon="-2.1510900"><ele>282.4</ele></trkpt>
            <trkpt lat="53.1680600" lon="-2.1508300"><ele>282.2</ele></trkpt>
            <trkpt lat="53.1682100" lon="-2.1505600"><ele>283.1</ele></trkpt>
            <trkpt lat="53.1687400" lon="-2.1499100"><ele>279.7</ele></trkpt>
            <trkpt lat="53.1688300" lon="-2.1497500"><ele>281.4</ele></trkpt>
            <trkpt lat="53.1688500" lon="-2.1496500"><ele>282.8</ele></trkpt>
            <trkpt lat="53.1688600" lon="-2.1493600"><ele>289.5</ele></trkpt>
            <trkpt lat="53.1689000" lon="-2.1491400"><ele>292.9</ele></trkpt>
            <trkpt lat="53.1689200" lon="-2.1488600"><ele>296.4</ele></trkpt>
            <trkpt lat="53.1689900" lon="-2.1486600"><ele>298.4</ele></trkpt>
            <trkpt lat="53.1692000" lon="-2.1483000"><ele>300.9</ele></trkpt>
            <trkpt lat="53.1692300" lon="-2.1482200"><ele>302.3</ele></trkpt>
            <trkpt lat="53.1694000" lon="-2.1479600"><ele>305.9</ele></trkpt>
            <trkpt lat="53.1695300" lon="-2.1478900"><ele>306.3</ele></trkpt>
            <trkpt lat="53.1695900" lon="-2.1478200"><ele>307.6</ele></trkpt>
            <trkpt lat="53.1696200" lon="-2.1477200"><ele>309.3</ele></trkpt>
            <trkpt lat="53.1696500" lon="-2.1476700"><ele>309.5</ele></trkpt>
            <trkpt lat="53.1696800" lon="-2.1476700"><ele>309.2</ele></trkpt>
            <trkpt lat="53.1698300" lon="-2.1475000"><ele>308.1</ele></trkpt>
            <trkpt lat="53.1699100" lon="-2.1473700"><ele>308.8</ele></trkpt>
            <trkpt lat="53.1700800" lon="-2.1470600"><ele>312.5</ele></trkpt>
            <trkpt lat="53.1701600" lon="-2.1467400"><ele>319.5</ele></trkpt>
            <trkpt lat="53.1701600" lon="-2.1466800"><ele>320.6</ele></trkpt>
            <trkpt lat="53.1701400" lon="-2.1466200"><ele>322.3</ele></trkpt>
            <trkpt lat="53.1701400" lon="-2.1465800"><ele>323.0</ele></trkpt>
            <trkpt lat="53.1702700" lon="-2.1464800"><ele>322.5</ele></trkpt>
            <trkpt lat="53.1703200" lon="-2.1464100"><ele>323.3</ele></trkpt>
            <trkpt lat="53.1704300" lon="-2.1460500"><ele>327.6</ele></trkpt>
            <trkpt lat="53.1704300" lon="-2.1459200"><ele>329.6</ele></trkpt>
            <trkpt lat="53.1704000" lon="-2.1458300"><ele>331.1</ele></trkpt>
            <trkpt lat="53.1704000" lon="-2.1457200"><ele>332.5</ele></trkpt>
            <trkpt lat="53.1704200" lon="-2.1456200"><ele>333.2</ele></trkpt>
            <trkpt lat="53.1703700" lon="-2.1450000"><ele>336.2</ele></trkpt>
            <trkpt lat="53.1702500" lon="-2.1447400"><ele>337.3</ele></trkpt>
            <trkpt lat="53.1700800" lon="-2.1444500"><ele>338.3</ele></trkpt>
            <trkpt lat="53.1700000" lon="-2.1441800"><ele>338.7</ele></trkpt>
            <trkpt lat="53.1699600" lon="-2.1441300"><ele>338.3</ele></trkpt>
            <trkpt lat="53.1698800" lon="-2.1441600"><ele>338.4</ele></trkpt>
            <trkpt lat="53.1696300" lon="-2.1440800"><ele>336.5</ele></trkpt>
            <trkpt lat="53.1694900" lon="-2.1440800"><ele>334.9</ele></trkpt>
            <trkpt lat="53.1694200" lon="-2.1441000"><ele>334.3</ele></trkpt>
            <trkpt lat="53.1693200" lon="-2.1440700"><ele>333.4</ele></trkpt>
            <trkpt lat="53.1691900" lon="-2.1441000"><ele>332.3</ele></trkpt>
            <trkpt lat="53.1691400" lon="-2.1440900"><ele>331.9</ele></trkpt>
            <trkpt lat="53.1691000" lon="-2.1440500"><ele>331.5</ele></trkpt>
            <trkpt lat="53.1690500" lon="-2.1440300"><ele>331.0</ele></trkpt>
            <trkpt lat="53.1689500" lon="-2.1440500"><ele>329.5</ele></trkpt>
            <trkpt lat="53.1687900" lon="-2.1440400"><ele>327.6</ele></trkpt>
            <trkpt lat="53.1685700" lon="-2.1439400"><ele>325.9</ele></trkpt>
            <trkpt lat="53.1684300" lon="-2.1439400"><ele>323.6</ele></trkpt>
            <trkpt lat="53.1682000" lon="-2.1438300"><ele>320.2</ele></trkpt>
            <trkpt lat="53.1681300" lon="-2.1438600"><ele>319.2</ele></trkpt>
            <trkpt lat="53.1679800" lon="-2.1438500"><ele>317.1</ele></trkpt>
            <trkpt lat="53.1679200" lon="-2.1438300"><ele>316.6</ele></trkpt>
            <trkpt lat="53.1678900" lon="-2.1437900"><ele>316.5</ele></trkpt>
            <trkpt lat="53.1678400" lon="-2.1438000"><ele>316.3</ele></trkpt>
            <trkpt lat="53.1677200" lon="-2.1439200"><ele>316.3</ele></trkpt>
            <trkpt lat="53.1675800" lon="-2.1438700"><ele>316.7</ele></trkpt>
            <trkpt lat="53.1674700" lon="-2.1437300"><ele>316.7</ele></trkpt>
            <trkpt lat="53.1673900" lon="-2.1437000"><ele>316.3</ele></trkpt>
            <trkpt lat="53.1672800" lon="-2.1437100"><ele>315.7</ele></trkpt>
            <trkpt lat="53.1672400" lon="-2.1437700"><ele>315.4</ele></trkpt>
            <trkpt lat="53.1671500" lon="-2.1437900"><ele>314.5</ele></trkpt>
            <trkpt lat="53.1669000" lon="-2.1437800"><ele>311.8</ele></trkpt>
            <trkpt lat="53.1667600" lon="-2.1438200"><ele>309.7</ele></trkpt>
            <trkpt lat="53.1667200" lon="-2.1437700"><ele>309.4</ele></trkpt>
            <trkpt lat="53.1666400" lon="-2.1437600"><ele>308.4</ele></trkpt>
            <trkpt lat="53.1665800" lon="-2.1440800"><ele>306.2</ele></trkpt>
            <trkpt lat="53.1665600" lon="-2.1443900"><ele>305.0</ele></trkpt>
            <trkpt lat="53.1665000" lon="-2.1449400"><ele>300.1</ele></trkpt>
            <trkpt lat="53.1664200" lon="-2.1453600"><ele>294.9</ele></trkpt>
            <trkpt lat="53.1664100" lon="-2.1458000"><ele>292.2</ele></trkpt>
            <trkpt lat="53.1663500" lon="-2.1461600"><ele>288.9</ele></trkpt>
            <trkpt lat="53.1663700" lon="-2.1463900"><ele>288.2</ele></trkpt>
            <trkpt lat="53.1663600" lon="-2.1465800"><ele>287.5</ele></trkpt>
            <trkpt lat="53.1663400" lon="-2.1467400"><ele>286.4</ele></trkpt>
            <trkpt lat="53.1662800" lon="-2.1469600"><ele>284.6</ele></trkpt>
            <trkpt lat="53.1662500" lon="-2.1473200"><ele>282.0</ele></trkpt>
            <trkpt lat="53.1662000" lon="-2.1476500"><ele>279.9</ele></trkpt>
            <trkpt lat="53.1662000" lon="-2.1479500"><ele>278.7</ele></trkpt>
            <trkpt lat="53.1661400" lon="-2.1483000"><ele>275.4</ele></trkpt>
            <trkpt lat="53.1661200" lon="-2.1484800"><ele>274.2</ele></trkpt>
            <trkpt lat="53.1661200" lon="-2.1486700"><ele>274.1</ele></trkpt>
            <trkpt lat="53.1660800" lon="-2.1488500"><ele>272.9</ele></trkpt>
            <trkpt lat="53.1660900" lon="-2.1490000"><ele>271.9</ele></trkpt>
            <trkpt lat="53.1660000" lon="-2.1499400"><ele>269.2</ele></trkpt>
            <trkpt lat="53.1660100" lon="-2.1501500"><ele>270.1</ele></trkpt>
            <trkpt lat="53.1660000" lon="-2.1502600"><ele>270.5</ele></trkpt>
            <trkpt lat="53.1659400" lon="-2.1504200"><ele>269.2</ele></trkpt>
            <trkpt lat="53.1659000" lon="-2.1506800"><ele>269.9</ele></trkpt>
            <trkpt lat="53.1658200" lon="-2.1514000"><ele>271.4</ele></trkpt>
            <trkpt lat="53.1658000" lon="-2.1519300"><ele>271.2</ele></trkpt>
            <trkpt lat="53.1657600" lon="-2.1521200"><ele>270.0</ele></trkpt>
            <trkpt lat="53.1657200" lon="-2.1524000"><ele>267.2</ele></trkpt>
            <trkpt lat="53.1656600" lon="-2.1524700"><ele>266.2</ele></trkpt>
            <trkpt lat="53.1655600" lon="-2.1526400"><ele>264.1</ele></trkpt>
            <trkpt lat="53.1649500" lon="-2.1533600"><ele>252.3</ele></trkpt>
            <trkpt lat="53.1648000" lon="-2.1534000"><ele>251.3</ele></trkpt>
            <trkpt lat="53.1647300" lon="-2.1533500"><ele>251.6</ele></trkpt>
            <trkpt lat="53.1646700" lon="-2.1532300"><ele>252.9</ele></trkpt>
            <trkpt lat="53.1646300" lon="-2.1530700"><ele>253.2</ele></trkpt>
            <trkpt lat="53.1645700" lon="-2.1530800"><ele>251.9</ele></trkpt>
            <trkpt lat="53.1637400" lon="-2.1534600"><ele>236.2</ele></trkpt>
            <trkpt lat="53.1631400" lon="-2.1536700"><ele>226.0</ele></trkpt>
            <trkpt lat="53.1629400" lon="-2.1538800"><ele>223.8</ele></trkpt>
            <trkpt lat="53.1628800" lon="-2.1540000"><ele>222.9</ele></trkpt>
            <trkpt lat="53.1626000" lon="-2.1547100"><ele>221.4</ele></trkpt>
            <trkpt lat="53.1624400" lon="-2.1551900"><ele>217.5</ele></trkpt>
            <trkpt lat="53.1624400" lon="-2.1553300"><ele>216.7</ele></trkpt>
            <trkpt lat="53.1624900" lon="-2.1554800"><ele>216.0</ele></trkpt>
            <trkpt lat="53.1625900" lon="-2.1556000"><ele>214.1</ele></trkpt>
            <trkpt lat="53.1627100" lon="-2.1556800"><ele>213.1</ele></trkpt>
            <trkpt lat="53.1627000" lon="-2.1556800"><ele>213.1</ele></trkpt>
            <trkpt lat="53.1627100" lon="-2.1556800"><ele>213.1</ele></trkpt>
            <trkpt lat="53.1626900" lon="-2.1557700"><ele>210.5</ele></trkpt>
            <trkpt lat="53.1626800" lon="-2.1559000"><ele>207.8</ele></trkpt>
            <trkpt lat="53.1626200" lon="-2.1559800"><ele>207.4</ele></trkpt>
            <trkpt lat="53.1625800" lon="-2.1561300"><ele>203.7</ele></trkpt>
            <trkpt lat="53.1625800" lon="-2.1562200"><ele>201.5</ele></trkpt>
            <trkpt lat="53.1626500" lon="-2.1564700"><ele>195.0</ele></trkpt>
            <trkpt lat="53.1628600" lon="-2.1568600"><ele>185.9</ele></trkpt>
            <trkpt lat="53.1625900" lon="-2.1570200"><ele>183.5</ele></trkpt>
            <trkpt lat="53.1621900" lon="-2.1571400"><ele>181.1</ele></trkpt>
            <trkpt lat="53.1619400" lon="-2.1573200"><ele>177.7</ele></trkpt>
            <trkpt lat="53.1617800" lon="-2.1574000"><ele>175.9</ele></trkpt>
            <trkpt lat="53.1616100" lon="-2.1574500"><ele>174.6</ele></trkpt>
            <trkpt lat="53.1616000" lon="-2.1574900"><ele>174.2</ele></trkpt>
            <trkpt lat="53.1616000" lon="-2.1577000"><ele>172.8</ele></trkpt>
            <trkpt lat="53.1616400" lon="-2.1577900"><ele>172.3</ele></trkpt>
            <trkpt lat="53.1618700" lon="-2.1580300"><ele>170.9</ele></trkpt>
            <trkpt lat="53.1619300" lon="-2.1582000"><ele>169.6</ele></trkpt>
            <trkpt lat="53.1621400" lon="-2.1585000"><ele>166.3</ele></trkpt>
            <trkpt lat="53.1621400" lon="-2.1585800"><ele>165.7</ele></trkpt>
            <trkpt lat="53.1620900" lon="-2.1587200"><ele>165.2</ele></trkpt>
            <trkpt lat="53.1621000" lon="-2.1591700"><ele>161.7</ele></trkpt>
            <trkpt lat="53.1621200" lon="-2.1592600"><ele>161.0</ele></trkpt>
            <trkpt lat="53.1621300" lon="-2.1592600"><ele>161.0</ele></trkpt>
        </trkseg>
    </trk>
<!-- ele-hash:35386f97af94a639 -->
</gpx>
