<?xml version="1.0" encoding="UTF-8" standalone="yes"?>
<gpx version="1.1" creator="OS Maps - Web" xmlns="http://www.topografix.com/GPX/1/1"
xmlns:xsi="http://www.w3.org/2001/XMLSchema-instance"
xsi:schemaLocation="http://www.topografix.com/GPX/1/1 http://www.topografix.com/GPX/1/1/gpx.xsd"
xmlns:gs="http://www.topografix.com/GPX/gpx_style/0/2"
xmlns:gh="https://graphhopper.com/public/schema/gpx/1.1"
xmlns:os="https://ordnancesurvey.co.uk/public/schema/route/0.1">
    <metadata>
        <name>Thorpe Cloud (Ethel) - Circular (www.thelostpeak.co.uk)</name>
        <desc>www.thelostpeak.co.uk</desc>
        <bounds minlat="53.0284200" minlon="-1.7841300" maxlat="53.0668000" maxlon="-1.7395000"/>
        <extensions>
            <os:version>2.0</os:version>
            <os:point lat="53.0505400" lon="-1.7668900" type="start"/>
            <os:point lat="53.0505400" lon="-1.7668900" type="end"/>
            <os:activity>ON_FOOT_WALKING</os:activity>
            <os:difficulty>MODERATE</os:difficulty>
            <os:paths/>
            <os:distance>15772.2499198</os:distance>
            <os:elevation_ascent>346.9600000</os:elevation_ascent>
        </extensions>
    </metadata>
    <wpt lat="53.0505400" lon="-1.7668900"/>
    <wpt lat="53.0503200" lon="-1.7677000"/>
    <wpt lat="53.0507100" lon="-1.7682700"/>
    <wpt lat="53.0512300" lon="-1.7677500"/>
    <wpt lat="53.0526600" lon="-1.7674200"/>
    <wpt lat="53.0530900" lon="-1.7705200"/>
    <wpt lat="53.0536900" lon="-1.7713000"/>
    <wpt lat="53.0547900" lon="-1.7718300"/>
    <wpt lat="53.0551800" lon="-1.7714200"/>
    <wpt lat="53.0553400" lon="-1.7704000"/>
    <wpt lat="53.0555100" lon="-1.7703200"/>
    <wpt lat="53.0564900" lon="-1.7718800"/>
    <wpt lat="53.0573900" lon="-1.7721800"/>
    <wpt lat="53.0587900" lon="-1.7735100"/>
    <wpt lat="53.0595200" lon="-1.7750900"/>
    <wpt lat="53.0567000" lon="-1.7724300"/>
    <wpt lat="53.0561200" lon="-1.7723800"/>
    <wpt lat="53.0556700" lon="-1.7729600"/>
    <wpt lat="53.0557600" lon="-1.7739500"/>
    <wpt lat="53.0563000" lon="-1.7752300"/>
    <wpt lat="53.0557300" lon="-1.7739000"/>
    <wpt lat="53.0556700" lon="-1.7730100"/>
    <wpt lat="53.0561200" lon="-1.7724800"/>
    <wpt lat="53.0566600" lon="-1.7724500"/>
    <wpt lat="53.0594600" lon="-1.7751100"/>
    <wpt lat="53.0592300" lon="-1.7759200"/>
    <wpt lat="53.0583600" lon="-1.7769100"/>
    <wpt lat="53.0579400" lon="-1.7780500"/>
    <wpt lat="53.0577500" lon="-1.7791600"/>
    <wpt lat="53.0568600" lon="-1.7811600"/>
    <wpt lat="53.0566000" lon="-1.7815600"/>
    <wpt lat="53.0563400" lon="-1.7814600"/>
    <wpt lat="53.0552600" lon="-1.7818300"/>
    <wpt lat="53.0547900" lon="-1.7827900"/>
    <wpt lat="53.0543300" lon="-1.7830500"/>
    <wpt lat="53.0537800" lon="-1.7841200"/>
    <wpt lat="53.0528800" lon="-1.7839800"/>
    <wpt lat="53.0525800" lon="-1.7835400"/>
    <wpt lat="53.0514300" lon="-1.7830300"/>
    <wpt lat="53.0513000" lon="-1.7824100"/>
    <wpt lat="53.0504800" lon="-1.7824100"/>
    <wpt lat="53.0502600" lon="-1.7820100"/>
    <wpt lat="53.0492600" lon="-1.7820100"/>
    <wpt lat="53.0485700" lon="-1.7809300"/>
    <wpt lat="53.0474400" lon="-1.7799800"/>
    <wpt lat="53.0452900" lon="-1.7788500"/>
    <wpt lat="53.0442300" lon="-1.7778400"/>
    <wpt lat="53.0441400" lon="-1.7750400"/>
    <wpt lat="53.0444800" lon="-1.7727500"/>
    <wpt lat="53.0445200" lon="-1.7709200"/>
    <wpt lat="53.0444700" lon="-1.7694400"/>
    <wpt lat="53.0442400" lon="-1.7682500"/>
    <wpt lat="53.0437900" lon="-1.7672800"/>
    <wpt lat="53.0411400" lon="-1.7657500"/>
    <wpt lat="53.0395900" lon="-1.7617500"/>
    <wpt lat="53.0391500" lon="-1.7601200"/>
    <wpt lat="53.0388600" lon="-1.7596300"/>
    <wpt lat="53.0373500" lon="-1.7587200"/>
    <wpt lat="53.0365500" lon="-1.7586200"/>
    <wpt lat="53.0344300" lon="-1.7591300"/>
    <wpt lat="53.0329900" lon="-1.7588900"/>
    <wpt lat="53.0312800" lon="-1.7565500"/>
    <wpt lat="53.0301000" lon="-1.7565800"/>
    <wpt lat="53.0296400" lon="-1.7559100"/>
    <wpt lat="53.0292200" lon="-1.7548400"/>
    <wpt lat="53.0285900" lon="-1.7548400"/>
    <wpt lat="53.0284200" lon="-1.7539200"/>
    <wpt lat="53.0292200" lon="-1.7534100"/>
    <wpt lat="53.0294500" lon="-1.7526600"/>
    <wpt lat="53.0299000" lon="-1.7522200"/>
    <wpt lat="53.0302900" lon="-1.7522700"/>
    <wpt lat="53.0317300" lon="-1.7510300"/>
    <wpt lat="53.0334000" lon="-1.7508200"/>
    <wpt lat="53.0346500" lon="-1.7515600"/>
    <wpt lat="53.0351400" lon="-1.7515500"/>
    <wpt lat="53.0355200" lon="-1.7500100"/>
    <wpt lat="53.0368600" lon="-1.7480900"/>
    <wpt lat="53.0375200" lon="-1.7483100"/>
    <wpt lat="53.0379500" lon="-1.7480100"/>
    <wpt lat="53.0381900" lon="-1.7483400"/>
    <wpt lat="53.0407700" lon="-1.7475800"/>
    <wpt lat="53.0411500" lon="-1.7482800"/>
    <wpt lat="53.0421900" lon="-1.7517300"/>
    <wpt lat="53.0434200" lon="-1.7535500"/>
    <wpt lat="53.0462400" lon="-1.7552400"/>
    <wpt lat="53.0473600" lon="-1.7553800"/>
    <wpt lat="53.0481800" lon="-1.7552100"/>
    <wpt lat="53.0488800" lon="-1.7548800"/>
    <wpt lat="53.0500900" lon="-1.7536000"/>
    <wpt lat="53.0508500" lon="-1.7521700"/>
    <wpt lat="53.0522000" lon="-1.7481500"/>
    <wpt lat="53.0528400" lon="-1.7467800"/>
    <wpt lat="53.0541200" lon="-1.7448600"/>
    <wpt lat="53.0551500" lon="-1.7438800"/>
    <wpt lat="53.0583500" lon="-1.7423200"/>
    <wpt lat="53.0621300" lon="-1.7419100"/>
    <wpt lat="53.0630400" lon="-1.7412900"/>
    <wpt lat="53.0640200" lon="-1.7401700"/>
    <wpt lat="53.0661700" lon="-1.7400700"/>
    <wpt lat="53.0667600" lon="-1.7395000"/>
    <wpt lat="53.0667500" lon="-1.7403100"/>
    <wpt lat="53.0663600" lon="-1.7413800"/>
    <wpt lat="53.0646300" lon="-1.7431300"/>
    <wpt lat="53.0635300" lon="-1.7451800"/>
    <wpt lat="53.0629800" lon="-1.7465700"/>
    <wpt lat="53.0623600" lon="-1.7493300"/>
    <wpt lat="53.0620200" lon="-1.7501400"/>
    <wpt lat="53.0603500" lon="-1.7519000"/>
    <wpt lat="53.0597600" lon="-1.7529600"/>
    <wpt lat="53.0565900" lon="-1.7563600"/>
    <wpt lat="53.0556400" lon="-1.7584300"/>
    <wpt lat="53.0549700" lon="-1.7585500"/>
    <wpt lat="53.0545100" lon="-1.7612100"/>
    <wpt lat="53.0528200" lon="-1.7638000"/>
    <wpt lat="53.0523300" lon="-1.7642900"/>
    <wpt lat="53.0516700" lon="-1.7644400"/>
    <wpt lat="53.0505400" lon="-1.7668900"/>
    <trk>
        <name>Thorpe Cloud (Ethel) - Circular (www.thelostpeak.co.uk)</name>
        <trkseg>
            <trkpt lat="53.0505400" lon="-1.7668900"/>
            <trkpt lat="53.0504400" lon="-1.7671800"/>
            <trkpt lat="53.0503300" lon="-1.7674500"/>
            <trkpt lat="53.0503200" lon="-1.7677000"/>
            <trkpt lat="53.0503600" lon="-1.7678800"/>
            <trkpt lat="53.0504200" lon="-1.7680200"/>
            <trkpt lat="53.0504600" lon="-1.7680800"/>
            <trkpt lat="53.0505500" lon="-1.7681700"/>
            <trkpt lat="53.0507100" lon="-1.7682700"/>
            <trkpt lat="53.0508000" lon="-1.7682700"/>
            <trkpt lat="53.0508500" lon="-1.7682500"/>
            <trkpt lat="53.0509600" lon="-1.7679500"/>
            <trkpt lat="53.0510400" lon="-1.7678600"/>
            <trkpt lat="53.0512300" lon="-1.7677500"/>
            <trkpt lat="53.0514500" lon="-1.7676600"/>
            <trkpt lat="53.0516900" lon="-1.7676600"/>
            <trkpt lat="53.0518400" lon="-1.7676100"/>
            <trkpt lat="53.0520200" lon="-1.7675100"/>
            <trkpt lat="53.0520700" lon="-1.7675000"/>
            <trkpt lat="53.0522700" lon="-1.7673700"/>
            <trkpt lat="53.0523900" lon="-1.7673400"/>
            <trkpt lat="53.0525500" lon="-1.7673400"/>
            <trkpt lat="53.0526100" lon="-1.7673700"/>
            <trkpt lat="53.0526600" lon="-1.7674200"/>
            <trkpt lat="53.0526900" lon="-1.7674700"/>
            <trkpt lat="53.0528200" lon="-1.7679500"/>
            <trkpt lat="53.0528700" lon="-1.7683000"/>
            <trkpt lat="53.0528900" lon="-1.7684700"/>
            <trkpt lat="53.0529000" lon="-1.7687900"/>
            <trkpt lat="53.0529700" lon="-1.7691800"/>
            <trkpt lat="53.0530000" lon="-1.7696200"/>
            <trkpt lat="53.0530000" lon="-1.7699500"/>
            <trkpt lat="53.0530900" lon="-1.7705200"/>
            <trkpt lat="53.0531500" lon="-1.7706900"/>
            <trkpt lat="53.0532400" lon="-1.7708300"/>
            <trkpt lat="53.0533800" lon="-1.7709900"/>
            <trkpt lat="53.0534300" lon="-1.7710000"/>
            <trkpt lat="53.0535100" lon="-1.7710800"/>
            <trkpt lat="53.0536900" lon="-1.7713000"/>
            <trkpt lat="53.0539300" lon="-1.7713800"/>
            <trkpt lat="53.0540600" lon="-1.7713900"/>
            <trkpt lat="53.0544200" lon="-1.7716000"/>
            <trkpt lat="53.0545900" lon="-1.7716100"/>
            <trkpt lat="53.0546900" lon="-1.7716700"/>
            <trkpt lat="53.0547700" lon="-1.7717800"/>
            <trkpt lat="53.0547900" lon="-1.7718300"/>
            <trkpt lat="53.0549300" lon="-1.7717200"/>
            <trkpt lat="53.0550700" lon="-1.7715800"/>
            <trkpt lat="53.0551800" lon="-1.7714200"/>
            <trkpt lat="53.0552400" lon="-1.7712300"/>
            <trkpt lat="53.0552600" lon="-1.7710600"/>
            <trkpt lat="53.0552900" lon="-1.7709700"/>
            <trkpt lat="53.0553200" lon="-1.7708100"/>
            <trkpt lat="53.0553400" lon="-1.7704000"/>
            <trkpt lat="53.0553700" lon="-1.7703400"/>
            <trkpt lat="53.0554200" lon="-1.7703100"/>
            <trkpt lat="53.0555100" lon="-1.7703200"/>
            <trkpt lat="53.0557100" lon="-1.7705700"/>
            <trkpt lat="53.0557900" lon="-1.7707000"/>
            <trkpt lat="53.0558400" lon="-1.7708600"/>
            <trkpt lat="53.0560000" lon="-1.7711400"/>
            <trkpt lat="53.0561500" lon="-1.7714500"/>
            <trkpt lat="53.0563500" lon="-1.7717400"/>
            <trkpt lat="53.0564900" lon="-1.7718800"/>
            <trkpt lat="53.0568800" lon="-1.7720500"/>
            <trkpt lat="53.0571200" lon="-1.7720500"/>
            <trkpt lat="53.0572200" lon="-1.7720800"/>
            <trkpt lat="53.0573900" lon="-1.7721800"/>
            <trkpt lat="53.0575800" lon="-1.7723700"/>
            <trkpt lat="53.0576400" lon="-1.7724100"/>
            <trkpt lat="53.0578700" lon="-1.7726600"/>
            <trkpt lat="53.0581300" lon="-1.7728800"/>
            <trkpt lat="53.0581800" lon="-1.7729500"/>
            <trkpt lat="53.0582000" lon="-1.7730100"/>
            <trkpt lat="53.0582500" lon="-1.7730600"/>
            <trkpt lat="53.0583000" lon="-1.7730900"/>
            <trkpt lat="53.0584300" lon="-1.7732300"/>
            <trkpt lat="53.0585500" lon="-1.7732900"/>
            <trkpt lat="53.0586900" lon="-1.7734200"/>
            <trkpt lat="53.0587300" lon="-1.7734800"/>
            <trkpt lat="53.0587900" lon="-1.7735100"/>
            <trkpt lat="53.0595200" lon="-1.7750900"/>
            <trkpt lat="53.0584100" lon="-1.7741100"/>
            <trkpt lat="53.0567000" lon="-1.7724300"/>
            <trkpt lat="53.0561200" lon="-1.7723800"/>
            <trkpt lat="53.0556700" lon="-1.7729600"/>
            <trkpt lat="53.0557600" lon="-1.7739500"/>
            <trkpt lat="53.0563000" lon="-1.7752300"/>
            <trkpt lat="53.0557300" lon="-1.7739000"/>
            <trkpt lat="53.0556700" lon="-1.7730100"/>
            <trkpt lat="53.0561200" lon="-1.7724800"/>
            <trkpt lat="53.0566600" lon="-1.7724500"/>
            <trkpt lat="53.0594600" lon="-1.7751100"/>
            <trkpt lat="53.0592300" lon="-1.7759200"/>
            <trkpt lat="53.0591700" lon="-1.7760400"/>
            <trkpt lat="53.0590700" lon="-1.7761800"/>
            <trkpt lat="53.0589100" lon="-1.7763200"/>
            <trkpt lat="53.0587800" lon="-1.7764800"/>
            <trkpt lat="53.0587300" lon="-1.7765100"/>
            <trkpt lat="53.0587000" lon="-1.7765800"/>
            <trkpt lat="53.0586200" lon="-1.7766500"/>
            <trkpt lat="53.0585700" lon="-1.7766500"/>
            <trkpt lat="53.0585800" lon="-1.7766800"/>
            <trkpt lat="53.0583600" lon="-1.7769100"/>
            <trkpt lat="53.0580800" lon="-1.7777000"/>
            <trkpt lat="53.0580400" lon="-1.7777600"/>
            <trkpt lat="53.0579400" lon="-1.7780500"/>
            <trkpt lat="53.0578200" lon="-1.7787300"/>
            <trkpt lat="53.0578200" lon="-1.7788300"/>
            <trkpt lat="53.0577500" lon="-1.7791600"/>
            <trkpt lat="53.0576700" lon="-1.7793700"/>
            <trkpt lat="53.0575700" lon="-1.7795600"/>
            <trkpt lat="53.0575500" lon="-1.7796400"/>
            <trkpt lat="53.0575100" lon="-1.7796900"/>
            <trkpt lat="53.0574900" lon="-1.7797700"/>
            <trkpt lat="53.0574500" lon="-1.7798300"/>
            <trkpt lat="53.0574300" lon="-1.7799000"/>
            <trkpt lat="53.0573900" lon="-1.7799600"/>
            <trkpt lat="53.0573700" lon="-1.7800300"/>
            <trkpt lat="53.0572700" lon="-1.7802200"/>
            <trkpt lat="53.0571500" lon="-1.7805800"/>
            <trkpt lat="53.0570800" lon="-1.7807100"/>
            <trkpt lat="53.0570600" lon="-1.7807900"/>
            <trkpt lat="53.0570200" lon="-1.7808500"/>
            <trkpt lat="53.0570000" lon="-1.7809200"/>
            <trkpt lat="53.0568600" lon="-1.7811600"/>
            <trkpt lat="53.0568100" lon="-1.7812000"/>
            <trkpt lat="53.0566400" lon="-1.7815100"/>
            <trkpt lat="53.0566000" lon="-1.7815600"/>
            <trkpt lat="53.0565500" lon="-1.7815700"/>
            <trkpt lat="53.0563400" lon="-1.7814600"/>
            <trkpt lat="53.0560100" lon="-1.7815500"/>
            <trkpt lat="53.0558500" lon="-1.7816200"/>
            <trkpt lat="53.0557400" lon="-1.7816400"/>
            <trkpt lat="53.0556300" lon="-1.7816300"/>
            <trkpt lat="53.0554700" lon="-1.7816700"/>
            <trkpt lat="53.0553600" lon="-1.7817400"/>
            <trkpt lat="53.0552600" lon="-1.7818300"/>
            <trkpt lat="53.0551900" lon="-1.7819500"/>
            <trkpt lat="53.0551700" lon="-1.7820300"/>
            <trkpt lat="53.0551300" lon="-1.7820900"/>
            <trkpt lat="53.0551100" lon="-1.7821600"/>
            <trkpt lat="53.0549300" lon="-1.7824500"/>
            <trkpt lat="53.0549100" lon="-1.7825300"/>
            <trkpt lat="53.0547900" lon="-1.7827900"/>
            <trkpt lat="53.0546500" lon="-1.7829300"/>
            <trkpt lat="53.0544300" lon="-1.7829700"/>
            <trkpt lat="53.0543300" lon="-1.7830500"/>
            <trkpt lat="53.0542500" lon="-1.7832500"/>
            <trkpt lat="53.0540700" lon="-1.7835500"/>
            <trkpt lat="53.0539600" lon="-1.7838200"/>
            <trkpt lat="53.0537800" lon="-1.7841200"/>
            <trkpt lat="53.0537300" lon="-1.7841300"/>
            <trkpt lat="53.0535700" lon="-1.7839800"/>
            <trkpt lat="53.0533600" lon="-1.7839200"/>
            <trkpt lat="53.0533100" lon="-1.7839500"/>
            <trkpt lat="53.0530900" lon="-1.7840100"/>
            <trkpt lat="53.0528800" lon="-1.7839800"/>
            <trkpt lat="53.0528200" lon="-1.7839400"/>
            <trkpt lat="53.0527700" lon="-1.7838700"/>
            <trkpt lat="53.0526800" lon="-1.7836500"/>
            <trkpt lat="53.0526300" lon="-1.7835800"/>
            <trkpt lat="53.0525800" lon="-1.7835400"/>
            <trkpt lat="53.0523100" lon="-1.7835100"/>
            <trkpt lat="53.0521500" lon="-1.7834300"/>
            <trkpt lat="53.0516900" lon="-1.7830000"/>
            <trkpt lat="53.0515900" lon="-1.7830000"/>
            <trkpt lat="53.0514900" lon="-1.7830500"/>
            <trkpt lat="53.0514300" lon="-1.7830300"/>
            <trkpt lat="53.0514000" lon="-1.7829600"/>
            <trkpt lat="53.0513600" lon="-1.7825300"/>
            <trkpt lat="53.0513400" lon="-1.7824700"/>
            <trkpt lat="53.0513000" lon="-1.7824100"/>
            <trkpt lat="53.0512000" lon="-1.7823900"/>
            <trkpt lat="53.0511600" lon="-1.7824100"/>
            <trkpt lat="53.0509700" lon="-1.7824100"/>
            <trkpt lat="53.0508500" lon="-1.7823400"/>
            <trkpt lat="53.0506900" lon="-1.7823400"/>
            <trkpt lat="53.0505200" lon="-1.7824100"/>
            <trkpt lat="53.0504800" lon="-1.7824100"/>
            <trkpt lat="53.0504400" lon="-1.7823600"/>
            <trkpt lat="53.0504200" lon="-1.7821700"/>
            <trkpt lat="53.0504000" lon="-1.7820900"/>
            <trkpt lat="53.0503600" lon="-1.7820400"/>
            <trkpt lat="53.0502600" lon="-1.7820100"/>
            <trkpt lat="53.0497500" lon="-1.7820000"/>
            <trkpt lat="53.0495900" lon="-1.7820800"/>
            <trkpt lat="53.0493700" lon="-1.7820800"/>
            <trkpt lat="53.0492600" lon="-1.7820100"/>
            <trkpt lat="53.0490100" lon="-1.7817800"/>
            <trkpt lat="53.0489100" lon="-1.7816500"/>
            <trkpt lat="53.0486800" lon="-1.7812000"/>
            <trkpt lat="53.0486700" lon="-1.7811200"/>
            <trkpt lat="53.0486400" lon="-1.7810400"/>
            <trkpt lat="53.0485700" lon="-1.7809300"/>
            <trkpt lat="53.0485200" lon="-1.7808800"/>
            <trkpt lat="53.0482700" lon="-1.7808200"/>
            <trkpt lat="53.0481600" lon="-1.7807400"/>
            <trkpt lat="53.0480600" lon="-1.7805700"/>
            <trkpt lat="53.0478200" lon="-1.7803600"/>
            <trkpt lat="53.0477700" lon="-1.7803500"/>
            <trkpt lat="53.0477100" lon="-1.7803000"/>
            <trkpt lat="53.0476900" lon="-1.7802500"/>
            <trkpt lat="53.0475400" lon="-1.7801100"/>
            <trkpt lat="53.0474400" lon="-1.7799800"/>
            <trkpt lat="53.0472800" lon="-1.7798500"/>
            <trkpt lat="53.0471800" lon="-1.7798000"/>
            <trkpt lat="53.0470800" lon="-1.7797100"/>
            <trkpt lat="53.0470200" lon="-1.7796800"/>
            <trkpt lat="53.0469700" lon="-1.7796200"/>
            <trkpt lat="53.0467600" lon="-1.7795400"/>
            <trkpt lat="53.0466100" lon="-1.7794400"/>
            <trkpt lat="53.0464500" lon="-1.7793600"/>
            <trkpt lat="53.0463900" lon="-1.7793600"/>
            <trkpt lat="53.0462400" lon="-1.7793000"/>
            <trkpt lat="53.0461800" lon="-1.7793000"/>
            <trkpt lat="53.0459700" lon="-1.7792200"/>
            <trkpt lat="53.0458700" lon="-1.7791700"/>
            <trkpt lat="53.0457100" lon="-1.7790500"/>
            <trkpt lat="53.0456600" lon="-1.7789900"/>
            <trkpt lat="53.0455000" lon="-1.7789500"/>
            <trkpt lat="53.0452900" lon="-1.7788500"/>
            <trkpt lat="53.0451400" lon="-1.7787100"/>
            <trkpt lat="53.0450400" lon="-1.7785900"/>
            <trkpt lat="53.0449100" lon="-1.7783800"/>
            <trkpt lat="53.0448800" lon="-1.7783000"/>
            <trkpt lat="53.0448400" lon="-1.7782500"/>
            <trkpt lat="53.0446800" lon="-1.7782100"/>
            <trkpt lat="53.0444700" lon="-1.7781100"/>
            <trkpt lat="53.0443200" lon="-1.7779800"/>
            <trkpt lat="53.0442300" lon="-1.7778400"/>
            <trkpt lat="53.0441700" lon="-1.7775900"/>
            <trkpt lat="53.0441300" lon="-1.7773300"/>
            <trkpt lat="53.0442100" lon="-1.7770000"/>
            <trkpt lat="53.0442100" lon="-1.7768000"/>
            <trkpt lat="53.0442500" lon="-1.7762200"/>
            <trkpt lat="53.0442300" lon="-1.7759400"/>
            <trkpt lat="53.0441900" lon="-1.7757700"/>
            <trkpt lat="53.0441800" lon="-1.7755900"/>
            <trkpt lat="53.0441600" lon="-1.7755100"/>
            <trkpt lat="53.0441400" lon="-1.7750400"/>
            <trkpt lat="53.0441600" lon="-1.7748500"/>
            <trkpt lat="53.0441900" lon="-1.7741600"/>
            <trkpt lat="53.0442500" lon="-1.7738200"/>
            <trkpt lat="53.0442800" lon="-1.7737500"/>
            <trkpt lat="53.0442900" lon="-1.7736600"/>
            <trkpt lat="53.0443600" lon="-1.7734300"/>
            <trkpt lat="53.0444300" lon="-1.7731100"/>
            <trkpt lat="53.0444800" lon="-1.7727500"/>
            <trkpt lat="53.0444800" lon="-1.7725600"/>
            <trkpt lat="53.0444500" lon="-1.7722000"/>
            <trkpt lat="53.0445200" lon="-1.7709200"/>
            <trkpt lat="53.0445200" lon="-1.7707300"/>
            <trkpt lat="53.0444900" lon="-1.7703700"/>
            <trkpt lat="53.0445100" lon="-1.7700800"/>
            <trkpt lat="53.0444700" lon="-1.7694400"/>
            <trkpt lat="53.0444300" lon="-1.7691800"/>
            <trkpt lat="53.0442400" lon="-1.7682500"/>
            <trkpt lat="53.0441500" lon="-1.7680100"/>
            <trkpt lat="53.0439200" lon="-1.7675900"/>
            <trkpt lat="53.0438300" lon="-1.7673500"/>
            <trkpt lat="53.0437900" lon="-1.7672800"/>
            <trkpt lat="53.0437400" lon="-1.7672400"/>
            <trkpt lat="53.0435800" lon="-1.7672000"/>
            <trkpt lat="53.0431100" lon="-1.7669700"/>
            <trkpt lat="53.0429500" lon="-1.7669100"/>
            <trkpt lat="53.0427000" lon="-1.7666300"/>
            <trkpt lat="53.0425900" lon="-1.7665400"/>
            <trkpt lat="53.0423300" lon="-1.7664000"/>
            <trkpt lat="53.0420700" lon="-1.7661900"/>
            <trkpt lat="53.0418700" lon="-1.7660700"/>
            <trkpt lat="53.0417100" lon="-1.7660000"/>
            <trkpt lat="53.0413900" lon="-1.7659600"/>
            <trkpt lat="53.0413400" lon="-1.7659000"/>
            <trkpt lat="53.0411800" lon="-1.7658000"/>
            <trkpt lat="53.0411400" lon="-1.7657500"/>
            <trkpt lat="53.0409500" lon="-1.7652000"/>
            <trkpt lat="53.0408900" lon="-1.7648600"/>
            <trkpt lat="53.0407000" lon="-1.7645000"/>
            <trkpt lat="53.0406700" lon="-1.7644200"/>
            <trkpt lat="53.0406200" lon="-1.7643600"/>
            <trkpt lat="53.0405800" lon="-1.7642000"/>
            <trkpt lat="53.0404300" lon="-1.7638100"/>
            <trkpt lat="53.0404200" lon="-1.7637200"/>
            <trkpt lat="53.0403700" lon="-1.7635600"/>
            <trkpt lat="53.0403200" lon="-1.7635000"/>
            <trkpt lat="53.0402900" lon="-1.7634200"/>
            <trkpt lat="53.0402100" lon="-1.7632800"/>
            <trkpt lat="53.0400200" lon="-1.7627300"/>
            <trkpt lat="53.0399800" lon="-1.7626600"/>
            <trkpt lat="53.0397300" lon="-1.7620500"/>
            <trkpt lat="53.0395900" lon="-1.7617500"/>
            <trkpt lat="53.0395100" lon="-1.7615200"/>
            <trkpt lat="53.0393800" lon="-1.7609300"/>
            <trkpt lat="53.0393000" lon="-1.7606900"/>
            <trkpt lat="53.0392900" lon="-1.7606100"/>
            <trkpt lat="53.0392100" lon="-1.7603700"/>
            <trkpt lat="53.0392000" lon="-1.7602800"/>
            <trkpt lat="53.0391700" lon="-1.7602100"/>
            <trkpt lat="53.0391500" lon="-1.7601200"/>
            <trkpt lat="53.0391000" lon="-1.7600600"/>
            <trkpt lat="53.0388600" lon="-1.7596300"/>
            <trkpt lat="53.0386600" lon="-1.7594500"/>
            <trkpt lat="53.0384000" lon="-1.7592900"/>
            <trkpt lat="53.0381900" lon="-1.7591100"/>
            <trkpt lat="53.0381400" lon="-1.7590500"/>
            <trkpt lat="53.0379800" lon="-1.7590000"/>
            <trkpt lat="53.0378300" lon="-1.7588600"/>
            <trkpt lat="53.0377800" lon="-1.7588700"/>
            <trkpt lat="53.0376700" lon="-1.7588500"/>
            <trkpt lat="53.0374600" lon="-1.7587500"/>
            <trkpt lat="53.0373500" lon="-1.7587200"/>
            <trkpt lat="53.0368200" lon="-1.7586900"/>
            <trkpt lat="53.0367600" lon="-1.7586600"/>
            <trkpt lat="53.0365500" lon="-1.7586200"/>
            <trkpt lat="53.0359000" lon="-1.7588100"/>
            <trkpt lat="53.0356800" lon="-1.7588400"/>
            <trkpt lat="53.0355700" lon="-1.7588300"/>
            <trkpt lat="53.0355200" lon="-1.7588500"/>
            <trkpt lat="53.0354100" lon="-1.7588300"/>
            <trkpt lat="53.0353600" lon="-1.7588500"/>
            <trkpt lat="53.0352000" lon="-1.7588500"/>
            <trkpt lat="53.0349800" lon="-1.7589300"/>
            <trkpt lat="53.0347600" lon="-1.7589800"/>
            <trkpt lat="53.0345900" lon="-1.7590800"/>
            <trkpt lat="53.0344300" lon="-1.7591300"/>
            <trkpt lat="53.0339500" lon="-1.7590800"/>
            <trkpt lat="53.0339000" lon="-1.7590500"/>
            <trkpt lat="53.0335800" lon="-1.7589600"/>
            <trkpt lat="53.0329900" lon="-1.7588900"/>
            <trkpt lat="53.0328900" lon="-1.7587900"/>
            <trkpt lat="53.0326400" lon="-1.7584600"/>
            <trkpt lat="53.0325300" lon="-1.7583400"/>
            <trkpt lat="53.0325000" lon="-1.7582600"/>
            <trkpt lat="53.0323400" lon="-1.7579800"/>
            <trkpt lat="53.0320400" lon="-1.7575900"/>
            <trkpt lat="53.0316400" lon="-1.7568800"/>
            <trkpt lat="53.0315400" lon="-1.7567700"/>
            <trkpt lat="53.0313900" lon="-1.7566400"/>
            <trkpt lat="53.0313300" lon="-1.7566100"/>
            <trkpt lat="53.0312800" lon="-1.7565500"/>
            <trkpt lat="53.0311200" lon="-1.7565100"/>
            <trkpt lat="53.0308000" lon="-1.7565000"/>
            <trkpt lat="53.0304200" lon="-1.7566200"/>
            <trkpt lat="53.0301500" lon="-1.7566200"/>
            <trkpt lat="53.0301000" lon="-1.7565800"/>
            <trkpt lat="53.0298000" lon="-1.7562000"/>
            <trkpt lat="53.0296400" lon="-1.7559100"/>
            <trkpt lat="53.0296100" lon="-1.7558300"/>
            <trkpt lat="53.0295300" lon="-1.7556900"/>
            <trkpt lat="53.0293300" lon="-1.7551500"/>
            <trkpt lat="53.0292600" lon="-1.7549100"/>
            <trkpt lat="53.0292200" lon="-1.7548400"/>
            <trkpt lat="53.0291700" lon="-1.7548000"/>
            <trkpt lat="53.0290600" lon="-1.7547700"/>
            <trkpt lat="53.0286300" lon="-1.7548900"/>
            <trkpt lat="53.0285900" lon="-1.7548400"/>
            <trkpt lat="53.0285400" lon="-1.7547500"/>
            <trkpt lat="53.0285100" lon="-1.7546000"/>
            <trkpt lat="53.0285100" lon="-1.7545100"/>
            <trkpt lat="53.0284700" lon="-1.7543400"/>
            <trkpt lat="53.0284700" lon="-1.7542500"/>
            <trkpt lat="53.0284300" lon="-1.7540800"/>
            <trkpt lat="53.0284200" lon="-1.7539200"/>
            <trkpt lat="53.0284600" lon="-1.7538700"/>
            <trkpt lat="53.0292200" lon="-1.7534100"/>
            <trkpt lat="53.0292600" lon="-1.7533600"/>
            <trkpt lat="53.0294000" lon="-1.7528000"/>
            <trkpt lat="53.0294500" lon="-1.7526600"/>
            <trkpt lat="53.0299000" lon="-1.7522200"/>
            <trkpt lat="53.0300600" lon="-1.7521600"/>
            <trkpt lat="53.0301600" lon="-1.7521900"/>
            <trkpt lat="53.0302500" lon="-1.7522700"/>
            <trkpt lat="53.0302900" lon="-1.7522700"/>
            <trkpt lat="53.0303900" lon="-1.7521000"/>
            <trkpt lat="53.0305400" lon="-1.7519900"/>
            <trkpt lat="53.0307000" lon="-1.7519200"/>
            <trkpt lat="53.0309300" lon="-1.7517400"/>
            <trkpt lat="53.0311400" lon="-1.7516300"/>
            <trkpt lat="53.0313100" lon="-1.7515100"/>
            <trkpt lat="53.0314200" lon="-1.7514100"/>
            <trkpt lat="53.0315700" lon="-1.7512100"/>
            <trkpt lat="53.0315900" lon="-1.7511500"/>
            <trkpt lat="53.0317300" lon="-1.7510300"/>
            <trkpt lat="53.0320400" lon="-1.7510300"/>
            <trkpt lat="53.0321500" lon="-1.7510000"/>
            <trkpt lat="53.0326800" lon="-1.7510000"/>
            <trkpt lat="53.0328800" lon="-1.7509800"/>
            <trkpt lat="53.0329200" lon="-1.7509500"/>
            <trkpt lat="53.0330200" lon="-1.7509400"/>
            <trkpt lat="53.0331400" lon="-1.7508400"/>
            <trkpt lat="53.0331900" lon="-1.7508200"/>
            <trkpt lat="53.0334000" lon="-1.7508200"/>
            <trkpt lat="53.0335600" lon="-1.7509100"/>
            <trkpt lat="53.0338100" lon="-1.7509100"/>
            <trkpt lat="53.0338700" lon="-1.7509400"/>
            <trkpt lat="53.0339100" lon="-1.7509900"/>
            <trkpt lat="53.0339700" lon="-1.7510300"/>
            <trkpt lat="53.0340800" lon="-1.7511900"/>
            <trkpt lat="53.0341200" lon="-1.7512400"/>
            <trkpt lat="53.0341800" lon="-1.7512800"/>
            <trkpt lat="53.0342100" lon="-1.7513400"/>
            <trkpt lat="53.0342500" lon="-1.7513800"/>
            <trkpt lat="53.0343000" lon="-1.7514100"/>
            <trkpt lat="53.0345700" lon="-1.7514700"/>
            <trkpt lat="53.0346500" lon="-1.7515600"/>
            <trkpt lat="53.0348200" lon="-1.7515500"/>
            <trkpt lat="53.0349100" lon="-1.7515100"/>
            <trkpt lat="53.0350500" lon="-1.7515600"/>
            <trkpt lat="53.0351400" lon="-1.7515500"/>
            <trkpt lat="53.0352200" lon="-1.7514400"/>
            <trkpt lat="53.0352800" lon="-1.7512100"/>
            <trkpt lat="53.0353100" lon="-1.7511500"/>
            <trkpt lat="53.0353300" lon="-1.7510700"/>
            <trkpt lat="53.0353500" lon="-1.7509800"/>
            <trkpt lat="53.0353500" lon="-1.7508200"/>
            <trkpt lat="53.0354300" lon="-1.7503400"/>
            <trkpt lat="53.0354900" lon="-1.7501900"/>
            <trkpt lat="53.0355200" lon="-1.7500100"/>
            <trkpt lat="53.0355700" lon="-1.7499300"/>
            <trkpt lat="53.0357300" lon="-1.7498300"/>
            <trkpt lat="53.0358000" lon="-1.7497400"/>
            <trkpt lat="53.0359300" lon="-1.7495200"/>
            <trkpt lat="53.0361200" lon="-1.7491500"/>
            <trkpt lat="53.0363100" lon="-1.7488700"/>
            <trkpt lat="53.0364000" lon="-1.7487000"/>
            <trkpt lat="53.0364500" lon="-1.7486500"/>
            <trkpt lat="53.0364800" lon="-1.7485800"/>
            <trkpt lat="53.0365300" lon="-1.7485200"/>
            <trkpt lat="53.0366000" lon="-1.7483900"/>
            <trkpt lat="53.0368600" lon="-1.7480900"/>
            <trkpt lat="53.0369600" lon="-1.7480800"/>
            <trkpt lat="53.0373100" lon="-1.7482900"/>
            <trkpt lat="53.0375200" lon="-1.7483100"/>
            <trkpt lat="53.0375800" lon="-1.7482900"/>
            <trkpt lat="53.0378500" lon="-1.7480300"/>
            <trkpt lat="53.0379500" lon="-1.7480100"/>
            <trkpt lat="53.0380000" lon="-1.7480500"/>
            <trkpt lat="53.0380700" lon="-1.7482500"/>
            <trkpt lat="53.0381500" lon="-1.7483400"/>
            <trkpt lat="53.0381900" lon="-1.7483400"/>
            <trkpt lat="53.0384800" lon="-1.7481300"/>
            <trkpt lat="53.0386400" lon="-1.7481100"/>
            <trkpt lat="53.0388500" lon="-1.7480500"/>
            <trkpt lat="53.0391600" lon="-1.7480300"/>
            <trkpt lat="53.0391600" lon="-1.7480100"/>
            <trkpt lat="53.0391900" lon="-1.7480000"/>
            <trkpt lat="53.0395200" lon="-1.7479400"/>
            <trkpt lat="53.0397900" lon="-1.7478700"/>
            <trkpt lat="53.0398500" lon="-1.7478300"/>
            <trkpt lat="53.0400600" lon="-1.7477800"/>
            <trkpt lat="53.0402300" lon="-1.7477500"/>
            <trkpt lat="53.0403300" lon="-1.7477700"/>
            <trkpt lat="53.0405000" lon="-1.7477200"/>
            <trkpt lat="53.0406600" lon="-1.7476200"/>
            <trkpt lat="53.0407700" lon="-1.7475800"/>
            <trkpt lat="53.0408800" lon="-1.7476100"/>
            <trkpt lat="53.0409200" lon="-1.7476600"/>
            <trkpt lat="53.0411500" lon="-1.7482800"/>
            <trkpt lat="53.0412500" lon="-1.7486000"/>
            <trkpt lat="53.0413500" lon="-1.7491100"/>
            <trkpt lat="53.0413800" lon="-1.7491800"/>
            <trkpt lat="53.0414400" lon="-1.7494300"/>
            <trkpt lat="53.0415200" lon="-1.7496700"/>
            <trkpt lat="53.0415300" lon="-1.7497600"/>
            <trkpt lat="53.0416100" lon="-1.7500000"/>
            <trkpt lat="53.0417000" lon="-1.7504100"/>
            <trkpt lat="53.0419700" lon="-1.7512000"/>
            <trkpt lat="53.0421900" lon="-1.7517300"/>
            <trkpt lat="53.0422600" lon="-1.7518800"/>
            <trkpt lat="53.0426200" lon="-1.7525200"/>
            <trkpt lat="53.0434200" lon="-1.7535500"/>
            <trkpt lat="53.0438300" lon="-1.7539100"/>
            <trkpt lat="53.0439400" lon="-1.7539800"/>
            <trkpt lat="53.0440400" lon="-1.7540700"/>
            <trkpt lat="53.0441500" lon="-1.7541200"/>
            <trkpt lat="53.0443000" lon="-1.7542100"/>
            <trkpt lat="53.0443500" lon="-1.7542600"/>
            <trkpt lat="53.0444100" lon="-1.7542800"/>
            <trkpt lat="53.0445600" lon="-1.7543800"/>
            <trkpt lat="53.0446200" lon="-1.7544000"/>
            <trkpt lat="53.0446700" lon="-1.7544500"/>
            <trkpt lat="53.0449300" lon="-1.7545900"/>
            <trkpt lat="53.0449800" lon="-1.7546400"/>
            <trkpt lat="53.0455600" lon="-1.7549100"/>
            <trkpt lat="53.0457100" lon="-1.7550100"/>
            <trkpt lat="53.0462400" lon="-1.7552400"/>
            <trkpt lat="53.0464500" lon="-1.7553000"/>
            <trkpt lat="53.0467200" lon="-1.7553300"/>
            <trkpt lat="53.0468800" lon="-1.7553700"/>
            <trkpt lat="53.0473600" lon="-1.7553800"/>
            <trkpt lat="53.0474700" lon="-1.7553500"/>
            <trkpt lat="53.0475200" lon="-1.7553600"/>
            <trkpt lat="53.0476900" lon="-1.7553100"/>
            <trkpt lat="53.0477900" lon="-1.7553100"/>
            <trkpt lat="53.0481800" lon="-1.7552100"/>
            <trkpt lat="53.0484500" lon="-1.7550600"/>
            <trkpt lat="53.0487200" lon="-1.7549900"/>
            <trkpt lat="53.0488800" lon="-1.7548800"/>
            <trkpt lat="53.0490600" lon="-1.7546900"/>
            <trkpt lat="53.0491200" lon="-1.7546600"/>
            <trkpt lat="53.0493400" lon="-1.7544200"/>
            <trkpt lat="53.0498900" lon="-1.7538700"/>
            <trkpt lat="53.0500000" lon="-1.7537000"/>
            <trkpt lat="53.0500900" lon="-1.7536000"/>
            <trkpt lat="53.0505100" lon="-1.7528800"/>
            <trkpt lat="53.0506900" lon="-1.7524900"/>
            <trkpt lat="53.0507300" lon="-1.7524300"/>
            <trkpt lat="53.0507500" lon="-1.7523600"/>
            <trkpt lat="53.0507900" lon="-1.7523000"/>
            <trkpt lat="53.0508100" lon="-1.7522200"/>
            <trkpt lat="53.0508500" lon="-1.7521700"/>
            <trkpt lat="53.0509700" lon="-1.7518000"/>
            <trkpt lat="53.0510600" lon="-1.7516000"/>
            <trkpt lat="53.0512100" lon="-1.7511700"/>
            <trkpt lat="53.0512600" lon="-1.7510200"/>
            <trkpt lat="53.0512700" lon="-1.7509400"/>
            <trkpt lat="53.0513800" lon="-1.7506500"/>
            <trkpt lat="53.0515200" lon="-1.7501800"/>
            <trkpt lat="53.0517700" lon="-1.7494800"/>
            <trkpt lat="53.0517800" lon="-1.7493900"/>
            <trkpt lat="53.0520900" lon="-1.7485300"/>
            <trkpt lat="53.0521000" lon="-1.7484400"/>
            <trkpt lat="53.0522000" lon="-1.7481500"/>
            <trkpt lat="53.0522400" lon="-1.7480900"/>
            <trkpt lat="53.0522600" lon="-1.7480200"/>
            <trkpt lat="53.0523000" lon="-1.7479600"/>
            <trkpt lat="53.0523200" lon="-1.7478900"/>
            <trkpt lat="53.0523600" lon="-1.7478300"/>
            <trkpt lat="53.0523800" lon="-1.7477600"/>
            <trkpt lat="53.0524200" lon="-1.7477000"/>
            <trkpt lat="53.0524400" lon="-1.7476300"/>
            <trkpt lat="53.0524800" lon="-1.7475700"/>
            <trkpt lat="53.0525000" lon="-1.7475000"/>
            <trkpt lat="53.0525400" lon="-1.7474400"/>
            <trkpt lat="53.0528400" lon="-1.7467800"/>
            <trkpt lat="53.0530200" lon="-1.7464800"/>
            <trkpt lat="53.0530400" lon="-1.7464100"/>
            <trkpt lat="53.0531100" lon="-1.7462900"/>
            <trkpt lat="53.0532700" lon="-1.7460700"/>
            <trkpt lat="53.0534400" lon="-1.7457700"/>
            <trkpt lat="53.0535900" lon="-1.7455400"/>
            <trkpt lat="53.0536400" lon="-1.7455000"/>
            <trkpt lat="53.0537100" lon="-1.7453800"/>
            <trkpt lat="53.0539300" lon="-1.7451300"/>
            <trkpt lat="53.0539600" lon="-1.7450700"/>
            <trkpt lat="53.0540900" lon="-1.7449200"/>
            <trkpt lat="53.0541200" lon="-1.7448600"/>
            <trkpt lat="53.0541700" lon="-1.7448200"/>
            <trkpt lat="53.0542600" lon="-1.7447200"/>
            <trkpt lat="53.0542900" lon="-1.7446600"/>
            <trkpt lat="53.0544300" lon="-1.7445200"/>
            <trkpt lat="53.0545800" lon="-1.7444000"/>
            <trkpt lat="53.0547600" lon="-1.7442100"/>
            <trkpt lat="53.0549200" lon="-1.7441100"/>
            <trkpt lat="53.0551500" lon="-1.7438800"/>
            <trkpt lat="53.0557600" lon="-1.7435100"/>
            <trkpt lat="53.0558700" lon="-1.7434600"/>
            <trkpt lat="53.0560900" lon="-1.7434100"/>
            <trkpt lat="53.0565300" lon="-1.7431400"/>
            <trkpt lat="53.0568000" lon="-1.7430700"/>
            <trkpt lat="53.0574100" lon="-1.7427000"/>
            <trkpt lat="53.0576900" lon="-1.7426300"/>
            <trkpt lat="53.0579100" lon="-1.7424900"/>
            <trkpt lat="53.0581300" lon="-1.7424400"/>
            <trkpt lat="53.0583500" lon="-1.7423200"/>
            <trkpt lat="53.0590600" lon="-1.7421400"/>
            <trkpt lat="53.0598100" lon="-1.7421400"/>
            <trkpt lat="53.0598600" lon="-1.7421200"/>
            <trkpt lat="53.0599700" lon="-1.7421400"/>
            <trkpt lat="53.0600200" lon="-1.7421200"/>
            <trkpt lat="53.0602400" lon="-1.7421200"/>
            <trkpt lat="53.0605600" lon="-1.7421600"/>
            <trkpt lat="53.0606100" lon="-1.7421400"/>
            <trkpt lat="53.0607200" lon="-1.7421600"/>
            <trkpt lat="53.0607700" lon="-1.7421400"/>
            <trkpt lat="53.0612000" lon="-1.7421500"/>
            <trkpt lat="53.0614800" lon="-1.7421000"/>
            <trkpt lat="53.0621300" lon="-1.7419100"/>
            <trkpt lat="53.0623000" lon="-1.7418300"/>
            <trkpt lat="53.0624900" lon="-1.7417100"/>
            <trkpt lat="53.0628300" lon="-1.7414300"/>
            <trkpt lat="53.0628800" lon="-1.7414200"/>
            <trkpt lat="53.0629300" lon="-1.7413600"/>
            <trkpt lat="53.0630400" lon="-1.7412900"/>
            <trkpt lat="53.0631400" lon="-1.7411800"/>
            <trkpt lat="53.0632700" lon="-1.7410700"/>
            <trkpt lat="53.0634300" lon="-1.7408700"/>
            <trkpt lat="53.0636500" lon="-1.7406300"/>
            <trkpt lat="53.0637600" lon="-1.7404800"/>
            <trkpt lat="53.0638400" lon="-1.7403400"/>
            <trkpt lat="53.0639700" lon="-1.7402000"/>
            <trkpt lat="53.0640200" lon="-1.7401700"/>
            <trkpt lat="53.0641200" lon="-1.7401300"/>
            <trkpt lat="53.0642200" lon="-1.7401500"/>
            <trkpt lat="53.0645200" lon="-1.7401500"/>
            <trkpt lat="53.0647100" lon="-1.7401100"/>
            <trkpt lat="53.0647700" lon="-1.7400800"/>
            <trkpt lat="53.0648200" lon="-1.7401000"/>
            <trkpt lat="53.0649700" lon="-1.7401100"/>
            <trkpt lat="53.0652900" lon="-1.7401100"/>
            <trkpt lat="53.0655400" lon="-1.7399800"/>
            <trkpt lat="53.0656400" lon="-1.7399900"/>
            <trkpt lat="53.0656800" lon="-1.7400200"/>
            <trkpt lat="53.0658300" lon="-1.7400600"/>
            <trkpt lat="53.0660600" lon="-1.7400800"/>
            <trkpt lat="53.0661700" lon="-1.7400700"/>
            <trkpt lat="53.0663400" lon="-1.7399700"/>
            <trkpt lat="53.0665300" lon="-1.7397300"/>
            <trkpt lat="53.0665800" lon="-1.7396900"/>
            <trkpt lat="53.0667100" lon="-1.7395100"/>
            <trkpt lat="53.0667600" lon="-1.7395000"/>
            <trkpt lat="53.0667900" lon="-1.7395500"/>
            <trkpt lat="53.0668000" lon="-1.7399500"/>
            <trkpt lat="53.0667500" lon="-1.7403100"/>
            <trkpt lat="53.0666300" lon="-1.7406800"/>
            <trkpt lat="53.0666200" lon="-1.7407700"/>
            <trkpt lat="53.0665200" lon="-1.7410600"/>
            <trkpt lat="53.0664800" lon="-1.7411100"/>
            <trkpt lat="53.0663600" lon="-1.7413800"/>
            <trkpt lat="53.0662500" lon="-1.7415600"/>
            <trkpt lat="53.0661200" lon="-1.7417000"/>
            <trkpt lat="53.0658400" lon="-1.7418600"/>
            <trkpt lat="53.0649300" lon="-1.7427900"/>
            <trkpt lat="53.0646300" lon="-1.7431300"/>
            <trkpt lat="53.0644700" lon="-1.7433600"/>
            <trkpt lat="53.0643700" lon="-1.7435300"/>
            <trkpt lat="53.0643100" lon="-1.7436700"/>
            <trkpt lat="53.0641300" lon="-1.7439600"/>
            <trkpt lat="53.0641100" lon="-1.7440400"/>
            <trkpt lat="53.0640700" lon="-1.7440900"/>
            <trkpt lat="53.0640500" lon="-1.7441700"/>
            <trkpt lat="53.0638300" lon="-1.7445200"/>
            <trkpt lat="53.0638100" lon="-1.7446000"/>
            <trkpt lat="53.0637700" lon="-1.7446500"/>
            <trkpt lat="53.0637500" lon="-1.7447300"/>
            <trkpt lat="53.0637100" lon="-1.7447900"/>
            <trkpt lat="53.0636900" lon="-1.7448600"/>
            <trkpt lat="53.0636500" lon="-1.7449200"/>
            <trkpt lat="53.0636300" lon="-1.7449900"/>
            <trkpt lat="53.0635300" lon="-1.7451800"/>
            <trkpt lat="53.0634100" lon="-1.7455400"/>
            <trkpt lat="53.0633400" lon="-1.7456700"/>
            <trkpt lat="53.0633200" lon="-1.7457500"/>
            <trkpt lat="53.0632800" lon="-1.7458100"/>
            <trkpt lat="53.0632000" lon="-1.7460100"/>
            <trkpt lat="53.0631600" lon="-1.7460700"/>
            <trkpt lat="53.0630400" lon="-1.7464300"/>
            <trkpt lat="53.0629800" lon="-1.7465700"/>
            <trkpt lat="53.0629200" lon="-1.7469000"/>
            <trkpt lat="53.0628700" lon="-1.7470500"/>
            <trkpt lat="53.0628400" lon="-1.7472200"/>
            <trkpt lat="53.0628100" lon="-1.7472900"/>
            <trkpt lat="53.0627700" lon="-1.7475500"/>
            <trkpt lat="53.0627400" lon="-1.7476200"/>
            <trkpt lat="53.0627100" lon="-1.7477900"/>
            <trkpt lat="53.0626800" lon="-1.7478600"/>
            <trkpt lat="53.0626300" lon="-1.7481000"/>
            <trkpt lat="53.0626000" lon="-1.7481700"/>
            <trkpt lat="53.0625600" lon="-1.7484300"/>
            <trkpt lat="53.0625300" lon="-1.7485000"/>
            <trkpt lat="53.0624900" lon="-1.7487600"/>
            <trkpt lat="53.0624600" lon="-1.7488300"/>
            <trkpt lat="53.0624200" lon="-1.7490900"/>
            <trkpt lat="53.0623900" lon="-1.7491600"/>
            <trkpt lat="53.0623600" lon="-1.7493300"/>
            <trkpt lat="53.0622600" lon="-1.7496200"/>
            <trkpt lat="53.0620800" lon="-1.7500100"/>
            <trkpt lat="53.0620400" lon="-1.7500700"/>
            <trkpt lat="53.0620200" lon="-1.7501400"/>
            <trkpt lat="53.0616500" lon="-1.7504000"/>
            <trkpt lat="53.0615600" lon="-1.7505000"/>
            <trkpt lat="53.0614900" lon="-1.7506200"/>
            <trkpt lat="53.0614000" lon="-1.7507100"/>
            <trkpt lat="53.0613200" lon="-1.7508200"/>
            <trkpt lat="53.0610000" lon="-1.7511400"/>
            <trkpt lat="53.0609700" lon="-1.7512000"/>
            <trkpt lat="53.0608600" lon="-1.7513000"/>
            <trkpt lat="53.0604000" lon="-1.7518600"/>
            <trkpt lat="53.0603500" lon="-1.7519000"/>
            <trkpt lat="53.0602600" lon="-1.7520300"/>
            <trkpt lat="53.0601600" lon="-1.7521400"/>
            <trkpt lat="53.0599200" lon="-1.7525200"/>
            <trkpt lat="53.0597600" lon="-1.7529600"/>
            <trkpt lat="53.0595300" lon="-1.7531600"/>
            <trkpt lat="53.0595000" lon="-1.7532200"/>
            <trkpt lat="53.0594200" lon="-1.7533200"/>
            <trkpt lat="53.0590800" lon="-1.7536200"/>
            <trkpt lat="53.0589900" lon="-1.7537200"/>
            <trkpt lat="53.0588000" lon="-1.7539900"/>
            <trkpt lat="53.0583400" lon="-1.7545600"/>
            <trkpt lat="53.0582400" lon="-1.7546300"/>
            <trkpt lat="53.0581700" lon="-1.7547200"/>
            <trkpt lat="53.0570400" lon="-1.7558700"/>
            <trkpt lat="53.0570000" lon="-1.7558800"/>
            <trkpt lat="53.0569200" lon="-1.7559600"/>
            <trkpt lat="53.0565900" lon="-1.7563600"/>
            <trkpt lat="53.0564600" lon="-1.7566300"/>
            <trkpt lat="53.0564100" lon="-1.7567800"/>
            <trkpt lat="53.0563700" lon="-1.7568400"/>
            <trkpt lat="53.0563300" lon="-1.7569700"/>
            <trkpt lat="53.0562800" lon="-1.7570600"/>
            <trkpt lat="53.0562200" lon="-1.7572700"/>
            <trkpt lat="53.0561600" lon="-1.7574100"/>
            <trkpt lat="53.0559100" lon="-1.7578000"/>
            <trkpt lat="53.0558500" lon="-1.7579300"/>
            <trkpt lat="53.0557800" lon="-1.7581700"/>
            <trkpt lat="53.0557100" lon="-1.7583300"/>
            <trkpt lat="53.0556400" lon="-1.7584300"/>
            <trkpt lat="53.0555300" lon="-1.7584600"/>
            <trkpt lat="53.0553700" lon="-1.7584600"/>
            <trkpt lat="53.0551600" lon="-1.7584300"/>
            <trkpt lat="53.0551100" lon="-1.7584400"/>
            <trkpt lat="53.0550100" lon="-1.7585000"/>
            <trkpt lat="53.0549700" lon="-1.7585500"/>
            <trkpt lat="53.0549100" lon="-1.7586800"/>
            <trkpt lat="53.0548200" lon="-1.7589800"/>
            <trkpt lat="53.0547400" lon="-1.7595400"/>
            <trkpt lat="53.0546500" lon="-1.7598700"/>
            <trkpt lat="53.0546100" lon="-1.7601300"/>
            <trkpt lat="53.0545900" lon="-1.7604000"/>
            <trkpt lat="53.0545500" lon="-1.7605800"/>
            <trkpt lat="53.0545300" lon="-1.7607500"/>
            <trkpt lat="53.0545500" lon="-1.7609000"/>
            <trkpt lat="53.0545500" lon="-1.7610600"/>
            <trkpt lat="53.0545100" lon="-1.7612100"/>
            <trkpt lat="53.0543400" lon="-1.7614900"/>
            <trkpt lat="53.0543100" lon="-1.7615600"/>
            <trkpt lat="53.0541900" lon="-1.7616900"/>
            <trkpt lat="53.0539400" lon="-1.7620400"/>
            <trkpt lat="53.0538900" lon="-1.7621700"/>
            <trkpt lat="53.0538200" lon="-1.7623000"/>
            <trkpt lat="53.0537700" lon="-1.7623400"/>
            <trkpt lat="53.0536700" lon="-1.7623800"/>
            <trkpt lat="53.0535700" lon="-1.7624700"/>
            <trkpt lat="53.0534900" lon="-1.7626000"/>
            <trkpt lat="53.0534700" lon="-1.7626600"/>
            <trkpt lat="53.0534600" lon="-1.7628200"/>
            <trkpt lat="53.0534400" lon="-1.7629000"/>
            <trkpt lat="53.0534300" lon="-1.7629000"/>
            <trkpt lat="53.0533100" lon="-1.7631800"/>
            <trkpt lat="53.0528200" lon="-1.7638000"/>
            <trkpt lat="53.0526600" lon="-1.7639700"/>
            <trkpt lat="53.0526100" lon="-1.7639900"/>
            <trkpt lat="53.0525700" lon="-1.7640300"/>
            <trkpt lat="53.0524900" lon="-1.7641200"/>
            <trkpt lat="53.0524500" lon="-1.7641900"/>
            <trkpt lat="53.0523300" lon="-1.7642900"/>
            <trkpt lat="53.0522200" lon="-1.7642800"/>
            <trkpt lat="53.0521000" lon="-1.7642400"/>
            <trkpt lat="53.0519500" lon="-1.7642500"/>
            <trkpt lat="53.0518000" lon="-1.7643300"/>
            <trkpt lat="53.0517500" lon="-1.7643400"/>
            <trkpt lat="53.0517100" lon="-1.7644100"/>
            <trkpt lat="53.0516700" lon="-1.7644400"/>
            <trkpt lat="53.0515800" lon="-1.7646800"/>
            <trkpt lat="53.0514600" lon="-1.7649000"/>
            <trkpt lat="53.0513500" lon="-1.7651700"/>
            <trkpt lat="53.0509800" lon="-1.7658200"/>
            <trkpt lat="53.0508400" lon="-1.7661000"/>
            <trkpt lat="53.0508200" lon="-1.7661700"/>
            <trkpt lat="53.0506700" lon="-1.7664500"/>
            <trkpt lat="53.0505400" lon="-1.7667900"/>
            <trkpt lat="53.0505400" lon="-1.7668900"/>
        </trkseg>
    </trk>
</gpx>
