<?xml version="1.0" encoding="UTF-8" standalone="yes"?>
<gpx version="1.1" creator="OS Maps - Web" xmlns="http://www.topografix.com/GPX/1/1"
xmlns:xsi="http://www.w3.org/2001/XMLSchema-instance"
xsi:schemaLocation="http://www.topografix.com/GPX/1/1 http://www.topografix.com/GPX/1/1/gpx.xsd"
xmlns:gs="http://www.topografix.com/GPX/gpx_style/0/2"
xmlns:gh="https://graphhopper.com/public/schema/gpx/1.1"
xmlns:os="https://ordnancesurvey.co.uk/public/schema/route/0.1">
    <metadata>
        <name>Tissington Hill (Ethel) - Circular (www.thelostpeak.co.uk)</name>
        <desc>www.thelostpeak.co.uk</desc>
        <bounds minlat="53.0481530" minlon="-1.7909620" maxlat="53.0810420" maxlon="-1.7356740"/>
        <extensions>
            <os:version>2.0</os:version>
            <os:point lat="53.0655540" lon="-1.7360940" type="start"/>
            <os:point lat="53.0655540" lon="-1.7360940" type="end"/>
            <os:activity>ON_FOOT_WALKING</os:activity>
            <os:difficulty>MODERATE</os:difficulty>
            <os:paths/>
            <os:distance>15474.0334135</os:distance>
            <os:elevation_ascent>508.9200000</os:elevation_ascent>
        </extensions>
    </metadata>
    <wpt lat="53.0655540" lon="-1.7360940"/>
    <wpt lat="53.0655540" lon="-1.7360940"/>
    <trk>
        <name>Tissington Hill (Ethel) - Circular (www.thelostpeak.co.uk)</name>
        <trkseg>
            <trkpt lat="53.0655540" lon="-1.7360940"/>
            <trkpt lat="53.0655250" lon="-1.7361810"/>
            <trkpt lat="53.0654630" lon="-1.7361290"/>
            <trkpt lat="53.0653360" lon="-1.7365950"/>
            <trkpt lat="53.0653830" lon="-1.7366720"/>
            <trkpt lat="53.0651030" lon="-1.7376130"/>
            <trkpt lat="53.0644510" lon="-1.7394000"/>
            <trkpt lat="53.0640470" lon="-1.7401240"/>
            <trkpt lat="53.0634190" lon="-1.7410050"/>
            <trkpt lat="53.0628520" lon="-1.7415390"/>
            <trkpt lat="53.0620010" lon="-1.7419320"/>
            <trkpt lat="53.0612530" lon="-1.7421210"/>
            <trkpt lat="53.0590800" lon="-1.7422040"/>
            <trkpt lat="53.0581110" lon="-1.7424380"/>
            <trkpt lat="53.0573750" lon="-1.7427460"/>
            <trkpt lat="53.0570700" lon="-1.7429240"/>
            <trkpt lat="53.0567920" lon="-1.7430260"/>
            <trkpt lat="53.0550600" lon="-1.7439020"/>
            <trkpt lat="53.0542070" lon="-1.7447870"/>
            <trkpt lat="53.0539020" lon="-1.7451230"/>
            <trkpt lat="53.0534220" lon="-1.7458130"/>
            <trkpt lat="53.0529790" lon="-1.7465010"/>
            <trkpt lat="53.0525790" lon="-1.7472760"/>
            <trkpt lat="53.0522720" lon="-1.7479610"/>
            <trkpt lat="53.0520890" lon="-1.7484390"/>
            <trkpt lat="53.0508970" lon="-1.7520670"/>
            <trkpt lat="53.0506070" lon="-1.7527140"/>
            <trkpt lat="53.0502430" lon="-1.7533470"/>
            <trkpt lat="53.0500150" lon="-1.7537250"/>
            <trkpt lat="53.0497910" lon="-1.7539870"/>
            <trkpt lat="53.0494240" lon="-1.7543830"/>
            <trkpt lat="53.0489920" lon="-1.7547860"/>
            <trkpt lat="53.0485760" lon="-1.7550770"/>
            <trkpt lat="53.0481790" lon="-1.7552170"/>
            <trkpt lat="53.0481530" lon="-1.7555810"/>
            <trkpt lat="53.0482150" lon="-1.7571770"/>
            <trkpt lat="53.0482510" lon="-1.7574260"/>
            <trkpt lat="53.0484470" lon="-1.7579580"/>
            <trkpt lat="53.0484300" lon="-1.7580230"/>
            <trkpt lat="53.0484620" lon="-1.7591430"/>
            <trkpt lat="53.0485520" lon="-1.7607730"/>
            <trkpt lat="53.0486700" lon="-1.7619280"/>
            <trkpt lat="53.0488420" lon="-1.7631730"/>
            <trkpt lat="53.0488930" lon="-1.7638180"/>
            <trkpt lat="53.0492210" lon="-1.7643440"/>
            <trkpt lat="53.0493760" lon="-1.7647950"/>
            <trkpt lat="53.0495160" lon="-1.7654120"/>
            <trkpt lat="53.0495780" lon="-1.7658420"/>
            <trkpt lat="53.0497080" lon="-1.7660290"/>
            <trkpt lat="53.0499490" lon="-1.7662410"/>
            <trkpt lat="53.0500110" lon="-1.7663350"/>
            <trkpt lat="53.0500830" lon="-1.7666260"/>
            <trkpt lat="53.0504020" lon="-1.7672430"/>
            <trkpt lat="53.0503440" lon="-1.7674560"/>
            <trkpt lat="53.0502960" lon="-1.7677570"/>
            <trkpt lat="53.0500050" lon="-1.7683100"/>
            <trkpt lat="53.0497280" lon="-1.7687160"/>
            <trkpt lat="53.0495740" lon="-1.7688770"/>
            <trkpt lat="53.0492950" lon="-1.7690680"/>
            <trkpt lat="53.0488470" lon="-1.7692990"/>
            <trkpt lat="53.0491290" lon="-1.7701850"/>
            <trkpt lat="53.0492720" lon="-1.7705300"/>
            <trkpt lat="53.0493270" lon="-1.7705630"/>
            <trkpt lat="53.0492850" lon="-1.7706390"/>
            <trkpt lat="53.0492790" lon="-1.7708500"/>
            <trkpt lat="53.0493390" lon="-1.7711130"/>
            <trkpt lat="53.0496910" lon="-1.7721230"/>
            <trkpt lat="53.0498550" lon="-1.7726340"/>
            <trkpt lat="53.0505910" lon="-1.7743520"/>
            <trkpt lat="53.0505280" lon="-1.7746920"/>
            <trkpt lat="53.0505600" lon="-1.7749580"/>
            <trkpt lat="53.0511180" lon="-1.7772130"/>
            <trkpt lat="53.0512870" lon="-1.7783800"/>
            <trkpt lat="53.0516650" lon="-1.7803370"/>
            <trkpt lat="53.0518990" lon="-1.7812270"/>
            <trkpt lat="53.0516380" lon="-1.7815300"/>
            <trkpt lat="53.0514340" lon="-1.7820290"/>
            <trkpt lat="53.0513960" lon="-1.7821830"/>
            <trkpt lat="53.0513660" lon="-1.7826130"/>
            <trkpt lat="53.0513670" lon="-1.7828810"/>
            <trkpt lat="53.0514810" lon="-1.7830440"/>
            <trkpt lat="53.0515330" lon="-1.7830670"/>
            <trkpt lat="53.0517030" lon="-1.7830260"/>
            <trkpt lat="53.0518150" lon="-1.7830700"/>
            <trkpt lat="53.0520180" lon="-1.7832560"/>
            <trkpt lat="53.0526480" lon="-1.7836100"/>
            <trkpt lat="53.0528560" lon="-1.7839860"/>
            <trkpt lat="53.0531020" lon="-1.7839940"/>
            <trkpt lat="53.0532990" lon="-1.7839300"/>
            <trkpt lat="53.0534430" lon="-1.7839410"/>
            <trkpt lat="53.0536300" lon="-1.7840470"/>
            <trkpt lat="53.0537120" lon="-1.7841360"/>
            <trkpt lat="53.0537430" lon="-1.7841320"/>
            <trkpt lat="53.0543460" lon="-1.7830550"/>
            <trkpt lat="53.0546960" lon="-1.7828600"/>
            <trkpt lat="53.0547960" lon="-1.7827310"/>
            <trkpt lat="53.0549660" lon="-1.7823820"/>
            <trkpt lat="53.0552820" lon="-1.7818390"/>
            <trkpt lat="53.0554760" lon="-1.7816980"/>
            <trkpt lat="53.0556390" lon="-1.7816870"/>
            <trkpt lat="53.0563180" lon="-1.7814670"/>
            <trkpt lat="53.0563500" lon="-1.7814240"/>
            <trkpt lat="53.0558420" lon="-1.7805610"/>
            <trkpt lat="53.0557390" lon="-1.7805070"/>
            <trkpt lat="53.0555850" lon="-1.7802760"/>
            <trkpt lat="53.0555330" lon="-1.7801550"/>
            <trkpt lat="53.0555020" lon="-1.7795540"/>
            <trkpt lat="53.0553110" lon="-1.7783490"/>
            <trkpt lat="53.0547360" lon="-1.7763680"/>
            <trkpt lat="53.0546310" lon="-1.7758050"/>
            <trkpt lat="53.0545670" lon="-1.7751940"/>
            <trkpt lat="53.0545620" lon="-1.7745520"/>
            <trkpt lat="53.0544700" lon="-1.7736670"/>
            <trkpt lat="53.0545330" lon="-1.7734070"/>
            <trkpt lat="53.0545800" lon="-1.7730390"/>
            <trkpt lat="53.0545520" lon="-1.7725160"/>
            <trkpt lat="53.0545750" lon="-1.7722750"/>
            <trkpt lat="53.0547360" lon="-1.7719800"/>
            <trkpt lat="53.0547460" lon="-1.7719070"/>
            <trkpt lat="53.0550130" lon="-1.7722550"/>
            <trkpt lat="53.0552160" lon="-1.7727570"/>
            <trkpt lat="53.0552660" lon="-1.7727990"/>
            <trkpt lat="53.0552500" lon="-1.7729880"/>
            <trkpt lat="53.0552970" lon="-1.7733020"/>
            <trkpt lat="53.0553600" lon="-1.7733960"/>
            <trkpt lat="53.0553800" lon="-1.7735180"/>
            <trkpt lat="53.0554760" lon="-1.7737930"/>
            <trkpt lat="53.0554750" lon="-1.7738740"/>
            <trkpt lat="53.0555290" lon="-1.7739780"/>
            <trkpt lat="53.0555390" lon="-1.7740720"/>
            <trkpt lat="53.0555810" lon="-1.7741150"/>
            <trkpt lat="53.0556460" lon="-1.7744190"/>
            <trkpt lat="53.0556730" lon="-1.7744260"/>
            <trkpt lat="53.0556710" lon="-1.7744840"/>
            <trkpt lat="53.0558010" lon="-1.7747780"/>
            <trkpt lat="53.0559190" lon="-1.7748690"/>
            <trkpt lat="53.0558010" lon="-1.7747780"/>
            <trkpt lat="53.0556710" lon="-1.7744840"/>
            <trkpt lat="53.0556730" lon="-1.7744260"/>
            <trkpt lat="53.0556460" lon="-1.7744190"/>
            <trkpt lat="53.0555810" lon="-1.7741150"/>
            <trkpt lat="53.0555390" lon="-1.7740720"/>
            <trkpt lat="53.0555290" lon="-1.7739780"/>
            <trkpt lat="53.0554750" lon="-1.7738740"/>
            <trkpt lat="53.0554760" lon="-1.7737930"/>
            <trkpt lat="53.0553800" lon="-1.7735180"/>
            <trkpt lat="53.0553600" lon="-1.7733960"/>
            <trkpt lat="53.0552970" lon="-1.7733020"/>
            <trkpt lat="53.0552500" lon="-1.7729880"/>
            <trkpt lat="53.0552660" lon="-1.7727990"/>
            <trkpt lat="53.0552160" lon="-1.7727570"/>
            <trkpt lat="53.0550130" lon="-1.7722550"/>
            <trkpt lat="53.0547460" lon="-1.7719070"/>
            <trkpt lat="53.0550510" lon="-1.7716150"/>
            <trkpt lat="53.0551830" lon="-1.7713740"/>
            <trkpt lat="53.0553020" lon="-1.7707520"/>
            <trkpt lat="53.0553510" lon="-1.7703490"/>
            <trkpt lat="53.0554280" lon="-1.7703170"/>
            <trkpt lat="53.0556250" lon="-1.7705900"/>
            <trkpt lat="53.0561240" lon="-1.7714760"/>
            <trkpt lat="53.0565980" lon="-1.7720010"/>
            <trkpt lat="53.0569240" lon="-1.7721140"/>
            <trkpt lat="53.0572330" lon="-1.7721250"/>
            <trkpt lat="53.0576940" lon="-1.7725490"/>
            <trkpt lat="53.0583680" lon="-1.7733100"/>
            <trkpt lat="53.0589450" lon="-1.7738360"/>
            <trkpt lat="53.0593270" lon="-1.7743930"/>
            <trkpt lat="53.0594020" lon="-1.7747520"/>
            <trkpt lat="53.0593610" lon="-1.7749460"/>
            <trkpt lat="53.0593660" lon="-1.7752210"/>
            <trkpt lat="53.0593160" lon="-1.7754860"/>
            <trkpt lat="53.0593730" lon="-1.7754680"/>
            <trkpt lat="53.0595860" lon="-1.7755330"/>
            <trkpt lat="53.0596920" lon="-1.7756470"/>
            <trkpt lat="53.0598810" lon="-1.7759260"/>
            <trkpt lat="53.0599780" lon="-1.7761710"/>
            <trkpt lat="53.0602850" lon="-1.7773610"/>
            <trkpt lat="53.0603950" lon="-1.7775860"/>
            <trkpt lat="53.0605090" lon="-1.7779670"/>
            <trkpt lat="53.0606530" lon="-1.7786060"/>
            <trkpt lat="53.0608870" lon="-1.7803160"/>
            <trkpt lat="53.0609720" lon="-1.7807300"/>
            <trkpt lat="53.0610860" lon="-1.7816960"/>
            <trkpt lat="53.0611530" lon="-1.7820010"/>
            <trkpt lat="53.0612810" lon="-1.7822500"/>
            <trkpt lat="53.0614780" lon="-1.7828490"/>
            <trkpt lat="53.0616390" lon="-1.7832350"/>
            <trkpt lat="53.0617860" lon="-1.7834900"/>
            <trkpt lat="53.0622790" lon="-1.7839700"/>
            <trkpt lat="53.0624190" lon="-1.7841690"/>
            <trkpt lat="53.0626320" lon="-1.7843230"/>
            <trkpt lat="53.0627010" lon="-1.7844370"/>
            <trkpt lat="53.0628540" lon="-1.7845570"/>
            <trkpt lat="53.0629580" lon="-1.7845550"/>
            <trkpt lat="53.0630400" lon="-1.7844980"/>
            <trkpt lat="53.0630740" lon="-1.7844090"/>
            <trkpt lat="53.0634020" lon="-1.7844320"/>
            <trkpt lat="53.0636320" lon="-1.7844100"/>
            <trkpt lat="53.0640350" lon="-1.7842720"/>
            <trkpt lat="53.0642910" lon="-1.7842070"/>
            <trkpt lat="53.0646500" lon="-1.7841990"/>
            <trkpt lat="53.0652900" lon="-1.7840070"/>
            <trkpt lat="53.0657100" lon="-1.7839940"/>
            <trkpt lat="53.0659080" lon="-1.7840750"/>
            <trkpt lat="53.0663450" lon="-1.7840930"/>
            <trkpt lat="53.0664980" lon="-1.7840240"/>
            <trkpt lat="53.0666380" lon="-1.7840290"/>
            <trkpt lat="53.0670370" lon="-1.7842200"/>
            <trkpt lat="53.0671660" lon="-1.7843130"/>
            <trkpt lat="53.0674130" lon="-1.7845750"/>
            <trkpt lat="53.0679610" lon="-1.7848870"/>
            <trkpt lat="53.0680630" lon="-1.7849870"/>
            <trkpt lat="53.0682110" lon="-1.7852260"/>
            <trkpt lat="53.0683850" lon="-1.7853850"/>
            <trkpt lat="53.0687680" lon="-1.7855590"/>
            <trkpt lat="53.0704530" lon="-1.7858230"/>
            <trkpt lat="53.0705240" lon="-1.7858850"/>
            <trkpt lat="53.0709060" lon="-1.7864200"/>
            <trkpt lat="53.0710890" lon="-1.7866370"/>
            <trkpt lat="53.0713800" lon="-1.7868200"/>
            <trkpt lat="53.0718720" lon="-1.7869650"/>
            <trkpt lat="53.0721680" lon="-1.7871240"/>
            <trkpt lat="53.0724750" lon="-1.7873410"/>
            <trkpt lat="53.0725500" lon="-1.7874400"/>
            <trkpt lat="53.0726910" lon="-1.7877250"/>
            <trkpt lat="53.0728230" lon="-1.7878200"/>
            <trkpt lat="53.0730070" lon="-1.7881720"/>
            <trkpt lat="53.0734400" lon="-1.7887400"/>
            <trkpt lat="53.0735310" lon="-1.7888000"/>
            <trkpt lat="53.0747450" lon="-1.7889550"/>
            <trkpt lat="53.0749350" lon="-1.7891050"/>
            <trkpt lat="53.0752660" lon="-1.7895820"/>
            <trkpt lat="53.0755020" lon="-1.7897730"/>
            <trkpt lat="53.0755870" lon="-1.7897950"/>
            <trkpt lat="53.0759420" lon="-1.7896170"/>
            <trkpt lat="53.0762160" lon="-1.7895230"/>
            <trkpt lat="53.0765010" lon="-1.7895460"/>
            <trkpt lat="53.0766410" lon="-1.7896410"/>
            <trkpt lat="53.0769770" lon="-1.7899890"/>
            <trkpt lat="53.0775800" lon="-1.7907470"/>
            <trkpt lat="53.0777870" lon="-1.7908940"/>
            <trkpt lat="53.0779730" lon="-1.7909620"/>
            <trkpt lat="53.0780740" lon="-1.7909420"/>
            <trkpt lat="53.0782480" lon="-1.7908020"/>
            <trkpt lat="53.0787640" lon="-1.7902930"/>
            <trkpt lat="53.0788490" lon="-1.7901300"/>
            <trkpt lat="53.0789350" lon="-1.7898670"/>
            <trkpt lat="53.0789850" lon="-1.7892870"/>
            <trkpt lat="53.0790040" lon="-1.7888130"/>
            <trkpt lat="53.0790840" lon="-1.7885540"/>
            <trkpt lat="53.0792820" lon="-1.7882790"/>
            <trkpt lat="53.0795020" lon="-1.7882120"/>
            <trkpt lat="53.0796160" lon="-1.7882210"/>
            <trkpt lat="53.0797360" lon="-1.7878150"/>
            <trkpt lat="53.0797470" lon="-1.7876940"/>
            <trkpt lat="53.0797360" lon="-1.7875980"/>
            <trkpt lat="53.0795930" lon="-1.7873360"/>
            <trkpt lat="53.0795800" lon="-1.7870010"/>
            <trkpt lat="53.0793250" lon="-1.7861210"/>
            <trkpt lat="53.0786310" lon="-1.7847550"/>
            <trkpt lat="53.0783950" lon="-1.7842060"/>
            <trkpt lat="53.0782760" lon="-1.7835040"/>
            <trkpt lat="53.0784120" lon="-1.7826500"/>
            <trkpt lat="53.0787030" lon="-1.7824720"/>
            <trkpt lat="53.0789060" lon="-1.7822440"/>
            <trkpt lat="53.0792610" lon="-1.7820960"/>
            <trkpt lat="53.0795610" lon="-1.7819100"/>
            <trkpt lat="53.0802380" lon="-1.7816140"/>
            <trkpt lat="53.0806740" lon="-1.7812550"/>
            <trkpt lat="53.0808110" lon="-1.7810240"/>
            <trkpt lat="53.0810420" lon="-1.7804210"/>
            <trkpt lat="53.0804810" lon="-1.7795890"/>
            <trkpt lat="53.0802730" lon="-1.7794790"/>
            <trkpt lat="53.0801190" lon="-1.7794450"/>
            <trkpt lat="53.0794140" lon="-1.7787710"/>
            <trkpt lat="53.0787860" lon="-1.7786460"/>
            <trkpt lat="53.0782610" lon="-1.7783810"/>
            <trkpt lat="53.0774990" lon="-1.7778110"/>
            <trkpt lat="53.0776770" lon="-1.7769130"/>
            <trkpt lat="53.0777500" lon="-1.7754420"/>
            <trkpt lat="53.0777930" lon="-1.7750670"/>
            <trkpt lat="53.0781590" lon="-1.7740400"/>
            <trkpt lat="53.0782330" lon="-1.7732610"/>
            <trkpt lat="53.0778840" lon="-1.7732330"/>
            <trkpt lat="53.0774070" lon="-1.7729780"/>
            <trkpt lat="53.0772290" lon="-1.7730070"/>
            <trkpt lat="53.0770640" lon="-1.7730640"/>
            <trkpt lat="53.0769460" lon="-1.7730560"/>
            <trkpt lat="53.0768780" lon="-1.7729720"/>
            <trkpt lat="53.0764790" lon="-1.7729050"/>
            <trkpt lat="53.0761840" lon="-1.7729070"/>
            <trkpt lat="53.0756940" lon="-1.7728430"/>
            <trkpt lat="53.0750490" lon="-1.7725640"/>
            <trkpt lat="53.0745610" lon="-1.7722210"/>
            <trkpt lat="53.0735600" lon="-1.7716330"/>
            <trkpt lat="53.0730120" lon="-1.7711690"/>
            <trkpt lat="53.0721490" lon="-1.7701180"/>
            <trkpt lat="53.0712110" lon="-1.7691510"/>
            <trkpt lat="53.0702140" lon="-1.7682490"/>
            <trkpt lat="53.0701440" lon="-1.7663730"/>
            <trkpt lat="53.0702720" lon="-1.7647840"/>
            <trkpt lat="53.0703010" lon="-1.7638550"/>
            <trkpt lat="53.0694930" lon="-1.7633560"/>
            <trkpt lat="53.0693730" lon="-1.7632430"/>
            <trkpt lat="53.0689630" lon="-1.7625180"/>
            <trkpt lat="53.0688380" lon="-1.7621790"/>
            <trkpt lat="53.0686510" lon="-1.7615460"/>
            <trkpt lat="53.0685540" lon="-1.7613290"/>
            <trkpt lat="53.0676040" lon="-1.7601950"/>
            <trkpt lat="53.0676200" lon="-1.7601540"/>
            <trkpt lat="53.0676880" lon="-1.7594100"/>
            <trkpt lat="53.0677030" lon="-1.7574950"/>
            <trkpt lat="53.0673440" lon="-1.7566160"/>
            <trkpt lat="53.0666470" lon="-1.7555420"/>
            <trkpt lat="53.0665920" lon="-1.7551490"/>
            <trkpt lat="53.0663730" lon="-1.7541190"/>
            <trkpt lat="53.0678870" lon="-1.7517980"/>
            <trkpt lat="53.0679070" lon="-1.7506290"/>
            <trkpt lat="53.0680040" lon="-1.7482970"/>
            <trkpt lat="53.0685280" lon="-1.7465460"/>
            <trkpt lat="53.0686140" lon="-1.7464350"/>
            <trkpt lat="53.0687950" lon="-1.7459100"/>
            <trkpt lat="53.0691710" lon="-1.7445460"/>
            <trkpt lat="53.0694490" lon="-1.7437520"/>
            <trkpt lat="53.0696880" lon="-1.7432280"/>
            <trkpt lat="53.0697850" lon="-1.7431780"/>
            <trkpt lat="53.0699030" lon="-1.7428520"/>
            <trkpt lat="53.0697470" lon="-1.7425880"/>
            <trkpt lat="53.0692160" lon="-1.7413790"/>
            <trkpt lat="53.0689630" lon="-1.7410220"/>
            <trkpt lat="53.0683440" lon="-1.7402200"/>
            <trkpt lat="53.0681310" lon="-1.7401480"/>
            <trkpt lat="53.0679950" lon="-1.7398830"/>
            <trkpt lat="53.0679560" lon="-1.7397700"/>
            <trkpt lat="53.0679710" lon="-1.7397170"/>
            <trkpt lat="53.0677740" lon="-1.7394480"/>
            <trkpt lat="53.0677930" lon="-1.7393810"/>
            <trkpt lat="53.0675270" lon="-1.7389880"/>
            <trkpt lat="53.0674850" lon="-1.7389030"/>
            <trkpt lat="53.0674460" lon="-1.7386930"/>
            <trkpt lat="53.0673520" lon="-1.7385170"/>
            <trkpt lat="53.0673130" lon="-1.7383410"/>
            <trkpt lat="53.0673010" lon="-1.7379170"/>
            <trkpt lat="53.0672460" lon="-1.7375390"/>
            <trkpt lat="53.0669210" lon="-1.7373690"/>
            <trkpt lat="53.0670270" lon="-1.7367870"/>
            <trkpt lat="53.0669180" lon="-1.7368230"/>
            <trkpt lat="53.0667630" lon="-1.7368090"/>
            <trkpt lat="53.0667440" lon="-1.7364290"/>
            <trkpt lat="53.0666550" lon="-1.7359490"/>
            <trkpt lat="53.0666320" lon="-1.7358970"/>
            <trkpt lat="53.0664020" lon="-1.7356740"/>
            <trkpt lat="53.0662710" lon="-1.7358140"/>
            <trkpt lat="53.0658910" lon="-1.7357290"/>
            <trkpt lat="53.0657240" lon="-1.7357860"/>
            <trkpt lat="53.0656160" lon="-1.7359080"/>
            <trkpt lat="53.0655540" lon="-1.7360940"/>
        </trkseg>
    </trk>
</gpx>
