<?xml version="1.0" encoding="UTF-8" standalone="yes"?>
<gpx version="1.1" creator="OS Maps - Web" xmlns="http://www.topografix.com/GPX/1/1"
xmlns:xsi="http://www.w3.org/2001/XMLSchema-instance"
xsi:schemaLocation="http://www.topografix.com/GPX/1/1 http://www.topografix.com/GPX/1/1/gpx.xsd"
xmlns:gs="http://www.topografix.com/GPX/gpx_style/0/2"
xmlns:gh="https://graphhopper.com/public/schema/gpx/1.1"
xmlns:os="https://ordnancesurvey.co.uk/public/schema/route/0.1">
    <metadata>
        <name>West Nab (Ethel) - There &amp; Back (www.thelostpeak.co.uk)</name>
        <desc>www.thelostpeak.co.uk</desc>
        <bounds minlat="53.5646600" minlon="-1.9145500" maxlat="53.5771300" maxlon="-1.8850300"/>
        <extensions>
            <os:version>2.0</os:version>
            <os:point lat="53.5649900" lon="-1.8850400" type="start"/>
            <os:point lat="53.5649900" lon="-1.8850400" type="end"/>
            <os:activity>ON_FOOT_WALKING</os:activity>
            <os:difficulty>MODERATE</os:difficulty>
            <os:paths/>
            <os:distance>8400.1955698</os:distance>
            <os:elevation_ascent>334.5900000</os:elevation_ascent>
        </extensions>
    </metadata>
    <wpt lat="53.5649900" lon="-1.8850400"/>
    <wpt lat="53.5647000" lon="-1.8851100"/>
    <wpt lat="53.5646700" lon="-1.8853100"/>
    <wpt lat="53.5659200" lon="-1.8911400"/>
    <wpt lat="53.5655000" lon="-1.8934000"/>
    <wpt lat="53.5655700" lon="-1.8948100"/>
    <wpt lat="53.5670700" lon="-1.8967900"/>
    <wpt lat="53.5679100" lon="-1.8983400"/>
    <wpt lat="53.5685000" lon="-1.8989200"/>
    <wpt lat="53.5690500" lon="-1.8991400"/>
    <wpt lat="53.5697300" lon="-1.8987000"/>
    <wpt lat="53.5699400" lon="-1.8996300"/>
    <wpt lat="53.5700400" lon="-1.8984400"/>
    <wpt lat="53.5703000" lon="-1.8978800"/>
    <wpt lat="53.5730400" lon="-1.8945700"/>
    <wpt lat="53.5737600" lon="-1.8943400"/>
    <wpt lat="53.5746400" lon="-1.8930600"/>
    <wpt lat="53.5750800" lon="-1.8928200"/>
    <wpt lat="53.5752600" lon="-1.8930000"/>
    <wpt lat="53.5757800" lon="-1.8921700"/>
    <wpt lat="53.5760500" lon="-1.8913600"/>
    <wpt lat="53.5763100" lon="-1.8895000"/>
    <wpt lat="53.5756900" lon="-1.8860600"/>
    <wpt lat="53.5763100" lon="-1.8895000"/>
    <wpt lat="53.5760500" lon="-1.8913600"/>
    <wpt lat="53.5757800" lon="-1.8921700"/>
    <wpt lat="53.5752600" lon="-1.8930000"/>
    <wpt lat="53.5750800" lon="-1.8928200"/>
    <wpt lat="53.5746400" lon="-1.8930600"/>
    <wpt lat="53.5737600" lon="-1.8943400"/>
    <wpt lat="53.5730400" lon="-1.8945700"/>
    <wpt lat="53.5703000" lon="-1.8978800"/>
    <wpt lat="53.5700400" lon="-1.8984400"/>
    <wpt lat="53.5699400" lon="-1.8996300"/>
    <wpt lat="53.5699900" lon="-1.9000000"/>
    <wpt lat="53.5714600" lon="-1.9027900"/>
    <wpt lat="53.5730400" lon="-1.9045700"/>
    <wpt lat="53.5740200" lon="-1.9046100"/>
    <wpt lat="53.5741300" lon="-1.9050700"/>
    <wpt lat="53.5745200" lon="-1.9054800"/>
    <wpt lat="53.5757600" lon="-1.9053500"/>
    <wpt lat="53.5759800" lon="-1.9050900"/>
    <wpt lat="53.5758800" lon="-1.9060400"/>
    <wpt lat="53.5753100" lon="-1.9076400"/>
    <wpt lat="53.5753100" lon="-1.9081400"/>
    <wpt lat="53.5755500" lon="-1.9092900"/>
    <wpt lat="53.5761200" lon="-1.9099200"/>
    <wpt lat="53.5771200" lon="-1.9134500"/>
    <wpt lat="53.5761000" lon="-1.9139200"/>
    <wpt lat="53.5758200" lon="-1.9145100"/>
    <wpt lat="53.5741700" lon="-1.9080700"/>
    <wpt lat="53.5742100" lon="-1.9077400"/>
    <wpt lat="53.5747800" lon="-1.9070100"/>
    <wpt lat="53.5744300" lon="-1.9068000"/>
    <wpt lat="53.5736300" lon="-1.9069400"/>
    <wpt lat="53.5735300" lon="-1.9064900"/>
    <wpt lat="53.5725900" lon="-1.9056100"/>
    <wpt lat="53.5714800" lon="-1.9038600"/>
    <wpt lat="53.5698500" lon="-1.9001500"/>
    <wpt lat="53.5697700" lon="-1.8987400"/>
    <wpt lat="53.5690500" lon="-1.8991400"/>
    <wpt lat="53.5655700" lon="-1.8948100"/>
    <wpt lat="53.5655000" lon="-1.8934000"/>
    <wpt lat="53.5659200" lon="-1.8911400"/>
    <wpt lat="53.5646700" lon="-1.8853100"/>
    <wpt lat="53.5647000" lon="-1.8851100"/>
    <wpt lat="53.5649900" lon="-1.8850400"/>
    <trk>
        <name>West Nab (Ethel) - There &amp; Back (www.thelostpeak.co.uk)</name>
        <trkseg>
            <trkpt lat="53.5649900" lon="-1.8850400"/>
            <trkpt lat="53.5648300" lon="-1.8850300"/>
            <trkpt lat="53.5647000" lon="-1.8851100"/>
            <trkpt lat="53.5646700" lon="-1.8851600"/>
            <trkpt lat="53.5646600" lon="-1.8852300"/>
            <trkpt lat="53.5646700" lon="-1.8853100"/>
            <trkpt lat="53.5658500" lon="-1.8907600"/>
            <trkpt lat="53.5659100" lon="-1.8909800"/>
            <trkpt lat="53.5659200" lon="-1.8911400"/>
            <trkpt lat="53.5659200" lon="-1.8913800"/>
            <trkpt lat="53.5656200" lon="-1.8928600"/>
            <trkpt lat="53.5655000" lon="-1.8934000"/>
            <trkpt lat="53.5655000" lon="-1.8944400"/>
            <trkpt lat="53.5655500" lon="-1.8947500"/>
            <trkpt lat="53.5655700" lon="-1.8948100"/>
            <trkpt lat="53.5656300" lon="-1.8949400"/>
            <trkpt lat="53.5657000" lon="-1.8950400"/>
            <trkpt lat="53.5661100" lon="-1.8954400"/>
            <trkpt lat="53.5661900" lon="-1.8956300"/>
            <trkpt lat="53.5665500" lon="-1.8960600"/>
            <trkpt lat="53.5667200" lon="-1.8962900"/>
            <trkpt lat="53.5669500" lon="-1.8966900"/>
            <trkpt lat="53.5670700" lon="-1.8967900"/>
            <trkpt lat="53.5670800" lon="-1.8968700"/>
            <trkpt lat="53.5671400" lon="-1.8970800"/>
            <trkpt lat="53.5673300" lon="-1.8973700"/>
            <trkpt lat="53.5676800" lon="-1.8980300"/>
            <trkpt lat="53.5679100" lon="-1.8983400"/>
            <trkpt lat="53.5681400" lon="-1.8985900"/>
            <trkpt lat="53.5685000" lon="-1.8989200"/>
            <trkpt lat="53.5688600" lon="-1.8991000"/>
            <trkpt lat="53.5690500" lon="-1.8991400"/>
            <trkpt lat="53.5691900" lon="-1.8991100"/>
            <trkpt lat="53.5695000" lon="-1.8987800"/>
            <trkpt lat="53.5696400" lon="-1.8987100"/>
            <trkpt lat="53.5697300" lon="-1.8987000"/>
            <trkpt lat="53.5698200" lon="-1.8988200"/>
            <trkpt lat="53.5698300" lon="-1.8989800"/>
            <trkpt lat="53.5698200" lon="-1.8991100"/>
            <trkpt lat="53.5698500" lon="-1.8993100"/>
            <trkpt lat="53.5699400" lon="-1.8996300"/>
            <trkpt lat="53.5699900" lon="-1.8990800"/>
            <trkpt lat="53.5700400" lon="-1.8987700"/>
            <trkpt lat="53.5700400" lon="-1.8984400"/>
            <trkpt lat="53.5700700" lon="-1.8983500"/>
            <trkpt lat="53.5702600" lon="-1.8980200"/>
            <trkpt lat="53.5702700" lon="-1.8979400"/>
            <trkpt lat="53.5703000" lon="-1.8978800"/>
            <trkpt lat="53.5704000" lon="-1.8978200"/>
            <trkpt lat="53.5704700" lon="-1.8977200"/>
            <trkpt lat="53.5705500" lon="-1.8976400"/>
            <trkpt lat="53.5706800" lon="-1.8974200"/>
            <trkpt lat="53.5707900" lon="-1.8972900"/>
            <trkpt lat="53.5709600" lon="-1.8972200"/>
            <trkpt lat="53.5710000" lon="-1.8971900"/>
            <trkpt lat="53.5710300" lon="-1.8971200"/>
            <trkpt lat="53.5710700" lon="-1.8970700"/>
            <trkpt lat="53.5711100" lon="-1.8970600"/>
            <trkpt lat="53.5711500" lon="-1.8970200"/>
            <trkpt lat="53.5713300" lon="-1.8966800"/>
            <trkpt lat="53.5715300" lon="-1.8964700"/>
            <trkpt lat="53.5716900" lon="-1.8962700"/>
            <trkpt lat="53.5717800" lon="-1.8961900"/>
            <trkpt lat="53.5720100" lon="-1.8958500"/>
            <trkpt lat="53.5720900" lon="-1.8957900"/>
            <trkpt lat="53.5722600" lon="-1.8955700"/>
            <trkpt lat="53.5723600" lon="-1.8953600"/>
            <trkpt lat="53.5725500" lon="-1.8952600"/>
            <trkpt lat="53.5725900" lon="-1.8952000"/>
            <trkpt lat="53.5726100" lon="-1.8951300"/>
            <trkpt lat="53.5726600" lon="-1.8950400"/>
            <trkpt lat="53.5727900" lon="-1.8949500"/>
            <trkpt lat="53.5729200" lon="-1.8948000"/>
            <trkpt lat="53.5729700" lon="-1.8946700"/>
            <trkpt lat="53.5730400" lon="-1.8945700"/>
            <trkpt lat="53.5730800" lon="-1.8945500"/>
            <trkpt lat="53.5732200" lon="-1.8945600"/>
            <trkpt lat="53.5734700" lon="-1.8944400"/>
            <trkpt lat="53.5737600" lon="-1.8943400"/>
            <trkpt lat="53.5738000" lon="-1.8943000"/>
            <trkpt lat="53.5738400" lon="-1.8942100"/>
            <trkpt lat="53.5738900" lon="-1.8941700"/>
            <trkpt lat="53.5739900" lon="-1.8940200"/>
            <trkpt lat="53.5741700" lon="-1.8939200"/>
            <trkpt lat="53.5743100" lon="-1.8936600"/>
            <trkpt lat="53.5744600" lon="-1.8934700"/>
            <trkpt lat="53.5745200" lon="-1.8933700"/>
            <trkpt lat="53.5745500" lon="-1.8933100"/>
            <trkpt lat="53.5745800" lon="-1.8931700"/>
            <trkpt lat="53.5746200" lon="-1.8931200"/>
            <trkpt lat="53.5746400" lon="-1.8930600"/>
            <trkpt lat="53.5747800" lon="-1.8929400"/>
            <trkpt lat="53.5748300" lon="-1.8929500"/>
            <trkpt lat="53.5749200" lon="-1.8928900"/>
            <trkpt lat="53.5750800" lon="-1.8928200"/>
            <trkpt lat="53.5751600" lon="-1.8928700"/>
            <trkpt lat="53.5752600" lon="-1.8930000"/>
            <trkpt lat="53.5754600" lon="-1.8928200"/>
            <trkpt lat="53.5754900" lon="-1.8927600"/>
            <trkpt lat="53.5755200" lon="-1.8926500"/>
            <trkpt lat="53.5755900" lon="-1.8925200"/>
            <trkpt lat="53.5756000" lon="-1.8924500"/>
            <trkpt lat="53.5757400" lon="-1.8922100"/>
            <trkpt lat="53.5757800" lon="-1.8921700"/>
            <trkpt lat="53.5759900" lon="-1.8916100"/>
            <trkpt lat="53.5760200" lon="-1.8914300"/>
            <trkpt lat="53.5760500" lon="-1.8913600"/>
            <trkpt lat="53.5760600" lon="-1.8912200"/>
            <trkpt lat="53.5761100" lon="-1.8909200"/>
            <trkpt lat="53.5761100" lon="-1.8908200"/>
            <trkpt lat="53.5761400" lon="-1.8905600"/>
            <trkpt lat="53.5762300" lon="-1.8902500"/>
            <trkpt lat="53.5762300" lon="-1.8900900"/>
            <trkpt lat="53.5762700" lon="-1.8899600"/>
            <trkpt lat="53.5762700" lon="-1.8898200"/>
            <trkpt lat="53.5762900" lon="-1.8897400"/>
            <trkpt lat="53.5762800" lon="-1.8895600"/>
            <trkpt lat="53.5763100" lon="-1.8895000"/>
            <trkpt lat="53.5762800" lon="-1.8894100"/>
            <trkpt lat="53.5762300" lon="-1.8893400"/>
            <trkpt lat="53.5762300" lon="-1.8892100"/>
            <trkpt lat="53.5762000" lon="-1.8891300"/>
            <trkpt lat="53.5762000" lon="-1.8890100"/>
            <trkpt lat="53.5761800" lon="-1.8888900"/>
            <trkpt lat="53.5761700" lon="-1.8885700"/>
            <trkpt lat="53.5761100" lon="-1.8882100"/>
            <trkpt lat="53.5760400" lon="-1.8879900"/>
            <trkpt lat="53.5759400" lon="-1.8874800"/>
            <trkpt lat="53.5759200" lon="-1.8871600"/>
            <trkpt lat="53.5758800" lon="-1.8870100"/>
            <trkpt lat="53.5758500" lon="-1.8869500"/>
            <trkpt lat="53.5757500" lon="-1.8862900"/>
            <trkpt lat="53.5757000" lon="-1.8861600"/>
            <trkpt lat="53.5756900" lon="-1.8860600"/>
            <trkpt lat="53.5757000" lon="-1.8861600"/>
            <trkpt lat="53.5757500" lon="-1.8862900"/>
            <trkpt lat="53.5758500" lon="-1.8869500"/>
            <trkpt lat="53.5758800" lon="-1.8870100"/>
            <trkpt lat="53.5759200" lon="-1.8871600"/>
            <trkpt lat="53.5759400" lon="-1.8874800"/>
            <trkpt lat="53.5760400" lon="-1.8879900"/>
            <trkpt lat="53.5761100" lon="-1.8882100"/>
            <trkpt lat="53.5761700" lon="-1.8885700"/>
            <trkpt lat="53.5761800" lon="-1.8888900"/>
            <trkpt lat="53.5762000" lon="-1.8890100"/>
            <trkpt lat="53.5762000" lon="-1.8891300"/>
            <trkpt lat="53.5762300" lon="-1.8892100"/>
            <trkpt lat="53.5762300" lon="-1.8893400"/>
            <trkpt lat="53.5762800" lon="-1.8894100"/>
            <trkpt lat="53.5763100" lon="-1.8895000"/>
            <trkpt lat="53.5762800" lon="-1.8895600"/>
            <trkpt lat="53.5762900" lon="-1.8897400"/>
            <trkpt lat="53.5762700" lon="-1.8898200"/>
            <trkpt lat="53.5762700" lon="-1.8899600"/>
            <trkpt lat="53.5762300" lon="-1.8900900"/>
            <trkpt lat="53.5762300" lon="-1.8902500"/>
            <trkpt lat="53.5761400" lon="-1.8905600"/>
            <trkpt lat="53.5761100" lon="-1.8908200"/>
            <trkpt lat="53.5761100" lon="-1.8909200"/>
            <trkpt lat="53.5760600" lon="-1.8912200"/>
            <trkpt lat="53.5760500" lon="-1.8913600"/>
            <trkpt lat="53.5760200" lon="-1.8914300"/>
            <trkpt lat="53.5759900" lon="-1.8916100"/>
            <trkpt lat="53.5757800" lon="-1.8921700"/>
            <trkpt lat="53.5757400" lon="-1.8922100"/>
            <trkpt lat="53.5756000" lon="-1.8924500"/>
            <trkpt lat="53.5755900" lon="-1.8925200"/>
            <trkpt lat="53.5755200" lon="-1.8926500"/>
            <trkpt lat="53.5754900" lon="-1.8927600"/>
            <trkpt lat="53.5754600" lon="-1.8928200"/>
            <trkpt lat="53.5752600" lon="-1.8930000"/>
            <trkpt lat="53.5751600" lon="-1.8928700"/>
            <trkpt lat="53.5750800" lon="-1.8928200"/>
            <trkpt lat="53.5749200" lon="-1.8928900"/>
            <trkpt lat="53.5748300" lon="-1.8929500"/>
            <trkpt lat="53.5747800" lon="-1.8929400"/>
            <trkpt lat="53.5746400" lon="-1.8930600"/>
            <trkpt lat="53.5746200" lon="-1.8931200"/>
            <trkpt lat="53.5745800" lon="-1.8931700"/>
            <trkpt lat="53.5745500" lon="-1.8933100"/>
            <trkpt lat="53.5745200" lon="-1.8933700"/>
            <trkpt lat="53.5744600" lon="-1.8934700"/>
            <trkpt lat="53.5743100" lon="-1.8936600"/>
            <trkpt lat="53.5741700" lon="-1.8939200"/>
            <trkpt lat="53.5739900" lon="-1.8940200"/>
            <trkpt lat="53.5738900" lon="-1.8941700"/>
            <trkpt lat="53.5738400" lon="-1.8942100"/>
            <trkpt lat="53.5738000" lon="-1.8943000"/>
            <trkpt lat="53.5737600" lon="-1.8943400"/>
            <trkpt lat="53.5734700" lon="-1.8944400"/>
            <trkpt lat="53.5732200" lon="-1.8945600"/>
            <trkpt lat="53.5730800" lon="-1.8945500"/>
            <trkpt lat="53.5730400" lon="-1.8945700"/>
            <trkpt lat="53.5729700" lon="-1.8946700"/>
            <trkpt lat="53.5729200" lon="-1.8948000"/>
            <trkpt lat="53.5727900" lon="-1.8949500"/>
            <trkpt lat="53.5726600" lon="-1.8950400"/>
            <trkpt lat="53.5726100" lon="-1.8951300"/>
            <trkpt lat="53.5725900" lon="-1.8952000"/>
            <trkpt lat="53.5725500" lon="-1.8952600"/>
            <trkpt lat="53.5723600" lon="-1.8953600"/>
            <trkpt lat="53.5722600" lon="-1.8955700"/>
            <trkpt lat="53.5720900" lon="-1.8957900"/>
            <trkpt lat="53.5720100" lon="-1.8958500"/>
            <trkpt lat="53.5717800" lon="-1.8961900"/>
            <trkpt lat="53.5716900" lon="-1.8962700"/>
            <trkpt lat="53.5715300" lon="-1.8964700"/>
            <trkpt lat="53.5713300" lon="-1.8966800"/>
            <trkpt lat="53.5711500" lon="-1.8970200"/>
            <trkpt lat="53.5711100" lon="-1.8970600"/>
            <trkpt lat="53.5710700" lon="-1.8970700"/>
            <trkpt lat="53.5710300" lon="-1.8971200"/>
            <trkpt lat="53.5710000" lon="-1.8971900"/>
            <trkpt lat="53.5709600" lon="-1.8972200"/>
            <trkpt lat="53.5707900" lon="-1.8972900"/>
            <trkpt lat="53.5706800" lon="-1.8974200"/>
            <trkpt lat="53.5705500" lon="-1.8976400"/>
            <trkpt lat="53.5704700" lon="-1.8977200"/>
            <trkpt lat="53.5704000" lon="-1.8978200"/>
            <trkpt lat="53.5703000" lon="-1.8978800"/>
            <trkpt lat="53.5702700" lon="-1.8979400"/>
            <trkpt lat="53.5702600" lon="-1.8980200"/>
            <trkpt lat="53.5700700" lon="-1.8983500"/>
            <trkpt lat="53.5700400" lon="-1.8984400"/>
            <trkpt lat="53.5700400" lon="-1.8987700"/>
            <trkpt lat="53.5699900" lon="-1.8990800"/>
            <trkpt lat="53.5699400" lon="-1.8996300"/>
            <trkpt lat="53.5699600" lon="-1.8998600"/>
            <trkpt lat="53.5699900" lon="-1.9000000"/>
            <trkpt lat="53.5705100" lon="-1.9009600"/>
            <trkpt lat="53.5706800" lon="-1.9013500"/>
            <trkpt lat="53.5707600" lon="-1.9014900"/>
            <trkpt lat="53.5708100" lon="-1.9016200"/>
            <trkpt lat="53.5714600" lon="-1.9027900"/>
            <trkpt lat="53.5716200" lon="-1.9029700"/>
            <trkpt lat="53.5717800" lon="-1.9032100"/>
            <trkpt lat="53.5720700" lon="-1.9034700"/>
            <trkpt lat="53.5725400" lon="-1.9040000"/>
            <trkpt lat="53.5726500" lon="-1.9041600"/>
            <trkpt lat="53.5730400" lon="-1.9045700"/>
            <trkpt lat="53.5730800" lon="-1.9046000"/>
            <trkpt lat="53.5733300" lon="-1.9046800"/>
            <trkpt lat="53.5735200" lon="-1.9047100"/>
            <trkpt lat="53.5737100" lon="-1.9047100"/>
            <trkpt lat="53.5739400" lon="-1.9046000"/>
            <trkpt lat="53.5740200" lon="-1.9046100"/>
            <trkpt lat="53.5740800" lon="-1.9049300"/>
            <trkpt lat="53.5741300" lon="-1.9050700"/>
            <trkpt lat="53.5743900" lon="-1.9054000"/>
            <trkpt lat="53.5745200" lon="-1.9054800"/>
            <trkpt lat="53.5750000" lon="-1.9054200"/>
            <trkpt lat="53.5753000" lon="-1.9053500"/>
            <trkpt lat="53.5757600" lon="-1.9053500"/>
            <trkpt lat="53.5758400" lon="-1.9052800"/>
            <trkpt lat="53.5758900" lon="-1.9051300"/>
            <trkpt lat="53.5759600" lon="-1.9050600"/>
            <trkpt lat="53.5759800" lon="-1.9050900"/>
            <trkpt lat="53.5759900" lon="-1.9052500"/>
            <trkpt lat="53.5759700" lon="-1.9053800"/>
            <trkpt lat="53.5759600" lon="-1.9055600"/>
            <trkpt lat="53.5759300" lon="-1.9057900"/>
            <trkpt lat="53.5758800" lon="-1.9060400"/>
            <trkpt lat="53.5758000" lon="-1.9062800"/>
            <trkpt lat="53.5757100" lon="-1.9064700"/>
            <trkpt lat="53.5756700" lon="-1.9066100"/>
            <trkpt lat="53.5755900" lon="-1.9067700"/>
            <trkpt lat="53.5755500" lon="-1.9069100"/>
            <trkpt lat="53.5755100" lon="-1.9069500"/>
            <trkpt lat="53.5754500" lon="-1.9070800"/>
            <trkpt lat="53.5753400" lon="-1.9075700"/>
            <trkpt lat="53.5753100" lon="-1.9076400"/>
            <trkpt lat="53.5752800" lon="-1.9078900"/>
            <trkpt lat="53.5753100" lon="-1.9081400"/>
            <trkpt lat="53.5753800" lon="-1.9086100"/>
            <trkpt lat="53.5754000" lon="-1.9086800"/>
            <trkpt lat="53.5754100" lon="-1.9088100"/>
            <trkpt lat="53.5754800" lon="-1.9091000"/>
            <trkpt lat="53.5755500" lon="-1.9092900"/>
            <trkpt lat="53.5756400" lon="-1.9094800"/>
            <trkpt lat="53.5759200" lon="-1.9098300"/>
            <trkpt lat="53.5761200" lon="-1.9099200"/>
            <trkpt lat="53.5761300" lon="-1.9100100"/>
            <trkpt lat="53.5763400" lon="-1.9108300"/>
            <trkpt lat="53.5765500" lon="-1.9114600"/>
            <trkpt lat="53.5765900" lon="-1.9116700"/>
            <trkpt lat="53.5767100" lon="-1.9119100"/>
            <trkpt lat="53.5768700" lon="-1.9125900"/>
            <trkpt lat="53.5768900" lon="-1.9127300"/>
            <trkpt lat="53.5769800" lon="-1.9130500"/>
            <trkpt lat="53.5771100" lon="-1.9133600"/>
            <trkpt lat="53.5771300" lon="-1.9134300"/>
            <trkpt lat="53.5771200" lon="-1.9134500"/>
            <trkpt lat="53.5769800" lon="-1.9135600"/>
            <trkpt lat="53.5768100" lon="-1.9137300"/>
            <trkpt lat="53.5766700" lon="-1.9138100"/>
            <trkpt lat="53.5765300" lon="-1.9138200"/>
            <trkpt lat="53.5763900" lon="-1.9138700"/>
            <trkpt lat="53.5762000" lon="-1.9138500"/>
            <trkpt lat="53.5761000" lon="-1.9139200"/>
            <trkpt lat="53.5760500" lon="-1.9140500"/>
            <trkpt lat="53.5759700" lon="-1.9141200"/>
            <trkpt lat="53.5758900" lon="-1.9142400"/>
            <trkpt lat="53.5758600" lon="-1.9143800"/>
            <trkpt lat="53.5758700" lon="-1.9144700"/>
            <trkpt lat="53.5758600" lon="-1.9145300"/>
            <trkpt lat="53.5758500" lon="-1.9145500"/>
            <trkpt lat="53.5758200" lon="-1.9145100"/>
            <trkpt lat="53.5757400" lon="-1.9143400"/>
            <trkpt lat="53.5757300" lon="-1.9142800"/>
            <trkpt lat="53.5757200" lon="-1.9138900"/>
            <trkpt lat="53.5755800" lon="-1.9132200"/>
            <trkpt lat="53.5754900" lon="-1.9128700"/>
            <trkpt lat="53.5751400" lon="-1.9117900"/>
            <trkpt lat="53.5750600" lon="-1.9115100"/>
            <trkpt lat="53.5750500" lon="-1.9114400"/>
            <trkpt lat="53.5749700" lon="-1.9112300"/>
            <trkpt lat="53.5748300" lon="-1.9106900"/>
            <trkpt lat="53.5747500" lon="-1.9104400"/>
            <trkpt lat="53.5746900" lon="-1.9101400"/>
            <trkpt lat="53.5746300" lon="-1.9100000"/>
            <trkpt lat="53.5745900" lon="-1.9098500"/>
            <trkpt lat="53.5745500" lon="-1.9096300"/>
            <trkpt lat="53.5741700" lon="-1.9080700"/>
            <trkpt lat="53.5741600" lon="-1.9078800"/>
            <trkpt lat="53.5742100" lon="-1.9077400"/>
            <trkpt lat="53.5742500" lon="-1.9077000"/>
            <trkpt lat="53.5743600" lon="-1.9076600"/>
            <trkpt lat="53.5744800" lon="-1.9075700"/>
            <trkpt lat="53.5746400" lon="-1.9073500"/>
            <trkpt lat="53.5747700" lon="-1.9070900"/>
            <trkpt lat="53.5747800" lon="-1.9070100"/>
            <trkpt lat="53.5744800" lon="-1.9068100"/>
            <trkpt lat="53.5744300" lon="-1.9068000"/>
            <trkpt lat="53.5742700" lon="-1.9068500"/>
            <trkpt lat="53.5741200" lon="-1.9069300"/>
            <trkpt lat="53.5736700" lon="-1.9069600"/>
            <trkpt lat="53.5736300" lon="-1.9069400"/>
            <trkpt lat="53.5735700" lon="-1.9068300"/>
            <trkpt lat="53.5735500" lon="-1.9067600"/>
            <trkpt lat="53.5735500" lon="-1.9066100"/>
            <trkpt lat="53.5735300" lon="-1.9064900"/>
            <trkpt lat="53.5734000" lon="-1.9064500"/>
            <trkpt lat="53.5731600" lon="-1.9061700"/>
            <trkpt lat="53.5729400" lon="-1.9059900"/>
            <trkpt lat="53.5727400" lon="-1.9058000"/>
            <trkpt lat="53.5725900" lon="-1.9056100"/>
            <trkpt lat="53.5724100" lon="-1.9052800"/>
            <trkpt lat="53.5714800" lon="-1.9038600"/>
            <trkpt lat="53.5713200" lon="-1.9035600"/>
            <trkpt lat="53.5709800" lon="-1.9028200"/>
            <trkpt lat="53.5706000" lon="-1.9019500"/>
            <trkpt lat="53.5703700" lon="-1.9013400"/>
            <trkpt lat="53.5702200" lon="-1.9010100"/>
            <trkpt lat="53.5701900" lon="-1.9008700"/>
            <trkpt lat="53.5698500" lon="-1.9001500"/>
            <trkpt lat="53.5698100" lon="-1.9000000"/>
            <trkpt lat="53.5697800" lon="-1.8997500"/>
            <trkpt lat="53.5698200" lon="-1.8991200"/>
            <trkpt lat="53.5698200" lon="-1.8989100"/>
            <trkpt lat="53.5697900" lon="-1.8987700"/>
            <trkpt lat="53.5697700" lon="-1.8987400"/>
            <trkpt lat="53.5697300" lon="-1.8987000"/>
            <trkpt lat="53.5696900" lon="-1.8987000"/>
            <trkpt lat="53.5695000" lon="-1.8987800"/>
            <trkpt lat="53.5691900" lon="-1.8991100"/>
            <trkpt lat="53.5690500" lon="-1.8991400"/>
            <trkpt lat="53.5688600" lon="-1.8991000"/>
            <trkpt lat="53.5685000" lon="-1.8989200"/>
            <trkpt lat="53.5681400" lon="-1.8985900"/>
            <trkpt lat="53.5679100" lon="-1.8983400"/>
            <trkpt lat="53.5676800" lon="-1.8980300"/>
            <trkpt lat="53.5673300" lon="-1.8973700"/>
            <trkpt lat="53.5671400" lon="-1.8970800"/>
            <trkpt lat="53.5670800" lon="-1.8968700"/>
            <trkpt lat="53.5670700" lon="-1.8967900"/>
            <trkpt lat="53.5669500" lon="-1.8966900"/>
            <trkpt lat="53.5667200" lon="-1.8962900"/>
            <trkpt lat="53.5665500" lon="-1.8960600"/>
            <trkpt lat="53.5661900" lon="-1.8956300"/>
            <trkpt lat="53.5661100" lon="-1.8954400"/>
            <trkpt lat="53.5657000" lon="-1.8950400"/>
            <trkpt lat="53.5656300" lon="-1.8949400"/>
            <trkpt lat="53.5655700" lon="-1.8948100"/>
            <trkpt lat="53.5655500" lon="-1.8947500"/>
            <trkpt lat="53.5655000" lon="-1.8944400"/>
            <trkpt lat="53.5655000" lon="-1.8934000"/>
            <trkpt lat="53.5656200" lon="-1.8928600"/>
            <trkpt lat="53.5659200" lon="-1.8913800"/>
            <trkpt lat="53.5659200" lon="-1.8911400"/>
            <trkpt lat="53.5659100" lon="-1.8909800"/>
            <trkpt lat="53.5658500" lon="-1.8907600"/>
            <trkpt lat="53.5646700" lon="-1.8853100"/>
            <trkpt lat="53.5646600" lon="-1.8852300"/>
            <trkpt lat="53.5646700" lon="-1.8851600"/>
            <trkpt lat="53.5647000" lon="-1.8851100"/>
            <trkpt lat="53.5648300" lon="-1.8850300"/>
            <trkpt lat="53.5649900" lon="-1.8850400"/>
        </trkseg>
    </trk>
</gpx>
