<?xml version="1.0" encoding="UTF-8" standalone="yes"?>
<gpx version="1.1" creator="OS Maps - Web" xmlns="http://www.topografix.com/GPX/1/1"
xmlns:xsi="http://www.w3.org/2001/XMLSchema-instance"
xsi:schemaLocation="http://www.topografix.com/GPX/1/1 http://www.topografix.com/GPX/1/1/gpx.xsd"
xmlns:gs="http://www.topografix.com/GPX/gpx_style/0/2"
xmlns:gh="https://graphhopper.com/public/schema/gpx/1.1"
xmlns:os="https://ordnancesurvey.co.uk/public/schema/route/0.1">
    <metadata>
        <name>Whetstone Ridge (Ethel) - Circular (www.thelostpeak.co.uk)</name>
        <desc>www.thelostpeak.co.uk</desc>
        <bounds minlat="53.2138820" minlon="-2.0023950" maxlat="53.2440520" maxlon="-1.9579410"/>
        <extensions>
            <os:version>2.0</os:version>
            <os:point lat="53.2439690" lon="-2.0001390" type="start"/>
            <os:point lat="53.2439690" lon="-2.0001390" type="end"/>
            <os:activity>ON_FOOT_WALKING</os:activity>
            <os:difficulty>MODERATE</os:difficulty>
            <os:paths/>
            <os:distance>11414.3431075</os:distance>
            <os:elevation_ascent>346.6900000</os:elevation_ascent>
        </extensions>
    </metadata>
    <wpt lat="53.2439690" lon="-2.0001390"/>
    <wpt lat="53.2343000" lon="-2.0007700"/>
    <wpt lat="53.2341100" lon="-2.0004900"/>
    <wpt lat="53.2346300" lon="-1.9987700"/>
    <wpt lat="53.2341100" lon="-2.0004900"/>
    <wpt lat="53.2337600" lon="-1.9996400"/>
    <wpt lat="53.2439690" lon="-2.0001390"/>
    <trk>
        <name>Whetstone Ridge (Ethel) - Circular (www.thelostpeak.co.uk)</name>
        <trkseg>
            <trkpt lat="53.2439690" lon="-2.0001390"><ele>514.4</ele></trkpt>
            <trkpt lat="53.2431770" lon="-2.0004160"><ele>515.0</ele></trkpt>
            <trkpt lat="53.2398070" lon="-2.0014080"><ele>522.4</ele></trkpt>
            <trkpt lat="53.2382030" lon="-2.0019530"><ele>531.8</ele></trkpt>
            <trkpt lat="53.2367650" lon="-2.0023810"><ele>534.0</ele></trkpt>
            <trkpt lat="53.2365400" lon="-2.0023950"><ele>534.2</ele></trkpt>
            <trkpt lat="53.2363470" lon="-2.0023700"><ele>535.0</ele></trkpt>
            <trkpt lat="53.2357570" lon="-2.0021340"><ele>533.3</ele></trkpt>
            <trkpt lat="53.2351030" lon="-2.0017860"><ele>531.0</ele></trkpt>
            <trkpt lat="53.2348310" lon="-2.0015240"><ele>528.8</ele></trkpt>
            <trkpt lat="53.2343080" lon="-2.0008000"><ele>527.1</ele></trkpt>
            <trkpt lat="53.2343000" lon="-2.0007700"><ele>527.4</ele></trkpt>
            <trkpt lat="53.2341100" lon="-2.0004900"><ele>526.3</ele></trkpt>
            <trkpt lat="53.2343400" lon="-1.9998000"><ele>533.7</ele></trkpt>
            <trkpt lat="53.2346300" lon="-1.9987700"><ele>541.5</ele></trkpt>
            <trkpt lat="53.2341100" lon="-2.0004900"><ele>526.3</ele></trkpt>
            <trkpt lat="53.2337600" lon="-1.9996400"><ele>524.5</ele></trkpt>
            <trkpt lat="53.2329570" lon="-1.9980740"><ele>518.7</ele></trkpt>
            <trkpt lat="53.2323740" lon="-1.9969950"><ele>518.6</ele></trkpt>
            <trkpt lat="53.2316220" lon="-1.9960120"><ele>519.1</ele></trkpt>
            <trkpt lat="53.2313150" lon="-1.9957050"><ele>519.1</ele></trkpt>
            <trkpt lat="53.2308570" lon="-1.9951790"><ele>516.7</ele></trkpt>
            <trkpt lat="53.2304550" lon="-1.9945500"><ele>514.6</ele></trkpt>
            <trkpt lat="53.2302130" lon="-1.9940080"><ele>513.1</ele></trkpt>
            <trkpt lat="53.2298840" lon="-1.9930990"><ele>509.6</ele></trkpt>
            <trkpt lat="53.2294280" lon="-1.9917240"><ele>505.1</ele></trkpt>
            <trkpt lat="53.2289550" lon="-1.9904370"><ele>498.5</ele></trkpt>
            <trkpt lat="53.2281880" lon="-1.9880260"><ele>487.5</ele></trkpt>
            <trkpt lat="53.2277900" lon="-1.9873800"><ele>483.1</ele></trkpt>
            <trkpt lat="53.2275430" lon="-1.9870770"><ele>478.9</ele></trkpt>
            <trkpt lat="53.2273530" lon="-1.9869550"><ele>475.4</ele></trkpt>
            <trkpt lat="53.2269970" lon="-1.9868150"><ele>468.4</ele></trkpt>
            <trkpt lat="53.2269550" lon="-1.9867880"><ele>467.6</ele></trkpt>
            <trkpt lat="53.2269180" lon="-1.9867160"><ele>465.7</ele></trkpt>
            <trkpt lat="53.2268430" lon="-1.9866610"><ele>463.5</ele></trkpt>
            <trkpt lat="53.2265560" lon="-1.9868240"><ele>452.8</ele></trkpt>
            <trkpt lat="53.2265670" lon="-1.9867630"><ele>453.7</ele></trkpt>
            <trkpt lat="53.2260070" lon="-1.9872650"><ele>431.1</ele></trkpt>
            <trkpt lat="53.2258110" lon="-1.9873380"><ele>426.0</ele></trkpt>
            <trkpt lat="53.2256990" lon="-1.9876380"><ele>425.8</ele></trkpt>
            <trkpt lat="53.2251080" lon="-1.9881960"><ele>416.7</ele></trkpt>
            <trkpt lat="53.2249110" lon="-1.9882840"><ele>413.7</ele></trkpt>
            <trkpt lat="53.2243880" lon="-1.9885820"><ele>411.1</ele></trkpt>
            <trkpt lat="53.2238660" lon="-1.9891090"><ele>407.1</ele></trkpt>
            <trkpt lat="53.2232580" lon="-1.9900840"><ele>405.5</ele></trkpt>
            <trkpt lat="53.2230310" lon="-1.9903680"><ele>407.2</ele></trkpt>
            <trkpt lat="53.2228470" lon="-1.9904270"><ele>406.7</ele></trkpt>
            <trkpt lat="53.2224980" lon="-1.9903800"><ele>400.6</ele></trkpt>
            <trkpt lat="53.2221020" lon="-1.9903840"><ele>395.3</ele></trkpt>
            <trkpt lat="53.2216910" lon="-1.9903570"><ele>392.4</ele></trkpt>
            <trkpt lat="53.2214970" lon="-1.9902640"><ele>392.1</ele></trkpt>
            <trkpt lat="53.2212620" lon="-1.9902600"><ele>391.6</ele></trkpt>
            <trkpt lat="53.2211270" lon="-1.9903350"><ele>391.1</ele></trkpt>
            <trkpt lat="53.2201680" lon="-1.9899740"><ele>381.2</ele></trkpt>
            <trkpt lat="53.2200840" lon="-1.9899210"><ele>380.1</ele></trkpt>
            <trkpt lat="53.2199180" lon="-1.9899210"><ele>379.2</ele></trkpt>
            <trkpt lat="53.2196560" lon="-1.9900640"><ele>379.1</ele></trkpt>
            <trkpt lat="53.2194330" lon="-1.9901140"><ele>379.8</ele></trkpt>
            <trkpt lat="53.2190440" lon="-1.9899120"><ele>378.3</ele></trkpt>
            <trkpt lat="53.2183300" lon="-1.9897520"><ele>376.8</ele></trkpt>
            <trkpt lat="53.2180460" lon="-1.9897480"><ele>376.4</ele></trkpt>
            <trkpt lat="53.2175020" lon="-1.9895370"><ele>371.3</ele></trkpt>
            <trkpt lat="53.2173820" lon="-1.9895820"><ele>371.6</ele></trkpt>
            <trkpt lat="53.2172450" lon="-1.9898260"><ele>374.1</ele></trkpt>
            <trkpt lat="53.2172520" lon="-1.9899230"><ele>375.3</ele></trkpt>
            <trkpt lat="53.2169900" lon="-1.9898010"><ele>374.6</ele></trkpt>
            <trkpt lat="53.2165710" lon="-1.9898480"><ele>378.3</ele></trkpt>
            <trkpt lat="53.2164480" lon="-1.9899180"><ele>380.9</ele></trkpt>
            <trkpt lat="53.2161990" lon="-1.9899690"><ele>382.4</ele></trkpt>
            <trkpt lat="53.2159410" lon="-1.9899590"><ele>381.7</ele></trkpt>
            <trkpt lat="53.2156950" lon="-1.9898650"><ele>380.1</ele></trkpt>
            <trkpt lat="53.2155280" lon="-1.9897150"><ele>377.4</ele></trkpt>
            <trkpt lat="53.2144280" lon="-1.9880790"><ele>365.0</ele></trkpt>
            <trkpt lat="53.2142710" lon="-1.9878880"><ele>363.6</ele></trkpt>
            <trkpt lat="53.2138820" lon="-1.9876370"><ele>361.2</ele></trkpt>
            <trkpt lat="53.2138830" lon="-1.9875940"><ele>360.5</ele></trkpt>
            <trkpt lat="53.2139210" lon="-1.9874560"><ele>358.7</ele></trkpt>
            <trkpt lat="53.2139190" lon="-1.9873810"><ele>358.0</ele></trkpt>
            <trkpt lat="53.2139420" lon="-1.9872390"><ele>357.1</ele></trkpt>
            <trkpt lat="53.2144850" lon="-1.9857640"><ele>372.2</ele></trkpt>
            <trkpt lat="53.2146150" lon="-1.9849050"><ele>372.7</ele></trkpt>
            <trkpt lat="53.2146300" lon="-1.9838770"><ele>372.1</ele></trkpt>
            <trkpt lat="53.2147670" lon="-1.9837310"><ele>372.9</ele></trkpt>
            <trkpt lat="53.2149310" lon="-1.9837080"><ele>375.2</ele></trkpt>
            <trkpt lat="53.2149870" lon="-1.9836370"><ele>375.8</ele></trkpt>
            <trkpt lat="53.2150850" lon="-1.9833270"><ele>376.6</ele></trkpt>
            <trkpt lat="53.2151190" lon="-1.9829910"><ele>376.8</ele></trkpt>
            <trkpt lat="53.2157520" lon="-1.9814980"><ele>386.8</ele></trkpt>
            <trkpt lat="53.2159400" lon="-1.9812720"><ele>388.6</ele></trkpt>
            <trkpt lat="53.2164330" lon="-1.9808600"><ele>391.0</ele></trkpt>
            <trkpt lat="53.2164870" lon="-1.9807080"><ele>390.5</ele></trkpt>
            <trkpt lat="53.2165030" lon="-1.9803480"><ele>389.1</ele></trkpt>
            <trkpt lat="53.2165680" lon="-1.9799920"><ele>389.3</ele></trkpt>
            <trkpt lat="53.2165570" lon="-1.9794940"><ele>390.9</ele></trkpt>
            <trkpt lat="53.2166890" lon="-1.9791560"><ele>392.7</ele></trkpt>
            <trkpt lat="53.2168930" lon="-1.9784670"><ele>396.4</ele></trkpt>
            <trkpt lat="53.2168890" lon="-1.9781770"><ele>398.3</ele></trkpt>
            <trkpt lat="53.2168420" lon="-1.9780640"><ele>398.3</ele></trkpt>
            <trkpt lat="53.2169160" lon="-1.9779960"><ele>399.3</ele></trkpt>
            <trkpt lat="53.2172820" lon="-1.9770340"><ele>413.7</ele></trkpt>
            <trkpt lat="53.2173680" lon="-1.9766020"><ele>424.5</ele></trkpt>
            <trkpt lat="53.2174800" lon="-1.9763690"><ele>429.7</ele></trkpt>
            <trkpt lat="53.2174710" lon="-1.9762710"><ele>431.0</ele></trkpt>
            <trkpt lat="53.2172950" lon="-1.9758510"><ele>435.8</ele></trkpt>
            <trkpt lat="53.2169820" lon="-1.9752930"><ele>440.4</ele></trkpt>
            <trkpt lat="53.2168280" lon="-1.9748160"><ele>444.6</ele></trkpt>
            <trkpt lat="53.2168210" lon="-1.9746390"><ele>445.9</ele></trkpt>
            <trkpt lat="53.2168310" lon="-1.9739230"><ele>454.1</ele></trkpt>
            <trkpt lat="53.2168620" lon="-1.9738360"><ele>455.5</ele></trkpt>
            <trkpt lat="53.2169130" lon="-1.9733340"><ele>457.9</ele></trkpt>
            <trkpt lat="53.2171200" lon="-1.9721230"><ele>463.5</ele></trkpt>
            <trkpt lat="53.2171230" lon="-1.9720250"><ele>463.3</ele></trkpt>
            <trkpt lat="53.2173660" lon="-1.9713390"><ele>463.5</ele></trkpt>
            <trkpt lat="53.2176140" lon="-1.9709450"><ele>463.4</ele></trkpt>
            <trkpt lat="53.2177900" lon="-1.9708420"><ele>464.1</ele></trkpt>
            <trkpt lat="53.2184970" lon="-1.9697650"><ele>463.6</ele></trkpt>
            <trkpt lat="53.2198800" lon="-1.9678140"><ele>471.3</ele></trkpt>
            <trkpt lat="53.2204890" lon="-1.9666870"><ele>474.4</ele></trkpt>
            <trkpt lat="53.2206190" lon="-1.9663950"><ele>474.0</ele></trkpt>
            <trkpt lat="53.2211770" lon="-1.9661230"><ele>479.3</ele></trkpt>
            <trkpt lat="53.2213720" lon="-1.9659500"><ele>481.3</ele></trkpt>
            <trkpt lat="53.2217620" lon="-1.9653560"><ele>484.8</ele></trkpt>
            <trkpt lat="53.2219910" lon="-1.9651070"><ele>486.4</ele></trkpt>
            <trkpt lat="53.2228100" lon="-1.9644830"><ele>494.2</ele></trkpt>
            <trkpt lat="53.2236800" lon="-1.9639910"><ele>500.9</ele></trkpt>
            <trkpt lat="53.2237290" lon="-1.9639020"><ele>500.8</ele></trkpt>
            <trkpt lat="53.2247200" lon="-1.9634820"><ele>505.4</ele></trkpt>
            <trkpt lat="53.2256000" lon="-1.9627960"><ele>514.8</ele></trkpt>
            <trkpt lat="53.2260460" lon="-1.9625340"><ele>517.9</ele></trkpt>
            <trkpt lat="53.2262110" lon="-1.9624970"><ele>517.4</ele></trkpt>
            <trkpt lat="53.2265000" lon="-1.9622620"><ele>517.9</ele></trkpt>
            <trkpt lat="53.2269250" lon="-1.9621300"><ele>518.0</ele></trkpt>
            <trkpt lat="53.2271790" lon="-1.9621540"><ele>517.5</ele></trkpt>
            <trkpt lat="53.2276530" lon="-1.9620000"><ele>514.9</ele></trkpt>
            <trkpt lat="53.2280560" lon="-1.9619200"><ele>512.4</ele></trkpt>
            <trkpt lat="53.2284480" lon="-1.9618930"><ele>510.5</ele></trkpt>
            <trkpt lat="53.2287640" lon="-1.9619870"><ele>507.7</ele></trkpt>
            <trkpt lat="53.2288820" lon="-1.9621250"><ele>506.6</ele></trkpt>
            <trkpt lat="53.2292520" lon="-1.9622160"><ele>506.6</ele></trkpt>
            <trkpt lat="53.2299700" lon="-1.9619170"><ele>508.3</ele></trkpt>
            <trkpt lat="53.2302940" lon="-1.9618180"><ele>507.8</ele></trkpt>
            <trkpt lat="53.2303690" lon="-1.9617070"><ele>508.6</ele></trkpt>
            <trkpt lat="53.2301490" lon="-1.9615300"><ele>512.7</ele></trkpt>
            <trkpt lat="53.2302340" lon="-1.9609580"><ele>517.8</ele></trkpt>
            <trkpt lat="53.2304200" lon="-1.9608070"><ele>517.9</ele></trkpt>
            <trkpt lat="53.2323300" lon="-1.9608990"><ele>515.5</ele></trkpt>
            <trkpt lat="53.2330750" lon="-1.9608560"><ele>519.0</ele></trkpt>
            <trkpt lat="53.2332140" lon="-1.9606790"><ele>520.6</ele></trkpt>
            <trkpt lat="53.2334330" lon="-1.9604750"><ele>521.3</ele></trkpt>
            <trkpt lat="53.2341270" lon="-1.9600550"><ele>520.2</ele></trkpt>
            <trkpt lat="53.2347540" lon="-1.9595100"><ele>519.1</ele></trkpt>
            <trkpt lat="53.2351210" lon="-1.9591730"><ele>518.8</ele></trkpt>
            <trkpt lat="53.2352650" lon="-1.9589560"><ele>518.9</ele></trkpt>
            <trkpt lat="53.2354000" lon="-1.9587950"><ele>518.4</ele></trkpt>
            <trkpt lat="53.2356370" lon="-1.9586280"><ele>516.7</ele></trkpt>
            <trkpt lat="53.2362600" lon="-1.9584740"><ele>510.4</ele></trkpt>
            <trkpt lat="53.2369100" lon="-1.9584610"><ele>501.5</ele></trkpt>
            <trkpt lat="53.2377880" lon="-1.9585070"><ele>493.1</ele></trkpt>
            <trkpt lat="53.2387160" lon="-1.9584260"><ele>482.5</ele></trkpt>
            <trkpt lat="53.2387440" lon="-1.9583890"><ele>482.1</ele></trkpt>
            <trkpt lat="53.2388230" lon="-1.9580660"><ele>480.0</ele></trkpt>
            <trkpt lat="53.2389090" lon="-1.9579410"><ele>478.8</ele></trkpt>
            <trkpt lat="53.2389900" lon="-1.9581670"><ele>479.6</ele></trkpt>
            <trkpt lat="53.2391710" lon="-1.9582940"><ele>478.9</ele></trkpt>
            <trkpt lat="53.2393730" lon="-1.9583570"><ele>477.9</ele></trkpt>
            <trkpt lat="53.2394650" lon="-1.9584450"><ele>478.0</ele></trkpt>
            <trkpt lat="53.2394870" lon="-1.9600930"><ele>485.7</ele></trkpt>
            <trkpt lat="53.2395110" lon="-1.9609480"><ele>488.7</ele></trkpt>
            <trkpt lat="53.2394540" lon="-1.9614070"><ele>491.5</ele></trkpt>
            <trkpt lat="53.2394180" lon="-1.9623390"><ele>495.0</ele></trkpt>
            <trkpt lat="53.2393820" lon="-1.9628570"><ele>494.4</ele></trkpt>
            <trkpt lat="53.2391030" lon="-1.9650990"><ele>481.2</ele></trkpt>
            <trkpt lat="53.2384780" lon="-1.9688460"><ele>461.2</ele></trkpt>
            <trkpt lat="53.2383280" lon="-1.9699090"><ele>458.7</ele></trkpt>
            <trkpt lat="53.2383280" lon="-1.9704340"><ele>457.5</ele></trkpt>
            <trkpt lat="53.2383970" lon="-1.9710790"><ele>454.8</ele></trkpt>
            <trkpt lat="53.2385230" lon="-1.9720050"><ele>453.3</ele></trkpt>
            <trkpt lat="53.2385790" lon="-1.9726060"><ele>452.5</ele></trkpt>
            <trkpt lat="53.2386250" lon="-1.9727060"><ele>452.1</ele></trkpt>
            <trkpt lat="53.2387050" lon="-1.9735440"><ele>447.3</ele></trkpt>
            <trkpt lat="53.2388830" lon="-1.9749950"><ele>441.8</ele></trkpt>
            <trkpt lat="53.2390090" lon="-1.9756280"><ele>440.1</ele></trkpt>
            <trkpt lat="53.2395990" lon="-1.9774510"><ele>435.0</ele></trkpt>
            <trkpt lat="53.2397280" lon="-1.9777220"><ele>433.0</ele></trkpt>
            <trkpt lat="53.2399880" lon="-1.9781240"><ele>429.3</ele></trkpt>
            <trkpt lat="53.2402590" lon="-1.9784070"><ele>431.6</ele></trkpt>
            <trkpt lat="53.2400420" lon="-1.9795730"><ele>435.9</ele></trkpt>
            <trkpt lat="53.2400060" lon="-1.9798550"><ele>436.2</ele></trkpt>
            <trkpt lat="53.2400040" lon="-1.9801330"><ele>437.6</ele></trkpt>
            <trkpt lat="53.2401430" lon="-1.9807500"><ele>442.6</ele></trkpt>
            <trkpt lat="53.2403030" lon="-1.9818510"><ele>447.9</ele></trkpt>
            <trkpt lat="53.2407560" lon="-1.9844240"><ele>463.7</ele></trkpt>
            <trkpt lat="53.2409330" lon="-1.9853730"><ele>469.7</ele></trkpt>
            <trkpt lat="53.2412570" lon="-1.9868480"><ele>477.9</ele></trkpt>
            <trkpt lat="53.2414100" lon="-1.9877020"><ele>481.3</ele></trkpt>
            <trkpt lat="53.2416030" lon="-1.9897440"><ele>489.9</ele></trkpt>
            <trkpt lat="53.2418580" lon="-1.9913090"><ele>495.9</ele></trkpt>
            <trkpt lat="53.2421730" lon="-1.9929930"><ele>498.1</ele></trkpt>
            <trkpt lat="53.2423630" lon="-1.9941930"><ele>500.8</ele></trkpt>
            <trkpt lat="53.2424790" lon="-1.9962520"><ele>508.0</ele></trkpt>
            <trkpt lat="53.2425660" lon="-1.9970220"><ele>509.9</ele></trkpt>
            <trkpt lat="53.2438070" lon="-1.9996290"><ele>516.8</ele></trkpt>
            <trkpt lat="53.2438460" lon="-1.9996960"><ele>516.8</ele></trkpt>
            <trkpt lat="53.2440520" lon="-1.9999480"><ele>515.3</ele></trkpt>
            <trkpt lat="53.2439690" lon="-2.0001390"><ele>514.4</ele></trkpt>
            <trkpt lat="53.2437430" lon="-1.9996830"><ele>516.6</ele></trkpt>
            <trkpt lat="53.2439690" lon="-2.0001390"><ele>514.4</ele></trkpt>
        </trkseg>
    </trk>
<!-- ele-hash:e91933df57421e94 -->
</gpx>
