<?xml version="1.0" encoding="UTF-8" standalone="yes"?>
<gpx version="1.1" creator="OS Maps - Web" xmlns="http://www.topografix.com/GPX/1/1"
xmlns:xsi="http://www.w3.org/2001/XMLSchema-instance"
xsi:schemaLocation="http://www.topografix.com/GPX/1/1 http://www.topografix.com/GPX/1/1/gpx.xsd"
xmlns:gs="http://www.topografix.com/GPX/gpx_style/0/2"
xmlns:gh="https://graphhopper.com/public/schema/gpx/1.1"
xmlns:os="https://ordnancesurvey.co.uk/public/schema/route/0.1">
    <metadata>
        <name>White Low (Ethel) - There &amp; Back (www.thelostpeak.co.uk)</name>
        <desc>www.thelostpeak.co.uk</desc>
        <bounds minlat="53.4892300" minlon="-1.8940400" maxlat="53.5168300" maxlon="-1.8706200"/>
        <extensions>
            <os:version>2.0</os:version>
            <os:point lat="53.4899930" lon="-1.8922710" type="start"/>
            <os:point lat="53.4899930" lon="-1.8922710" type="end"/>
            <os:activity>ON_FOOT_WALKING</os:activity>
            <os:difficulty>MODERATE</os:difficulty>
            <os:paths/>
            <os:distance>8407.1784386</os:distance>
            <os:elevation_ascent>347.0300000</os:elevation_ascent>
        </extensions>
    </metadata>
    <wpt lat="53.4899930" lon="-1.8922710"/>
    <wpt lat="53.4893100" lon="-1.8930500"/>
    <wpt lat="53.4900000" lon="-1.8936300"/>
    <wpt lat="53.4913700" lon="-1.8933300"/>
    <wpt lat="53.4923600" lon="-1.8940400"/>
    <wpt lat="53.4926900" lon="-1.8938800"/>
    <wpt lat="53.4925600" lon="-1.8922700"/>
    <wpt lat="53.4938500" lon="-1.8909900"/>
    <wpt lat="53.4963000" lon="-1.8894000"/>
    <wpt lat="53.4962900" lon="-1.8876500"/>
    <wpt lat="53.4956600" lon="-1.8870700"/>
    <wpt lat="53.4957200" lon="-1.8860700"/>
    <wpt lat="53.4964300" lon="-1.8839100"/>
    <wpt lat="53.4976200" lon="-1.8824100"/>
    <wpt lat="53.5002700" lon="-1.8816300"/>
    <wpt lat="53.5055400" lon="-1.8809100"/>
    <wpt lat="53.5109700" lon="-1.8783300"/>
    <wpt lat="53.5147500" lon="-1.8785300"/>
    <wpt lat="53.5157900" lon="-1.8766600"/>
    <wpt lat="53.5162600" lon="-1.8739800"/>
    <wpt lat="53.5168300" lon="-1.8729700"/>
    <wpt lat="53.5162900" lon="-1.8706200"/>
    <wpt lat="53.5167900" lon="-1.8728000"/>
    <wpt lat="53.5164900" lon="-1.8733100"/>
    <wpt lat="53.5159000" lon="-1.8765300"/>
    <wpt lat="53.5148100" lon="-1.8785100"/>
    <wpt lat="53.5109600" lon="-1.8785200"/>
    <wpt lat="53.5087300" lon="-1.8793100"/>
    <wpt lat="53.5055900" lon="-1.8809000"/>
    <wpt lat="53.4976000" lon="-1.8823700"/>
    <wpt lat="53.4963300" lon="-1.8839500"/>
    <wpt lat="53.4955400" lon="-1.8870500"/>
    <wpt lat="53.4962800" lon="-1.8876500"/>
    <wpt lat="53.4962800" lon="-1.8893200"/>
    <wpt lat="53.4941600" lon="-1.8905300"/>
    <wpt lat="53.4926200" lon="-1.8922000"/>
    <wpt lat="53.4926000" lon="-1.8939200"/>
    <wpt lat="53.4913000" lon="-1.8934100"/>
    <wpt lat="53.4899800" lon="-1.8936900"/>
    <wpt lat="53.4892300" lon="-1.8929100"/>
    <wpt lat="53.4899930" lon="-1.8922710"/>
    <trk>
        <name>White Low (Ethel) - There &amp; Back (www.thelostpeak.co.uk)</name>
        <trkseg>
            <trkpt lat="53.4899930" lon="-1.8922710"><ele>211.3</ele></trkpt>
            <trkpt lat="53.4893100" lon="-1.8930500"><ele>211.0</ele></trkpt>
            <trkpt lat="53.4900000" lon="-1.8936300"><ele>208.9</ele></trkpt>
            <trkpt lat="53.4913700" lon="-1.8933300"><ele>214.2</ele></trkpt>
            <trkpt lat="53.4923600" lon="-1.8940400"><ele>221.7</ele></trkpt>
            <trkpt lat="53.4926900" lon="-1.8938800"><ele>228.2</ele></trkpt>
            <trkpt lat="53.4925600" lon="-1.8922700"><ele>248.1</ele></trkpt>
            <trkpt lat="53.4938500" lon="-1.8909900"><ele>306.9</ele></trkpt>
            <trkpt lat="53.4952200" lon="-1.8900100"><ele>346.6</ele></trkpt>
            <trkpt lat="53.4963000" lon="-1.8894000"><ele>364.1</ele></trkpt>
            <trkpt lat="53.4962900" lon="-1.8876500"><ele>383.3</ele></trkpt>
            <trkpt lat="53.4956600" lon="-1.8870700"><ele>382.1</ele></trkpt>
            <trkpt lat="53.4957200" lon="-1.8860700"><ele>391.2</ele></trkpt>
            <trkpt lat="53.4964300" lon="-1.8839100"><ele>393.4</ele></trkpt>
            <trkpt lat="53.4976200" lon="-1.8824100"><ele>411.6</ele></trkpt>
            <trkpt lat="53.5002700" lon="-1.8816300"><ele>414.6</ele></trkpt>
            <trkpt lat="53.5055400" lon="-1.8809100"><ele>421.2</ele></trkpt>
            <trkpt lat="53.5067400" lon="-1.8802800"><ele>428.0</ele></trkpt>
            <trkpt lat="53.5109700" lon="-1.8783300"><ele>509.0</ele></trkpt>
            <trkpt lat="53.5129300" lon="-1.8785800"><ele>526.3</ele></trkpt>
            <trkpt lat="53.5147500" lon="-1.8785300"><ele>525.3</ele></trkpt>
            <trkpt lat="53.5157900" lon="-1.8766600"><ele>525.3</ele></trkpt>
            <trkpt lat="53.5161900" lon="-1.8746200"><ele>522.9</ele></trkpt>
            <trkpt lat="53.5162600" lon="-1.8739800"><ele>521.5</ele></trkpt>
            <trkpt lat="53.5168300" lon="-1.8729700"><ele>523.1</ele></trkpt>
            <trkpt lat="53.5162900" lon="-1.8706200"><ele>526.7</ele></trkpt>
            <trkpt lat="53.5167900" lon="-1.8728000"><ele>523.5</ele></trkpt>
            <trkpt lat="53.5164900" lon="-1.8733100"><ele>522.1</ele></trkpt>
            <trkpt lat="53.5159000" lon="-1.8765300"><ele>525.0</ele></trkpt>
            <trkpt lat="53.5148100" lon="-1.8785100"><ele>524.9</ele></trkpt>
            <trkpt lat="53.5131200" lon="-1.8784700"><ele>527.4</ele></trkpt>
            <trkpt lat="53.5109600" lon="-1.8785200"><ele>508.2</ele></trkpt>
            <trkpt lat="53.5087300" lon="-1.8793100"><ele>445.6</ele></trkpt>
            <trkpt lat="53.5055900" lon="-1.8809000"><ele>421.3</ele></trkpt>
            <trkpt lat="53.4976000" lon="-1.8823700"><ele>411.1</ele></trkpt>
            <trkpt lat="53.4963300" lon="-1.8839500"><ele>390.2</ele></trkpt>
            <trkpt lat="53.4958100" lon="-1.8860800"><ele>394.7</ele></trkpt>
            <trkpt lat="53.4955400" lon="-1.8870500"><ele>378.8</ele></trkpt>
            <trkpt lat="53.4962800" lon="-1.8876500"><ele>383.3</ele></trkpt>
            <trkpt lat="53.4962800" lon="-1.8893200"><ele>365.3</ele></trkpt>
            <trkpt lat="53.4941600" lon="-1.8905300"><ele>317.9</ele></trkpt>
            <trkpt lat="53.4926200" lon="-1.8922000"><ele>251.2</ele></trkpt>
            <trkpt lat="53.4926000" lon="-1.8939200"><ele>226.4</ele></trkpt>
            <trkpt lat="53.4913000" lon="-1.8934100"><ele>213.6</ele></trkpt>
            <trkpt lat="53.4899800" lon="-1.8936900"><ele>208.7</ele></trkpt>
            <trkpt lat="53.4892300" lon="-1.8929100"><ele>210.6</ele></trkpt>
            <trkpt lat="53.4899930" lon="-1.8922710"><ele>211.3</ele></trkpt>
        </trkseg>
    </trk>
<!-- ele-hash:890afdb3a8b548c9 -->
</gpx>
