<?xml version="1.0" encoding="UTF-8" standalone="yes"?>
<gpx version="1.1" creator="OS Maps - Web" xmlns="http://www.topografix.com/GPX/1/1"
xmlns:xsi="http://www.w3.org/2001/XMLSchema-instance"
xsi:schemaLocation="http://www.topografix.com/GPX/1/1 http://www.topografix.com/GPX/1/1/gpx.xsd"
xmlns:gs="http://www.topografix.com/GPX/gpx_style/0/2"
xmlns:gh="https://graphhopper.com/public/schema/gpx/1.1"
xmlns:os="https://ordnancesurvey.co.uk/public/schema/route/0.1">
    <metadata>
        <name>Win Hill (Ethel) - Circular (www.thelostpeak.co.uk)</name>
        <desc>www.thelostpeak.co.uk</desc>
        <bounds minlat="53.3596600" minlon="-1.7429400" maxlat="53.3783000" maxlon="-1.6973600"/>
        <extensions>
            <os:version>2.0</os:version>
            <os:point lat="53.3691800" lon="-1.6974400" type="start"/>
            <os:point lat="53.3691800" lon="-1.6974400" type="end"/>
            <os:activity>ON_FOOT_WALKING</os:activity>
            <os:difficulty>MODERATE</os:difficulty>
            <os:paths/>
            <os:distance>10414.9842203</os:distance>
            <os:elevation_ascent>386.4800000</os:elevation_ascent>
        </extensions>
    </metadata>
    <wpt lat="53.3691800" lon="-1.6974400"/>
    <wpt lat="53.3657200" lon="-1.6979300"/>
    <wpt lat="53.3654500" lon="-1.6982700"/>
    <wpt lat="53.3656200" lon="-1.6985700"/>
    <wpt lat="53.3647800" lon="-1.6990300"/>
    <wpt lat="53.3631000" lon="-1.6987700"/>
    <wpt lat="53.3628800" lon="-1.7002500"/>
    <wpt lat="53.3624600" lon="-1.7014900"/>
    <wpt lat="53.3628500" lon="-1.7014100"/>
    <wpt lat="53.3630900" lon="-1.7026400"/>
    <wpt lat="53.3627800" lon="-1.7029800"/>
    <wpt lat="53.3615900" lon="-1.7029000"/>
    <wpt lat="53.3612600" lon="-1.7035000"/>
    <wpt lat="53.3612000" lon="-1.7040300"/>
    <wpt lat="53.3608000" lon="-1.7040900"/>
    <wpt lat="53.3596600" lon="-1.7051300"/>
    <wpt lat="53.3617600" lon="-1.7047600"/>
    <wpt lat="53.3619000" lon="-1.7049100"/>
    <wpt lat="53.3617900" lon="-1.7054400"/>
    <wpt lat="53.3624300" lon="-1.7107300"/>
    <wpt lat="53.3623800" lon="-1.7129000"/>
    <wpt lat="53.3625700" lon="-1.7135400"/>
    <wpt lat="53.3624900" lon="-1.7171400"/>
    <wpt lat="53.3628000" lon="-1.7190100"/>
    <wpt lat="53.3626100" lon="-1.7201400"/>
    <wpt lat="53.3622600" lon="-1.7210400"/>
    <wpt lat="53.3622900" lon="-1.7225100"/>
    <wpt lat="53.3619900" lon="-1.7270100"/>
    <wpt lat="53.3622000" lon="-1.7299200"/>
    <wpt lat="53.3630500" lon="-1.7349700"/>
    <wpt lat="53.3632900" lon="-1.7354400"/>
    <wpt lat="53.3659700" lon="-1.7379600"/>
    <wpt lat="53.3662700" lon="-1.7384600"/>
    <wpt lat="53.3668600" lon="-1.7388000"/>
    <wpt lat="53.3677200" lon="-1.7403000"/>
    <wpt lat="53.3710600" lon="-1.7428800"/>
    <wpt lat="53.3713400" lon="-1.7429400"/>
    <wpt lat="53.3718300" lon="-1.7414100"/>
    <wpt lat="53.3724000" lon="-1.7406200"/>
    <wpt lat="53.3726400" lon="-1.7406000"/>
    <wpt lat="53.3737900" lon="-1.7415800"/>
    <wpt lat="53.3756100" lon="-1.7385500"/>
    <wpt lat="53.3764300" lon="-1.7395500"/>
    <wpt lat="53.3782800" lon="-1.7427800"/>
    <wpt lat="53.3776600" lon="-1.7387200"/>
    <wpt lat="53.3768400" lon="-1.7365200"/>
    <wpt lat="53.3754600" lon="-1.7343400"/>
    <wpt lat="53.3734200" lon="-1.7324500"/>
    <wpt lat="53.3729100" lon="-1.7323200"/>
    <wpt lat="53.3716900" lon="-1.7301500"/>
    <wpt lat="53.3707200" lon="-1.7278500"/>
    <wpt lat="53.3704900" lon="-1.7250100"/>
    <wpt lat="53.3703200" lon="-1.7244400"/>
    <wpt lat="53.3705200" lon="-1.7233100"/>
    <wpt lat="53.3703600" lon="-1.7200500"/>
    <wpt lat="53.3711000" lon="-1.7182500"/>
    <wpt lat="53.3715300" lon="-1.7152100"/>
    <wpt lat="53.3714300" lon="-1.7112300"/>
    <wpt lat="53.3717700" lon="-1.7102700"/>
    <wpt lat="53.3717200" lon="-1.7072900"/>
    <wpt lat="53.3713900" lon="-1.7064800"/>
    <wpt lat="53.3705400" lon="-1.7056500"/>
    <wpt lat="53.3686900" lon="-1.7047900"/>
    <wpt lat="53.3676200" lon="-1.7038400"/>
    <wpt lat="53.3668800" lon="-1.7039900"/>
    <wpt lat="53.3665000" lon="-1.7044200"/>
    <wpt lat="53.3660700" lon="-1.7042600"/>
    <wpt lat="53.3655700" lon="-1.6990900"/>
    <wpt lat="53.3654400" lon="-1.6987800"/>
    <wpt lat="53.3656200" lon="-1.6985700"/>
    <wpt lat="53.3654500" lon="-1.6982700"/>
    <wpt lat="53.3657200" lon="-1.6979300"/>
    <wpt lat="53.3691800" lon="-1.6974400"/>
    <trk>
        <name>Win Hill (Ethel) - Circular (www.thelostpeak.co.uk)</name>
        <trkseg>
            <trkpt lat="53.3691800" lon="-1.6974400"><ele>217.0</ele></trkpt>
            <trkpt lat="53.3688200" lon="-1.6973600"><ele>219.6</ele></trkpt>
            <trkpt lat="53.3687300" lon="-1.6973900"><ele>219.9</ele></trkpt>
            <trkpt lat="53.3685500" lon="-1.6975400"><ele>219.5</ele></trkpt>
            <trkpt lat="53.3683500" lon="-1.6976000"><ele>220.8</ele></trkpt>
            <trkpt lat="53.3673600" lon="-1.6976700"><ele>215.5</ele></trkpt>
            <trkpt lat="53.3668300" lon="-1.6977500"><ele>217.0</ele></trkpt>
            <trkpt lat="53.3665400" lon="-1.6977600"><ele>216.3</ele></trkpt>
            <trkpt lat="53.3657200" lon="-1.6979300"><ele>217.6</ele></trkpt>
            <trkpt lat="53.3656700" lon="-1.6979600"><ele>216.9</ele></trkpt>
            <trkpt lat="53.3655300" lon="-1.6981700"><ele>213.1</ele></trkpt>
            <trkpt lat="53.3654800" lon="-1.6982100"><ele>212.7</ele></trkpt>
            <trkpt lat="53.3654500" lon="-1.6982700"><ele>212.2</ele></trkpt>
            <trkpt lat="53.3654700" lon="-1.6983400"><ele>210.9</ele></trkpt>
            <trkpt lat="53.3655600" lon="-1.6983700"><ele>210.7</ele></trkpt>
            <trkpt lat="53.3656100" lon="-1.6984100"><ele>209.9</ele></trkpt>
            <trkpt lat="53.3656200" lon="-1.6985700"><ele>207.7</ele></trkpt>
            <trkpt lat="53.3655400" lon="-1.6986300"><ele>207.5</ele></trkpt>
            <trkpt lat="53.3654800" lon="-1.6987000"><ele>206.8</ele></trkpt>
            <trkpt lat="53.3651600" lon="-1.6988800"><ele>204.6</ele></trkpt>
            <trkpt lat="53.3647800" lon="-1.6990300"><ele>203.5</ele></trkpt>
            <trkpt lat="53.3646000" lon="-1.6990400"><ele>203.8</ele></trkpt>
            <trkpt lat="53.3641100" lon="-1.6989900"><ele>202.6</ele></trkpt>
            <trkpt lat="53.3634400" lon="-1.6988600"><ele>203.1</ele></trkpt>
            <trkpt lat="53.3631000" lon="-1.6987700"><ele>203.6</ele></trkpt>
            <trkpt lat="53.3630700" lon="-1.6988300"><ele>203.1</ele></trkpt>
            <trkpt lat="53.3630600" lon="-1.6989100"><ele>202.3</ele></trkpt>
            <trkpt lat="53.3630600" lon="-1.6989900"><ele>201.6</ele></trkpt>
            <trkpt lat="53.3631000" lon="-1.6992200"><ele>200.1</ele></trkpt>
            <trkpt lat="53.3630800" lon="-1.6993900"><ele>198.5</ele></trkpt>
            <trkpt lat="53.3628800" lon="-1.7002500"><ele>188.3</ele></trkpt>
            <trkpt lat="53.3626300" lon="-1.7008300"><ele>182.4</ele></trkpt>
            <trkpt lat="53.3624800" lon="-1.7013300"><ele>179.5</ele></trkpt>
            <trkpt lat="53.3624600" lon="-1.7014900"><ele>178.3</ele></trkpt>
            <trkpt lat="53.3624900" lon="-1.7015500"><ele>178.1</ele></trkpt>
            <trkpt lat="53.3625400" lon="-1.7015500"><ele>178.1</ele></trkpt>
            <trkpt lat="53.3626200" lon="-1.7014700"><ele>178.3</ele></trkpt>
            <trkpt lat="53.3627100" lon="-1.7014200"><ele>178.7</ele></trkpt>
            <trkpt lat="53.3628100" lon="-1.7014000"><ele>178.7</ele></trkpt>
            <trkpt lat="53.3628500" lon="-1.7014100"><ele>178.8</ele></trkpt>
            <trkpt lat="53.3628800" lon="-1.7014800"><ele>178.3</ele></trkpt>
            <trkpt lat="53.3628800" lon="-1.7016300"><ele>177.5</ele></trkpt>
            <trkpt lat="53.3628700" lon="-1.7016700"><ele>177.2</ele></trkpt>
            <trkpt lat="53.3628800" lon="-1.7020300"><ele>174.4</ele></trkpt>
            <trkpt lat="53.3629500" lon="-1.7022400"><ele>173.5</ele></trkpt>
            <trkpt lat="53.3630700" lon="-1.7023900"><ele>172.9</ele></trkpt>
            <trkpt lat="53.3631300" lon="-1.7025100"><ele>172.3</ele></trkpt>
            <trkpt lat="53.3631200" lon="-1.7025800"><ele>172.3</ele></trkpt>
            <trkpt lat="53.3630900" lon="-1.7026400"><ele>172.2</ele></trkpt>
            <trkpt lat="53.3628700" lon="-1.7029400"><ele>172.1</ele></trkpt>
            <trkpt lat="53.3627800" lon="-1.7029800"><ele>172.1</ele></trkpt>
            <trkpt lat="53.3624400" lon="-1.7029800"><ele>172.4</ele></trkpt>
            <trkpt lat="53.3615900" lon="-1.7029000"><ele>168.8</ele></trkpt>
            <trkpt lat="53.3615400" lon="-1.7030300"><ele>168.7</ele></trkpt>
            <trkpt lat="53.3613800" lon="-1.7032300"><ele>168.4</ele></trkpt>
            <trkpt lat="53.3613100" lon="-1.7033600"><ele>168.4</ele></trkpt>
            <trkpt lat="53.3612600" lon="-1.7035000"><ele>168.7</ele></trkpt>
            <trkpt lat="53.3612400" lon="-1.7038600"><ele>171.2</ele></trkpt>
            <trkpt lat="53.3612000" lon="-1.7040300"><ele>173.8</ele></trkpt>
            <trkpt lat="53.3611500" lon="-1.7040700"><ele>174.3</ele></trkpt>
            <trkpt lat="53.3608900" lon="-1.7040600"><ele>172.6</ele></trkpt>
            <trkpt lat="53.3608000" lon="-1.7040900"><ele>172.8</ele></trkpt>
            <trkpt lat="53.3606600" lon="-1.7042100"><ele>173.3</ele></trkpt>
            <trkpt lat="53.3598900" lon="-1.7049900"><ele>181.7</ele></trkpt>
            <trkpt lat="53.3597000" lon="-1.7050900"><ele>183.5</ele></trkpt>
            <trkpt lat="53.3596600" lon="-1.7051300"><ele>184.3</ele></trkpt>
            <trkpt lat="53.3597000" lon="-1.7051800"><ele>185.1</ele></trkpt>
            <trkpt lat="53.3597300" lon="-1.7051800"><ele>185.1</ele></trkpt>
            <trkpt lat="53.3612100" lon="-1.7048300"><ele>190.1</ele></trkpt>
            <trkpt lat="53.3617600" lon="-1.7047600"><ele>190.5</ele></trkpt>
            <trkpt lat="53.3618600" lon="-1.7047800"><ele>191.8</ele></trkpt>
            <trkpt lat="53.3618900" lon="-1.7048300"><ele>192.8</ele></trkpt>
            <trkpt lat="53.3619000" lon="-1.7049100"><ele>194.8</ele></trkpt>
            <trkpt lat="53.3618300" lon="-1.7051400"><ele>199.9</ele></trkpt>
            <trkpt lat="53.3618000" lon="-1.7052900"><ele>203.7</ele></trkpt>
            <trkpt lat="53.3617900" lon="-1.7054400"><ele>206.3</ele></trkpt>
            <trkpt lat="53.3619300" lon="-1.7063500"><ele>226.8</ele></trkpt>
            <trkpt lat="53.3620000" lon="-1.7066700"><ele>235.2</ele></trkpt>
            <trkpt lat="53.3620600" lon="-1.7074500"><ele>256.3</ele></trkpt>
            <trkpt lat="53.3620500" lon="-1.7076900"><ele>261.7</ele></trkpt>
            <trkpt lat="53.3621100" lon="-1.7083700"><ele>276.3</ele></trkpt>
            <trkpt lat="53.3621300" lon="-1.7085400"><ele>281.0</ele></trkpt>
            <trkpt lat="53.3622300" lon="-1.7089500"><ele>291.4</ele></trkpt>
            <trkpt lat="53.3622300" lon="-1.7091100"><ele>294.8</ele></trkpt>
            <trkpt lat="53.3623200" lon="-1.7097700"><ele>306.8</ele></trkpt>
            <trkpt lat="53.3623200" lon="-1.7099200"><ele>309.8</ele></trkpt>
            <trkpt lat="53.3624300" lon="-1.7107300"><ele>327.9</ele></trkpt>
            <trkpt lat="53.3624300" lon="-1.7108800"><ele>331.6</ele></trkpt>
            <trkpt lat="53.3624000" lon="-1.7111200"><ele>336.2</ele></trkpt>
            <trkpt lat="53.3624000" lon="-1.7112800"><ele>339.7</ele></trkpt>
            <trkpt lat="53.3624200" lon="-1.7114600"><ele>343.1</ele></trkpt>
            <trkpt lat="53.3624200" lon="-1.7117800"><ele>349.0</ele></trkpt>
            <trkpt lat="53.3623800" lon="-1.7123000"><ele>356.1</ele></trkpt>
            <trkpt lat="53.3623800" lon="-1.7123800"><ele>357.1</ele></trkpt>
            <trkpt lat="53.3624100" lon="-1.7125200"><ele>358.8</ele></trkpt>
            <trkpt lat="53.3624200" lon="-1.7126800"><ele>360.8</ele></trkpt>
            <trkpt lat="53.3623800" lon="-1.7129000"><ele>362.9</ele></trkpt>
            <trkpt lat="53.3624100" lon="-1.7129800"><ele>363.9</ele></trkpt>
            <trkpt lat="53.3624700" lon="-1.7130500"><ele>364.7</ele></trkpt>
            <trkpt lat="53.3625500" lon="-1.7133500"><ele>368.1</ele></trkpt>
            <trkpt lat="53.3625700" lon="-1.7135400"><ele>370.4</ele></trkpt>
            <trkpt lat="53.3625700" lon="-1.7141800"><ele>379.3</ele></trkpt>
            <trkpt lat="53.3624700" lon="-1.7146900"><ele>385.2</ele></trkpt>
            <trkpt lat="53.3625400" lon="-1.7152400"><ele>391.5</ele></trkpt>
            <trkpt lat="53.3625200" lon="-1.7157600"><ele>397.6</ele></trkpt>
            <trkpt lat="53.3625800" lon="-1.7161500"><ele>402.3</ele></trkpt>
            <trkpt lat="53.3625000" lon="-1.7168200"><ele>410.9</ele></trkpt>
            <trkpt lat="53.3624900" lon="-1.7171400"><ele>416.0</ele></trkpt>
            <trkpt lat="53.3625100" lon="-1.7172900"><ele>418.3</ele></trkpt>
            <trkpt lat="53.3625700" lon="-1.7175200"><ele>423.0</ele></trkpt>
            <trkpt lat="53.3626400" lon="-1.7180600"><ele>429.9</ele></trkpt>
            <trkpt lat="53.3627200" lon="-1.7183900"><ele>434.6</ele></trkpt>
            <trkpt lat="53.3627700" lon="-1.7188600"><ele>441.2</ele></trkpt>
            <trkpt lat="53.3628000" lon="-1.7190100"><ele>442.3</ele></trkpt>
            <trkpt lat="53.3627800" lon="-1.7191600"><ele>444.3</ele></trkpt>
            <trkpt lat="53.3627000" lon="-1.7193500"><ele>446.8</ele></trkpt>
            <trkpt lat="53.3626900" lon="-1.7194300"><ele>447.8</ele></trkpt>
            <trkpt lat="53.3626900" lon="-1.7197500"><ele>449.3</ele></trkpt>
            <trkpt lat="53.3626100" lon="-1.7201400"><ele>449.0</ele></trkpt>
            <trkpt lat="53.3625000" lon="-1.7204200"><ele>449.7</ele></trkpt>
            <trkpt lat="53.3622900" lon="-1.7208900"><ele>448.7</ele></trkpt>
            <trkpt lat="53.3622600" lon="-1.7210400"><ele>447.9</ele></trkpt>
            <trkpt lat="53.3622400" lon="-1.7215800"><ele>444.1</ele></trkpt>
            <trkpt lat="53.3622600" lon="-1.7220400"><ele>440.8</ele></trkpt>
            <trkpt lat="53.3622900" lon="-1.7221900"><ele>440.2</ele></trkpt>
            <trkpt lat="53.3622900" lon="-1.7225100"><ele>439.4</ele></trkpt>
            <trkpt lat="53.3622000" lon="-1.7229600"><ele>438.0</ele></trkpt>
            <trkpt lat="53.3622000" lon="-1.7233600"><ele>436.4</ele></trkpt>
            <trkpt lat="53.3621400" lon="-1.7238400"><ele>436.0</ele></trkpt>
            <trkpt lat="53.3621300" lon="-1.7241700"><ele>436.6</ele></trkpt>
            <trkpt lat="53.3621000" lon="-1.7244900"><ele>436.3</ele></trkpt>
            <trkpt lat="53.3620900" lon="-1.7249800"><ele>436.3</ele></trkpt>
            <trkpt lat="53.3620200" lon="-1.7256200"><ele>435.7</ele></trkpt>
            <trkpt lat="53.3620300" lon="-1.7261100"><ele>435.5</ele></trkpt>
            <trkpt lat="53.3620500" lon="-1.7264400"><ele>434.7</ele></trkpt>
            <trkpt lat="53.3620000" lon="-1.7268100"><ele>433.1</ele></trkpt>
            <trkpt lat="53.3619900" lon="-1.7270100"><ele>432.7</ele></trkpt>
            <trkpt lat="53.3620600" lon="-1.7274300"><ele>433.6</ele></trkpt>
            <trkpt lat="53.3620700" lon="-1.7275900"><ele>433.7</ele></trkpt>
            <trkpt lat="53.3621300" lon="-1.7279700"><ele>433.6</ele></trkpt>
            <trkpt lat="53.3621100" lon="-1.7282900"><ele>432.7</ele></trkpt>
            <trkpt lat="53.3621200" lon="-1.7287000"><ele>432.1</ele></trkpt>
            <trkpt lat="53.3621400" lon="-1.7288600"><ele>432.7</ele></trkpt>
            <trkpt lat="53.3621700" lon="-1.7295300"><ele>432.4</ele></trkpt>
            <trkpt lat="53.3622000" lon="-1.7299200"><ele>430.0</ele></trkpt>
            <trkpt lat="53.3622400" lon="-1.7301200"><ele>430.1</ele></trkpt>
            <trkpt lat="53.3623500" lon="-1.7309700"><ele>429.3</ele></trkpt>
            <trkpt lat="53.3624900" lon="-1.7315300"><ele>428.1</ele></trkpt>
            <trkpt lat="53.3625800" lon="-1.7323300"><ele>424.8</ele></trkpt>
            <trkpt lat="53.3627800" lon="-1.7331200"><ele>425.5</ele></trkpt>
            <trkpt lat="53.3630500" lon="-1.7349700"><ele>421.6</ele></trkpt>
            <trkpt lat="53.3631400" lon="-1.7351400"><ele>422.1</ele></trkpt>
            <trkpt lat="53.3631900" lon="-1.7352700"><ele>422.2</ele></trkpt>
            <trkpt lat="53.3632900" lon="-1.7354400"><ele>422.6</ele></trkpt>
            <trkpt lat="53.3635800" lon="-1.7357200"><ele>422.8</ele></trkpt>
            <trkpt lat="53.3636700" lon="-1.7357800"><ele>422.8</ele></trkpt>
            <trkpt lat="53.3638300" lon="-1.7358500"><ele>422.7</ele></trkpt>
            <trkpt lat="53.3644500" lon="-1.7364700"><ele>417.6</ele></trkpt>
            <trkpt lat="53.3645900" lon="-1.7366900"><ele>417.0</ele></trkpt>
            <trkpt lat="53.3650100" lon="-1.7371800"><ele>414.6</ele></trkpt>
            <trkpt lat="53.3652900" lon="-1.7373400"><ele>412.7</ele></trkpt>
            <trkpt lat="53.3653700" lon="-1.7374200"><ele>411.9</ele></trkpt>
            <trkpt lat="53.3654400" lon="-1.7375200"><ele>411.2</ele></trkpt>
            <trkpt lat="53.3656200" lon="-1.7377000"><ele>409.9</ele></trkpt>
            <trkpt lat="53.3659700" lon="-1.7379600"><ele>408.6</ele></trkpt>
            <trkpt lat="53.3660800" lon="-1.7381100"><ele>408.7</ele></trkpt>
            <trkpt lat="53.3662000" lon="-1.7383600"><ele>406.6</ele></trkpt>
            <trkpt lat="53.3662700" lon="-1.7384600"><ele>405.3</ele></trkpt>
            <trkpt lat="53.3667700" lon="-1.7387300"><ele>402.8</ele></trkpt>
            <trkpt lat="53.3668600" lon="-1.7388000"><ele>402.1</ele></trkpt>
            <trkpt lat="53.3669300" lon="-1.7389000"><ele>401.2</ele></trkpt>
            <trkpt lat="53.3670200" lon="-1.7390900"><ele>400.4</ele></trkpt>
            <trkpt lat="53.3672000" lon="-1.7393900"><ele>399.0</ele></trkpt>
            <trkpt lat="53.3672900" lon="-1.7395900"><ele>397.3</ele></trkpt>
            <trkpt lat="53.3677200" lon="-1.7403000"><ele>392.7</ele></trkpt>
            <trkpt lat="53.3679900" lon="-1.7405600"><ele>390.7</ele></trkpt>
            <trkpt lat="53.3684900" lon="-1.7409600"><ele>386.2</ele></trkpt>
            <trkpt lat="53.3688700" lon="-1.7413100"><ele>381.8</ele></trkpt>
            <trkpt lat="53.3692800" lon="-1.7415900"><ele>379.7</ele></trkpt>
            <trkpt lat="53.3695100" lon="-1.7417800"><ele>378.0</ele></trkpt>
            <trkpt lat="53.3698100" lon="-1.7419800"><ele>376.1</ele></trkpt>
            <trkpt lat="53.3699600" lon="-1.7420600"><ele>375.0</ele></trkpt>
            <trkpt lat="53.3706700" lon="-1.7425400"><ele>373.0</ele></trkpt>
            <trkpt lat="53.3709700" lon="-1.7428200"><ele>370.7</ele></trkpt>
            <trkpt lat="53.3710600" lon="-1.7428800"><ele>370.2</ele></trkpt>
            <trkpt lat="53.3711800" lon="-1.7429200"><ele>369.7</ele></trkpt>
            <trkpt lat="53.3713400" lon="-1.7429400"><ele>369.0</ele></trkpt>
            <trkpt lat="53.3714000" lon="-1.7428100"><ele>369.7</ele></trkpt>
            <trkpt lat="53.3714700" lon="-1.7424600"><ele>370.4</ele></trkpt>
            <trkpt lat="53.3716300" lon="-1.7422400"><ele>371.7</ele></trkpt>
            <trkpt lat="53.3716600" lon="-1.7421700"><ele>371.7</ele></trkpt>
            <trkpt lat="53.3717000" lon="-1.7419200"><ele>371.7</ele></trkpt>
            <trkpt lat="53.3718300" lon="-1.7414100"><ele>372.0</ele></trkpt>
            <trkpt lat="53.3721800" lon="-1.7408400"><ele>367.7</ele></trkpt>
            <trkpt lat="53.3723500" lon="-1.7406500"><ele>364.9</ele></trkpt>
            <trkpt lat="53.3724000" lon="-1.7406200"><ele>364.1</ele></trkpt>
            <trkpt lat="53.3725400" lon="-1.7405800"><ele>363.3</ele></trkpt>
            <trkpt lat="53.3726400" lon="-1.7406000"><ele>363.1</ele></trkpt>
            <trkpt lat="53.3729100" lon="-1.7409500"><ele>364.8</ele></trkpt>
            <trkpt lat="53.3730800" lon="-1.7410800"><ele>364.9</ele></trkpt>
            <trkpt lat="53.3733200" lon="-1.7412100"><ele>363.3</ele></trkpt>
            <trkpt lat="53.3735500" lon="-1.7414000"><ele>362.3</ele></trkpt>
            <trkpt lat="53.3737400" lon="-1.7416100"><ele>361.6</ele></trkpt>
            <trkpt lat="53.3737900" lon="-1.7415800"><ele>360.7</ele></trkpt>
            <trkpt lat="53.3750600" lon="-1.7395400"><ele>333.1</ele></trkpt>
            <trkpt lat="53.3750900" lon="-1.7394800"><ele>331.8</ele></trkpt>
            <trkpt lat="53.3751300" lon="-1.7393400"><ele>330.2</ele></trkpt>
            <trkpt lat="53.3752500" lon="-1.7392100"><ele>327.2</ele></trkpt>
            <trkpt lat="53.3754300" lon="-1.7389700"><ele>323.6</ele></trkpt>
            <trkpt lat="53.3755200" lon="-1.7386200"><ele>321.0</ele></trkpt>
            <trkpt lat="53.3755600" lon="-1.7385700"><ele>319.5</ele></trkpt>
            <trkpt lat="53.3756100" lon="-1.7385500"><ele>317.9</ele></trkpt>
            <trkpt lat="53.3756900" lon="-1.7385700"><ele>315.5</ele></trkpt>
            <trkpt lat="53.3760500" lon="-1.7390800"><ele>306.1</ele></trkpt>
            <trkpt lat="53.3764300" lon="-1.7395500"><ele>290.9</ele></trkpt>
            <trkpt lat="53.3764600" lon="-1.7396200"><ele>290.3</ele></trkpt>
            <trkpt lat="53.3765200" lon="-1.7398400"><ele>288.3</ele></trkpt>
            <trkpt lat="53.3765800" lon="-1.7399700"><ele>286.9</ele></trkpt>
            <trkpt lat="53.3767000" lon="-1.7401300"><ele>283.0</ele></trkpt>
            <trkpt lat="53.3772300" lon="-1.7410500"><ele>267.2</ele></trkpt>
            <trkpt lat="53.3778100" lon="-1.7418000"><ele>246.5</ele></trkpt>
            <trkpt lat="53.3779100" lon="-1.7419900"><ele>243.5</ele></trkpt>
            <trkpt lat="53.3779500" lon="-1.7420400"><ele>242.6</ele></trkpt>
            <trkpt lat="53.3780700" lon="-1.7423100"><ele>240.2</ele></trkpt>
            <trkpt lat="53.3782400" lon="-1.7427500"><ele>237.0</ele></trkpt>
            <trkpt lat="53.3782800" lon="-1.7427800"><ele>235.0</ele></trkpt>
            <trkpt lat="53.3783000" lon="-1.7427100"><ele>232.3</ele></trkpt>
            <trkpt lat="53.3782400" lon="-1.7424100"><ele>230.9</ele></trkpt>
            <trkpt lat="53.3782200" lon="-1.7420700"><ele>226.5</ele></trkpt>
            <trkpt lat="53.3779700" lon="-1.7411500"><ele>231.9</ele></trkpt>
            <trkpt lat="53.3779200" lon="-1.7408600"><ele>230.6</ele></trkpt>
            <trkpt lat="53.3779000" lon="-1.7406800"><ele>229.5</ele></trkpt>
            <trkpt lat="53.3779000" lon="-1.7403900"><ele>225.8</ele></trkpt>
            <trkpt lat="53.3778600" lon="-1.7398600"><ele>220.3</ele></trkpt>
            <trkpt lat="53.3776600" lon="-1.7387200"><ele>215.8</ele></trkpt>
            <trkpt lat="53.3775300" lon="-1.7383000"><ele>213.0</ele></trkpt>
            <trkpt lat="53.3773900" lon="-1.7380500"><ele>215.1</ele></trkpt>
            <trkpt lat="53.3773400" lon="-1.7379100"><ele>219.8</ele></trkpt>
            <trkpt lat="53.3772200" lon="-1.7376600"><ele>230.7</ele></trkpt>
            <trkpt lat="53.3771500" lon="-1.7374400"><ele>232.9</ele></trkpt>
            <trkpt lat="53.3771100" lon="-1.7372100"><ele>230.6</ele></trkpt>
            <trkpt lat="53.3770200" lon="-1.7370100"><ele>233.4</ele></trkpt>
            <trkpt lat="53.3769500" lon="-1.7367800"><ele>231.5</ele></trkpt>
            <trkpt lat="53.3768400" lon="-1.7365200"><ele>231.0</ele></trkpt>
            <trkpt lat="53.3764300" lon="-1.7357500"><ele>232.5</ele></trkpt>
            <trkpt lat="53.3759000" lon="-1.7349400"><ele>238.5</ele></trkpt>
            <trkpt lat="53.3754600" lon="-1.7343400"><ele>237.1</ele></trkpt>
            <trkpt lat="53.3752100" lon="-1.7341100"><ele>238.8</ele></trkpt>
            <trkpt lat="53.3745500" lon="-1.7334500"><ele>237.2</ele></trkpt>
            <trkpt lat="53.3734200" lon="-1.7324500"><ele>225.7</ele></trkpt>
            <trkpt lat="53.3731300" lon="-1.7324700"><ele>225.9</ele></trkpt>
            <trkpt lat="53.3730300" lon="-1.7324500"><ele>226.7</ele></trkpt>
            <trkpt lat="53.3729100" lon="-1.7323200"><ele>225.2</ele></trkpt>
            <trkpt lat="53.3725600" lon="-1.7317400"><ele>225.0</ele></trkpt>
            <trkpt lat="53.3724000" lon="-1.7313600"><ele>223.7</ele></trkpt>
            <trkpt lat="53.3722400" lon="-1.7310500"><ele>223.0</ele></trkpt>
            <trkpt lat="53.3716900" lon="-1.7301500"><ele>218.1</ele></trkpt>
            <trkpt lat="53.3715400" lon="-1.7298000"><ele>215.8</ele></trkpt>
            <trkpt lat="53.3713100" lon="-1.7291600"><ele>214.6</ele></trkpt>
            <trkpt lat="53.3708200" lon="-1.7282500"><ele>216.1</ele></trkpt>
            <trkpt lat="53.3707200" lon="-1.7278500"><ele>212.9</ele></trkpt>
            <trkpt lat="53.3706800" lon="-1.7276200"><ele>212.0</ele></trkpt>
            <trkpt lat="53.3706600" lon="-1.7271800"><ele>209.6</ele></trkpt>
            <trkpt lat="53.3705700" lon="-1.7267100"><ele>209.0</ele></trkpt>
            <trkpt lat="53.3705300" lon="-1.7262500"><ele>209.3</ele></trkpt>
            <trkpt lat="53.3705200" lon="-1.7259400"><ele>209.7</ele></trkpt>
            <trkpt lat="53.3704900" lon="-1.7256300"><ele>210.2</ele></trkpt>
            <trkpt lat="53.3705000" lon="-1.7252000"><ele>210.5</ele></trkpt>
            <trkpt lat="53.3704900" lon="-1.7250100"><ele>210.6</ele></trkpt>
            <trkpt lat="53.3704800" lon="-1.7249300"><ele>210.7</ele></trkpt>
            <trkpt lat="53.3703500" lon="-1.7245900"><ele>214.2</ele></trkpt>
            <trkpt lat="53.3703200" lon="-1.7244400"><ele>216.1</ele></trkpt>
            <trkpt lat="53.3703200" lon="-1.7241300"><ele>216.6</ele></trkpt>
            <trkpt lat="53.3703300" lon="-1.7240600"><ele>215.8</ele></trkpt>
            <trkpt lat="53.3704100" lon="-1.7237600"><ele>213.1</ele></trkpt>
            <trkpt lat="53.3704600" lon="-1.7236300"><ele>211.8</ele></trkpt>
            <trkpt lat="53.3705000" lon="-1.7234700"><ele>211.3</ele></trkpt>
            <trkpt lat="53.3705200" lon="-1.7233100"><ele>211.0</ele></trkpt>
            <trkpt lat="53.3705200" lon="-1.7230600"><ele>213.7</ele></trkpt>
            <trkpt lat="53.3704800" lon="-1.7226600"><ele>222.3</ele></trkpt>
            <trkpt lat="53.3704300" lon="-1.7213700"><ele>226.3</ele></trkpt>
            <trkpt lat="53.3703600" lon="-1.7202100"><ele>232.1</ele></trkpt>
            <trkpt lat="53.3703600" lon="-1.7200500"><ele>232.6</ele></trkpt>
            <trkpt lat="53.3703800" lon="-1.7199800"><ele>232.0</ele></trkpt>
            <trkpt lat="53.3704400" lon="-1.7198600"><ele>231.3</ele></trkpt>
            <trkpt lat="53.3705700" lon="-1.7197400"><ele>228.8</ele></trkpt>
            <trkpt lat="53.3706300" lon="-1.7196200"><ele>229.1</ele></trkpt>
            <trkpt lat="53.3709500" lon="-1.7187600"><ele>236.5</ele></trkpt>
            <trkpt lat="53.3711000" lon="-1.7182500"><ele>235.8</ele></trkpt>
            <trkpt lat="53.3715300" lon="-1.7152100"><ele>234.4</ele></trkpt>
            <trkpt lat="53.3715700" lon="-1.7147200"><ele>232.2</ele></trkpt>
            <trkpt lat="53.3715800" lon="-1.7144600"><ele>230.4</ele></trkpt>
            <trkpt lat="53.3715500" lon="-1.7136500"><ele>229.9</ele></trkpt>
            <trkpt lat="53.3715500" lon="-1.7126400"><ele>228.5</ele></trkpt>
            <trkpt lat="53.3715200" lon="-1.7121300"><ele>230.4</ele></trkpt>
            <trkpt lat="53.3714600" lon="-1.7116200"><ele>229.5</ele></trkpt>
            <trkpt lat="53.3714300" lon="-1.7112300"><ele>229.5</ele></trkpt>
            <trkpt lat="53.3714900" lon="-1.7110000"><ele>228.1</ele></trkpt>
            <trkpt lat="53.3716500" lon="-1.7108100"><ele>224.1</ele></trkpt>
            <trkpt lat="53.3717100" lon="-1.7106800"><ele>223.3</ele></trkpt>
            <trkpt lat="53.3717300" lon="-1.7106100"><ele>223.9</ele></trkpt>
            <trkpt lat="53.3717700" lon="-1.7102700"><ele>226.2</ele></trkpt>
            <trkpt lat="53.3717800" lon="-1.7101100"><ele>226.2</ele></trkpt>
            <trkpt lat="53.3717700" lon="-1.7091100"><ele>224.4</ele></trkpt>
            <trkpt lat="53.3717800" lon="-1.7078600"><ele>218.9</ele></trkpt>
            <trkpt lat="53.3717600" lon="-1.7076000"><ele>215.4</ele></trkpt>
            <trkpt lat="53.3717200" lon="-1.7072900"><ele>216.2</ele></trkpt>
            <trkpt lat="53.3716800" lon="-1.7071400"><ele>217.1</ele></trkpt>
            <trkpt lat="53.3716100" lon="-1.7070200"><ele>216.9</ele></trkpt>
            <trkpt lat="53.3715600" lon="-1.7069000"><ele>215.9</ele></trkpt>
            <trkpt lat="53.3714600" lon="-1.7066000"><ele>213.3</ele></trkpt>
            <trkpt lat="53.3713900" lon="-1.7064800"><ele>213.2</ele></trkpt>
            <trkpt lat="53.3712700" lon="-1.7063300"><ele>214.0</ele></trkpt>
            <trkpt lat="53.3710800" lon="-1.7061400"><ele>215.5</ele></trkpt>
            <trkpt lat="53.3705400" lon="-1.7056500"><ele>218.8</ele></trkpt>
            <trkpt lat="53.3701700" lon="-1.7053700"><ele>219.4</ele></trkpt>
            <trkpt lat="53.3695200" lon="-1.7050600"><ele>225.1</ele></trkpt>
            <trkpt lat="53.3689800" lon="-1.7048600"><ele>222.7</ele></trkpt>
            <trkpt lat="53.3686900" lon="-1.7047900"><ele>224.0</ele></trkpt>
            <trkpt lat="53.3685200" lon="-1.7046700"><ele>223.8</ele></trkpt>
            <trkpt lat="53.3678000" lon="-1.7039600"><ele>215.0</ele></trkpt>
            <trkpt lat="53.3676200" lon="-1.7038400"><ele>212.1</ele></trkpt>
            <trkpt lat="53.3674700" lon="-1.7038200"><ele>211.6</ele></trkpt>
            <trkpt lat="53.3673700" lon="-1.7038400"><ele>212.3</ele></trkpt>
            <trkpt lat="53.3668800" lon="-1.7039900"><ele>219.7</ele></trkpt>
            <trkpt lat="53.3667500" lon="-1.7040900"><ele>220.3</ele></trkpt>
            <trkpt lat="53.3666300" lon="-1.7043400"><ele>222.6</ele></trkpt>
            <trkpt lat="53.3665900" lon="-1.7043800"><ele>222.4</ele></trkpt>
            <trkpt lat="53.3665000" lon="-1.7044200"><ele>222.6</ele></trkpt>
            <trkpt lat="53.3663700" lon="-1.7044200"><ele>222.2</ele></trkpt>
            <trkpt lat="53.3660700" lon="-1.7042600"><ele>215.5</ele></trkpt>
            <trkpt lat="53.3660400" lon="-1.7042000"><ele>213.4</ele></trkpt>
            <trkpt lat="53.3660300" lon="-1.7041300"><ele>212.7</ele></trkpt>
            <trkpt lat="53.3658500" lon="-1.7019900"><ele>201.7</ele></trkpt>
            <trkpt lat="53.3655700" lon="-1.6990900"><ele>202.7</ele></trkpt>
            <trkpt lat="53.3655300" lon="-1.6989500"><ele>203.8</ele></trkpt>
            <trkpt lat="53.3654600" lon="-1.6988400"><ele>205.3</ele></trkpt>
            <trkpt lat="53.3654400" lon="-1.6987800"><ele>205.9</ele></trkpt>
            <trkpt lat="53.3654500" lon="-1.6987200"><ele>206.4</ele></trkpt>
            <trkpt lat="53.3656200" lon="-1.6985700"><ele>207.7</ele></trkpt>
            <trkpt lat="53.3656100" lon="-1.6984100"><ele>209.9</ele></trkpt>
            <trkpt lat="53.3655600" lon="-1.6983700"><ele>210.7</ele></trkpt>
            <trkpt lat="53.3654700" lon="-1.6983400"><ele>210.9</ele></trkpt>
            <trkpt lat="53.3654500" lon="-1.6982700"><ele>212.2</ele></trkpt>
            <trkpt lat="53.3654800" lon="-1.6982100"><ele>212.7</ele></trkpt>
            <trkpt lat="53.3655300" lon="-1.6981700"><ele>213.1</ele></trkpt>
            <trkpt lat="53.3656700" lon="-1.6979600"><ele>216.9</ele></trkpt>
            <trkpt lat="53.3657200" lon="-1.6979300"><ele>217.6</ele></trkpt>
            <trkpt lat="53.3665400" lon="-1.6977600"><ele>216.3</ele></trkpt>
            <trkpt lat="53.3668300" lon="-1.6977500"><ele>217.0</ele></trkpt>
            <trkpt lat="53.3673600" lon="-1.6976700"><ele>215.5</ele></trkpt>
            <trkpt lat="53.3683500" lon="-1.6976000"><ele>220.8</ele></trkpt>
            <trkpt lat="53.3685500" lon="-1.6975400"><ele>219.5</ele></trkpt>
            <trkpt lat="53.3687300" lon="-1.6973900"><ele>219.9</ele></trkpt>
            <trkpt lat="53.3688200" lon="-1.6973600"><ele>219.6</ele></trkpt>
            <trkpt lat="53.3691800" lon="-1.6974400"><ele>217.0</ele></trkpt>
        </trkseg>
    </trk>
<!-- ele-hash:db469b96aa3984bb -->
</gpx>
