<?xml version="1.0" encoding="UTF-8" standalone="yes"?>
<gpx version="1.1" creator="OS Maps - Web" xmlns="http://www.topografix.com/GPX/1/1"
xmlns:xsi="http://www.w3.org/2001/XMLSchema-instance"
xsi:schemaLocation="http://www.topografix.com/GPX/1/1 http://www.topografix.com/GPX/1/1/gpx.xsd"
xmlns:gs="http://www.topografix.com/GPX/gpx_style/0/2"
xmlns:gh="https://graphhopper.com/public/schema/gpx/1.1"
xmlns:os="https://ordnancesurvey.co.uk/public/schema/route/0.1">
    <metadata>
        <name>Wolfscote Hill (Ethel) - Circular (www.thelostpeak.co.uk)</name>
        <desc>www.thelostpeak.co.uk</desc>
        <bounds minlat="53.1096620" minlon="-1.8107000" maxlat="53.1409320" maxlon="-1.7803590"/>
        <extensions>
            <os:version>2.0</os:version>
            <os:point lat="53.1408000" lon="-1.8101600" type="start"/>
            <os:point lat="53.1407800" lon="-1.8101700" type="end"/>
            <os:activity>ON_FOOT_WALKING</os:activity>
            <os:difficulty>MODERATE</os:difficulty>
            <os:paths/>
            <os:distance>12435.2203382</os:distance>
            <os:elevation_ascent>336.1100000</os:elevation_ascent>
            <os:route_type>SINGLE</os:route_type>
        </extensions>
    </metadata>
    <wpt lat="53.1408000" lon="-1.8101600"/>
    <wpt lat="53.1228700" lon="-1.8060300"/>
    <wpt lat="53.1219300" lon="-1.7965500"/>
    <wpt lat="53.1407800" lon="-1.8101700"/>
    <trk>
        <name>Wolfscote Hill (Ethel) - Circular (www.thelostpeak.co.uk)</name>
        <trkseg>
            <trkpt lat="53.1408000" lon="-1.8101600"><ele>230.1</ele></trkpt>
            <trkpt lat="53.1409320" lon="-1.8101270"><ele>230.5</ele></trkpt>
            <trkpt lat="53.1409260" lon="-1.8098530"><ele>231.1</ele></trkpt>
            <trkpt lat="53.1407540" lon="-1.8094310"><ele>231.4</ele></trkpt>
            <trkpt lat="53.1406880" lon="-1.8085440"><ele>232.9</ele></trkpt>
            <trkpt lat="53.1402500" lon="-1.8083990"><ele>235.3</ele></trkpt>
            <trkpt lat="53.1401720" lon="-1.8083390"><ele>236.4</ele></trkpt>
            <trkpt lat="53.1400980" lon="-1.8081790"><ele>238.1</ele></trkpt>
            <trkpt lat="53.1399770" lon="-1.8074820"><ele>243.7</ele></trkpt>
            <trkpt lat="53.1397860" lon="-1.8051400"><ele>266.1</ele></trkpt>
            <trkpt lat="53.1397560" lon="-1.8045690"><ele>269.2</ele></trkpt>
            <trkpt lat="53.1398090" lon="-1.8036090"><ele>276.8</ele></trkpt>
            <trkpt lat="53.1397160" lon="-1.8035970"><ele>277.4</ele></trkpt>
            <trkpt lat="53.1396330" lon="-1.8034760"><ele>277.4</ele></trkpt>
            <trkpt lat="53.1395260" lon="-1.8028300"><ele>276.6</ele></trkpt>
            <trkpt lat="53.1390560" lon="-1.8011260"><ele>281.7</ele></trkpt>
            <trkpt lat="53.1386020" lon="-1.7998090"><ele>286.7</ele></trkpt>
            <trkpt lat="53.1385710" lon="-1.7995350"><ele>288.0</ele></trkpt>
            <trkpt lat="53.1385840" lon="-1.7995170"><ele>288.2</ele></trkpt>
            <trkpt lat="53.1380440" lon="-1.7980560"><ele>295.8</ele></trkpt>
            <trkpt lat="53.1379090" lon="-1.7974030"><ele>297.2</ele></trkpt>
            <trkpt lat="53.1378560" lon="-1.7972360"><ele>297.2</ele></trkpt>
            <trkpt lat="53.1376360" lon="-1.7968830"><ele>297.6</ele></trkpt>
            <trkpt lat="53.1372000" lon="-1.7958780"><ele>297.3</ele></trkpt>
            <trkpt lat="53.1364830" lon="-1.7945150"><ele>306.0</ele></trkpt>
            <trkpt lat="53.1361730" lon="-1.7937700"><ele>311.1</ele></trkpt>
            <trkpt lat="53.1357280" lon="-1.7922890"><ele>316.3</ele></trkpt>
            <trkpt lat="53.1352130" lon="-1.7900470"><ele>317.1</ele></trkpt>
            <trkpt lat="53.1350510" lon="-1.7892490"><ele>314.6</ele></trkpt>
            <trkpt lat="53.1349510" lon="-1.7884760"><ele>312.3</ele></trkpt>
            <trkpt lat="53.1348470" lon="-1.7880530"><ele>311.4</ele></trkpt>
            <trkpt lat="53.1346500" lon="-1.7874870"><ele>311.0</ele></trkpt>
            <trkpt lat="53.1343660" lon="-1.7857540"><ele>306.4</ele></trkpt>
            <trkpt lat="53.1343050" lon="-1.7856090"><ele>305.6</ele></trkpt>
            <trkpt lat="53.1340200" lon="-1.7837880"><ele>294.4</ele></trkpt>
            <trkpt lat="53.1334490" lon="-1.7820810"><ele>281.2</ele></trkpt>
            <trkpt lat="53.1332220" lon="-1.7817100"><ele>280.1</ele></trkpt>
            <trkpt lat="53.1331440" lon="-1.7814070"><ele>279.7</ele></trkpt>
            <trkpt lat="53.1331450" lon="-1.7812520"><ele>279.5</ele></trkpt>
            <trkpt lat="53.1330050" lon="-1.7810990"><ele>278.7</ele></trkpt>
            <trkpt lat="53.1326830" lon="-1.7803590"><ele>279.7</ele></trkpt>
            <trkpt lat="53.1325350" lon="-1.7805990"><ele>279.3</ele></trkpt>
            <trkpt lat="53.1323330" lon="-1.7810970"><ele>277.1</ele></trkpt>
            <trkpt lat="53.1321920" lon="-1.7816240"><ele>277.5</ele></trkpt>
            <trkpt lat="53.1321140" lon="-1.7820560"><ele>277.3</ele></trkpt>
            <trkpt lat="53.1316920" lon="-1.7835910"><ele>276.9</ele></trkpt>
            <trkpt lat="53.1315830" lon="-1.7841750"><ele>274.6</ele></trkpt>
            <trkpt lat="53.1314690" lon="-1.7846450"><ele>272.4</ele></trkpt>
            <trkpt lat="53.1313170" lon="-1.7851480"><ele>271.7</ele></trkpt>
            <trkpt lat="53.1309960" lon="-1.7858100"><ele>271.6</ele></trkpt>
            <trkpt lat="53.1304200" lon="-1.7864750"><ele>271.3</ele></trkpt>
            <trkpt lat="53.1301000" lon="-1.7866660"><ele>270.7</ele></trkpt>
            <trkpt lat="53.1298310" lon="-1.7867320"><ele>270.8</ele></trkpt>
            <trkpt lat="53.1291100" lon="-1.7868130"><ele>268.9</ele></trkpt>
            <trkpt lat="53.1285180" lon="-1.7866790"><ele>267.7</ele></trkpt>
            <trkpt lat="53.1283440" lon="-1.7866090"><ele>267.6</ele></trkpt>
            <trkpt lat="53.1278290" lon="-1.7863350"><ele>267.9</ele></trkpt>
            <trkpt lat="53.1277630" lon="-1.7862690"><ele>267.6</ele></trkpt>
            <trkpt lat="53.1272950" lon="-1.7862630"><ele>266.0</ele></trkpt>
            <trkpt lat="53.1269280" lon="-1.7861750"><ele>265.6</ele></trkpt>
            <trkpt lat="53.1266620" lon="-1.7859420"><ele>264.2</ele></trkpt>
            <trkpt lat="53.1258510" lon="-1.7848880"><ele>256.2</ele></trkpt>
            <trkpt lat="53.1258310" lon="-1.7846010"><ele>256.8</ele></trkpt>
            <trkpt lat="53.1258670" lon="-1.7844650"><ele>258.0</ele></trkpt>
            <trkpt lat="53.1258390" lon="-1.7841920"><ele>259.8</ele></trkpt>
            <trkpt lat="53.1257400" lon="-1.7841850"><ele>259.2</ele></trkpt>
            <trkpt lat="53.1253130" lon="-1.7847580"><ele>252.3</ele></trkpt>
            <trkpt lat="53.1250830" lon="-1.7849700"><ele>252.0</ele></trkpt>
            <trkpt lat="53.1247620" lon="-1.7851750"><ele>252.6</ele></trkpt>
            <trkpt lat="53.1241760" lon="-1.7855160"><ele>250.2</ele></trkpt>
            <trkpt lat="53.1237870" lon="-1.7856580"><ele>250.5</ele></trkpt>
            <trkpt lat="53.1235370" lon="-1.7856340"><ele>251.2</ele></trkpt>
            <trkpt lat="53.1232780" lon="-1.7854880"><ele>248.1</ele></trkpt>
            <trkpt lat="53.1230140" lon="-1.7850840"><ele>243.2</ele></trkpt>
            <trkpt lat="53.1226540" lon="-1.7842300"><ele>243.6</ele></trkpt>
            <trkpt lat="53.1224190" lon="-1.7839130"><ele>243.9</ele></trkpt>
            <trkpt lat="53.1221300" lon="-1.7836150"><ele>243.6</ele></trkpt>
            <trkpt lat="53.1217810" lon="-1.7835590"><ele>242.4</ele></trkpt>
            <trkpt lat="53.1214810" lon="-1.7836540"><ele>241.9</ele></trkpt>
            <trkpt lat="53.1210640" lon="-1.7839670"><ele>241.0</ele></trkpt>
            <trkpt lat="53.1206370" lon="-1.7842000"><ele>238.5</ele></trkpt>
            <trkpt lat="53.1203080" lon="-1.7844270"><ele>237.9</ele></trkpt>
            <trkpt lat="53.1199330" lon="-1.7849050"><ele>238.7</ele></trkpt>
            <trkpt lat="53.1195550" lon="-1.7852550"><ele>238.7</ele></trkpt>
            <trkpt lat="53.1188040" lon="-1.7861200"><ele>236.6</ele></trkpt>
            <trkpt lat="53.1173850" lon="-1.7875400"><ele>233.6</ele></trkpt>
            <trkpt lat="53.1169910" lon="-1.7878090"><ele>230.1</ele></trkpt>
            <trkpt lat="53.1161330" lon="-1.7876380"><ele>225.2</ele></trkpt>
            <trkpt lat="53.1156120" lon="-1.7876520"><ele>221.7</ele></trkpt>
            <trkpt lat="53.1153530" lon="-1.7878120"><ele>221.2</ele></trkpt>
            <trkpt lat="53.1149000" lon="-1.7881800"><ele>224.0</ele></trkpt>
            <trkpt lat="53.1146120" lon="-1.7885410"><ele>225.1</ele></trkpt>
            <trkpt lat="53.1142240" lon="-1.7888360"><ele>221.7</ele></trkpt>
            <trkpt lat="53.1141310" lon="-1.7888610"><ele>220.2</ele></trkpt>
            <trkpt lat="53.1141230" lon="-1.7887710"><ele>220.0</ele></trkpt>
            <trkpt lat="53.1141310" lon="-1.7888610"><ele>220.2</ele></trkpt>
            <trkpt lat="53.1135810" lon="-1.7890060"><ele>218.6</ele></trkpt>
            <trkpt lat="53.1130130" lon="-1.7890280"><ele>216.9</ele></trkpt>
            <trkpt lat="53.1127300" lon="-1.7891340"><ele>215.8</ele></trkpt>
            <trkpt lat="53.1124380" lon="-1.7891040"><ele>216.2</ele></trkpt>
            <trkpt lat="53.1117940" lon="-1.7886710"><ele>214.4</ele></trkpt>
            <trkpt lat="53.1114950" lon="-1.7886280"><ele>214.7</ele></trkpt>
            <trkpt lat="53.1105920" lon="-1.7889460"><ele>212.6</ele></trkpt>
            <trkpt lat="53.1101960" lon="-1.7892530"><ele>208.7</ele></trkpt>
            <trkpt lat="53.1098710" lon="-1.7891930"><ele>204.8</ele></trkpt>
            <trkpt lat="53.1097650" lon="-1.7891390"><ele>203.3</ele></trkpt>
            <trkpt lat="53.1097050" lon="-1.7891770"><ele>203.0</ele></trkpt>
            <trkpt lat="53.1096620" lon="-1.7892970"><ele>203.0</ele></trkpt>
            <trkpt lat="53.1098190" lon="-1.7906070"><ele>211.4</ele></trkpt>
            <trkpt lat="53.1100820" lon="-1.7921820"><ele>209.2</ele></trkpt>
            <trkpt lat="53.1102840" lon="-1.7928080"><ele>211.2</ele></trkpt>
            <trkpt lat="53.1103790" lon="-1.7931820"><ele>210.9</ele></trkpt>
            <trkpt lat="53.1105230" lon="-1.7935600"><ele>211.2</ele></trkpt>
            <trkpt lat="53.1106130" lon="-1.7937370"><ele>210.6</ele></trkpt>
            <trkpt lat="53.1110920" lon="-1.7941760"><ele>206.0</ele></trkpt>
            <trkpt lat="53.1114540" lon="-1.7942270"><ele>208.4</ele></trkpt>
            <trkpt lat="53.1120160" lon="-1.7946180"><ele>210.1</ele></trkpt>
            <trkpt lat="53.1123280" lon="-1.7948940"><ele>210.9</ele></trkpt>
            <trkpt lat="53.1125960" lon="-1.7952110"><ele>210.2</ele></trkpt>
            <trkpt lat="53.1129010" lon="-1.7956460"><ele>209.6</ele></trkpt>
            <trkpt lat="53.1129610" lon="-1.7957740"><ele>209.3</ele></trkpt>
            <trkpt lat="53.1130560" lon="-1.7961020"><ele>208.1</ele></trkpt>
            <trkpt lat="53.1131700" lon="-1.7963200"><ele>208.7</ele></trkpt>
            <trkpt lat="53.1133390" lon="-1.7965800"><ele>208.2</ele></trkpt>
            <trkpt lat="53.1135470" lon="-1.7967910"><ele>209.1</ele></trkpt>
            <trkpt lat="53.1136620" lon="-1.7970210"><ele>210.2</ele></trkpt>
            <trkpt lat="53.1137930" lon="-1.7971870"><ele>211.2</ele></trkpt>
            <trkpt lat="53.1141390" lon="-1.7978200"><ele>213.2</ele></trkpt>
            <trkpt lat="53.1142630" lon="-1.7981400"><ele>214.1</ele></trkpt>
            <trkpt lat="53.1143450" lon="-1.7984380"><ele>213.7</ele></trkpt>
            <trkpt lat="53.1143610" lon="-1.7986620"><ele>212.9</ele></trkpt>
            <trkpt lat="53.1147130" lon="-1.7999290"><ele>209.2</ele></trkpt>
            <trkpt lat="53.1148810" lon="-1.8003780"><ele>209.0</ele></trkpt>
            <trkpt lat="53.1150070" lon="-1.8006280"><ele>208.8</ele></trkpt>
            <trkpt lat="53.1151840" lon="-1.8008560"><ele>211.0</ele></trkpt>
            <trkpt lat="53.1153930" lon="-1.8009310"><ele>212.7</ele></trkpt>
            <trkpt lat="53.1154690" lon="-1.8009950"><ele>212.8</ele></trkpt>
            <trkpt lat="53.1155700" lon="-1.8010020"><ele>213.2</ele></trkpt>
            <trkpt lat="53.1165470" lon="-1.8013990"><ele>213.8</ele></trkpt>
            <trkpt lat="53.1168580" lon="-1.8014630"><ele>211.9</ele></trkpt>
            <trkpt lat="53.1174780" lon="-1.8015200"><ele>212.8</ele></trkpt>
            <trkpt lat="53.1178910" lon="-1.8016450"><ele>212.7</ele></trkpt>
            <trkpt lat="53.1182430" lon="-1.8018290"><ele>213.0</ele></trkpt>
            <trkpt lat="53.1186810" lon="-1.8021750"><ele>210.7</ele></trkpt>
            <trkpt lat="53.1188790" lon="-1.8024210"><ele>213.4</ele></trkpt>
            <trkpt lat="53.1189800" lon="-1.8026110"><ele>214.1</ele></trkpt>
            <trkpt lat="53.1193520" lon="-1.8029410"><ele>215.8</ele></trkpt>
            <trkpt lat="53.1194970" lon="-1.8031080"><ele>215.4</ele></trkpt>
            <trkpt lat="53.1206150" lon="-1.8040530"><ele>218.7</ele></trkpt>
            <trkpt lat="53.1215950" lon="-1.8052700"><ele>220.1</ele></trkpt>
            <trkpt lat="53.1218330" lon="-1.8053820"><ele>222.0</ele></trkpt>
            <trkpt lat="53.1223570" lon="-1.8054720"><ele>221.7</ele></trkpt>
            <trkpt lat="53.1224890" lon="-1.8056040"><ele>220.5</ele></trkpt>
            <trkpt lat="53.1227260" lon="-1.8059480"><ele>219.7</ele></trkpt>
            <trkpt lat="53.1227220" lon="-1.8059670"><ele>219.1</ele></trkpt>
            <trkpt lat="53.1227880" lon="-1.8059770"><ele>219.7</ele></trkpt>
            <trkpt lat="53.1228700" lon="-1.8060300"><ele>220.0</ele></trkpt>
            <trkpt lat="53.1232400" lon="-1.8062600"><ele>220.5</ele></trkpt>
            <trkpt lat="53.1234700" lon="-1.8063300"><ele>222.5</ele></trkpt>
            <trkpt lat="53.1234500" lon="-1.8057000"><ele>230.1</ele></trkpt>
            <trkpt lat="53.1233600" lon="-1.8054300"><ele>232.4</ele></trkpt>
            <trkpt lat="53.1230700" lon="-1.8050400"><ele>234.8</ele></trkpt>
            <trkpt lat="53.1226800" lon="-1.8044400"><ele>242.3</ele></trkpt>
            <trkpt lat="53.1224900" lon="-1.8040200"><ele>250.3</ele></trkpt>
            <trkpt lat="53.1222700" lon="-1.8038100"><ele>254.1</ele></trkpt>
            <trkpt lat="53.1221400" lon="-1.8035700"><ele>256.8</ele></trkpt>
            <trkpt lat="53.1221500" lon="-1.8034400"><ele>258.3</ele></trkpt>
            <trkpt lat="53.1222600" lon="-1.8030500"><ele>262.8</ele></trkpt>
            <trkpt lat="53.1223200" lon="-1.8029100"><ele>264.5</ele></trkpt>
            <trkpt lat="53.1224300" lon="-1.8028100"><ele>265.4</ele></trkpt>
            <trkpt lat="53.1226200" lon="-1.8027000"><ele>267.9</ele></trkpt>
            <trkpt lat="53.1226300" lon="-1.8025400"><ele>269.7</ele></trkpt>
            <trkpt lat="53.1226100" lon="-1.8024900"><ele>270.1</ele></trkpt>
            <trkpt lat="53.1215100" lon="-1.8014700"><ele>279.1</ele></trkpt>
            <trkpt lat="53.1212600" lon="-1.8011100"><ele>284.1</ele></trkpt>
            <trkpt lat="53.1208100" lon="-1.8001500"><ele>296.4</ele></trkpt>
            <trkpt lat="53.1205200" lon="-1.7996500"><ele>301.8</ele></trkpt>
            <trkpt lat="53.1201100" lon="-1.7986500"><ele>313.0</ele></trkpt>
            <trkpt lat="53.1195200" lon="-1.7969200"><ele>321.9</ele></trkpt>
            <trkpt lat="53.1190900" lon="-1.7957600"><ele>329.6</ele></trkpt>
            <trkpt lat="53.1198100" lon="-1.7950500"><ele>352.5</ele></trkpt>
            <trkpt lat="53.1213800" lon="-1.7945500"><ele>378.1</ele></trkpt>
            <trkpt lat="53.1218500" lon="-1.7959700"><ele>384.1</ele></trkpt>
            <trkpt lat="53.1219300" lon="-1.7965500"><ele>383.3</ele></trkpt>
            <trkpt lat="53.1218500" lon="-1.7959700"><ele>384.1</ele></trkpt>
            <trkpt lat="53.1213800" lon="-1.7945500"><ele>378.1</ele></trkpt>
            <trkpt lat="53.1198100" lon="-1.7950500"><ele>352.5</ele></trkpt>
            <trkpt lat="53.1190900" lon="-1.7957600"><ele>329.6</ele></trkpt>
            <trkpt lat="53.1195200" lon="-1.7969200"><ele>321.9</ele></trkpt>
            <trkpt lat="53.1201100" lon="-1.7986500"><ele>313.0</ele></trkpt>
            <trkpt lat="53.1205200" lon="-1.7996500"><ele>301.8</ele></trkpt>
            <trkpt lat="53.1208100" lon="-1.8001500"><ele>296.4</ele></trkpt>
            <trkpt lat="53.1212600" lon="-1.8011100"><ele>284.1</ele></trkpt>
            <trkpt lat="53.1215100" lon="-1.8014700"><ele>279.1</ele></trkpt>
            <trkpt lat="53.1226100" lon="-1.8024900"><ele>270.1</ele></trkpt>
            <trkpt lat="53.1226300" lon="-1.8025400"><ele>269.7</ele></trkpt>
            <trkpt lat="53.1226200" lon="-1.8027000"><ele>267.9</ele></trkpt>
            <trkpt lat="53.1224300" lon="-1.8028100"><ele>265.4</ele></trkpt>
            <trkpt lat="53.1223200" lon="-1.8029100"><ele>264.5</ele></trkpt>
            <trkpt lat="53.1222600" lon="-1.8030500"><ele>262.8</ele></trkpt>
            <trkpt lat="53.1221500" lon="-1.8034400"><ele>258.3</ele></trkpt>
            <trkpt lat="53.1221400" lon="-1.8035700"><ele>256.8</ele></trkpt>
            <trkpt lat="53.1222700" lon="-1.8038100"><ele>254.1</ele></trkpt>
            <trkpt lat="53.1224900" lon="-1.8040200"><ele>250.3</ele></trkpt>
            <trkpt lat="53.1226800" lon="-1.8044400"><ele>242.3</ele></trkpt>
            <trkpt lat="53.1230700" lon="-1.8050400"><ele>234.8</ele></trkpt>
            <trkpt lat="53.1233600" lon="-1.8054300"><ele>232.4</ele></trkpt>
            <trkpt lat="53.1234500" lon="-1.8057000"><ele>230.1</ele></trkpt>
            <trkpt lat="53.1234600" lon="-1.8065400"><ele>220.3</ele></trkpt>
            <trkpt lat="53.1234900" lon="-1.8067500"><ele>219.1</ele></trkpt>
            <trkpt lat="53.1236900" lon="-1.8074500"><ele>219.3</ele></trkpt>
            <trkpt lat="53.1239700" lon="-1.8081600"><ele>218.3</ele></trkpt>
            <trkpt lat="53.1242400" lon="-1.8086400"><ele>216.8</ele></trkpt>
            <trkpt lat="53.1246900" lon="-1.8090700"><ele>220.0</ele></trkpt>
            <trkpt lat="53.1247100" lon="-1.8091600"><ele>219.6</ele></trkpt>
            <trkpt lat="53.1246600" lon="-1.8097400"><ele>218.8</ele></trkpt>
            <trkpt lat="53.1246400" lon="-1.8099100"><ele>219.1</ele></trkpt>
            <trkpt lat="53.1246100" lon="-1.8099600"><ele>219.1</ele></trkpt>
            <trkpt lat="53.1249500" lon="-1.8100600"><ele>222.8</ele></trkpt>
            <trkpt lat="53.1253100" lon="-1.8100600"><ele>226.4</ele></trkpt>
            <trkpt lat="53.1256900" lon="-1.8099800"><ele>228.5</ele></trkpt>
            <trkpt lat="53.1258200" lon="-1.8100600"><ele>230.6</ele></trkpt>
            <trkpt lat="53.1259900" lon="-1.8102900"><ele>234.0</ele></trkpt>
            <trkpt lat="53.1260700" lon="-1.8104700"><ele>236.7</ele></trkpt>
            <trkpt lat="53.1261100" lon="-1.8105100"><ele>236.8</ele></trkpt>
            <trkpt lat="53.1261600" lon="-1.8105100"><ele>236.9</ele></trkpt>
            <trkpt lat="53.1262300" lon="-1.8104800"><ele>237.0</ele></trkpt>
            <trkpt lat="53.1263000" lon="-1.8104100"><ele>236.5</ele></trkpt>
            <trkpt lat="53.1269000" lon="-1.8094500"><ele>237.6</ele></trkpt>
            <trkpt lat="53.1269700" lon="-1.8092700"><ele>237.8</ele></trkpt>
            <trkpt lat="53.1270300" lon="-1.8092200"><ele>237.2</ele></trkpt>
            <trkpt lat="53.1271900" lon="-1.8091900"><ele>235.8</ele></trkpt>
            <trkpt lat="53.1273500" lon="-1.8092900"><ele>234.9</ele></trkpt>
            <trkpt lat="53.1275000" lon="-1.8094300"><ele>234.4</ele></trkpt>
            <trkpt lat="53.1276500" lon="-1.8096600"><ele>235.7</ele></trkpt>
            <trkpt lat="53.1279100" lon="-1.8099200"><ele>233.8</ele></trkpt>
            <trkpt lat="53.1281300" lon="-1.8100500"><ele>232.1</ele></trkpt>
            <trkpt lat="53.1289200" lon="-1.8102500"><ele>227.7</ele></trkpt>
            <trkpt lat="53.1290400" lon="-1.8102500"><ele>227.2</ele></trkpt>
            <trkpt lat="53.1297800" lon="-1.8099300"><ele>225.3</ele></trkpt>
            <trkpt lat="53.1303300" lon="-1.8098500"><ele>222.5</ele></trkpt>
            <trkpt lat="53.1305600" lon="-1.8099000"><ele>221.4</ele></trkpt>
            <trkpt lat="53.1314400" lon="-1.8097500"><ele>228.5</ele></trkpt>
            <trkpt lat="53.1322000" lon="-1.8098800"><ele>228.5</ele></trkpt>
            <trkpt lat="53.1327100" lon="-1.8100200"><ele>229.4</ele></trkpt>
            <trkpt lat="53.1330600" lon="-1.8099200"><ele>227.5</ele></trkpt>
            <trkpt lat="53.1340300" lon="-1.8106100"><ele>220.3</ele></trkpt>
            <trkpt lat="53.1342500" lon="-1.8105700"><ele>221.1</ele></trkpt>
            <trkpt lat="53.1350800" lon="-1.8102600"><ele>224.2</ele></trkpt>
            <trkpt lat="53.1351800" lon="-1.8102600"><ele>224.5</ele></trkpt>
            <trkpt lat="53.1354900" lon="-1.8099500"><ele>228.5</ele></trkpt>
            <trkpt lat="53.1359100" lon="-1.8097500"><ele>234.3</ele></trkpt>
            <trkpt lat="53.1361900" lon="-1.8098800"><ele>237.0</ele></trkpt>
            <trkpt lat="53.1364500" lon="-1.8098300"><ele>241.1</ele></trkpt>
            <trkpt lat="53.1367100" lon="-1.8098300"><ele>243.0</ele></trkpt>
            <trkpt lat="53.1369100" lon="-1.8097900"><ele>244.6</ele></trkpt>
            <trkpt lat="53.1376700" lon="-1.8098000"><ele>244.1</ele></trkpt>
            <trkpt lat="53.1379500" lon="-1.8096500"><ele>244.2</ele></trkpt>
            <trkpt lat="53.1380300" lon="-1.8096800"><ele>243.7</ele></trkpt>
            <trkpt lat="53.1387700" lon="-1.8101300"><ele>239.9</ele></trkpt>
            <trkpt lat="53.1389100" lon="-1.8101500"><ele>239.3</ele></trkpt>
            <trkpt lat="53.1391000" lon="-1.8101000"><ele>239.2</ele></trkpt>
            <trkpt lat="53.1393300" lon="-1.8101100"><ele>239.1</ele></trkpt>
            <trkpt lat="53.1396000" lon="-1.8102000"><ele>238.1</ele></trkpt>
            <trkpt lat="53.1396700" lon="-1.8102700"><ele>237.4</ele></trkpt>
            <trkpt lat="53.1397200" lon="-1.8105000"><ele>236.5</ele></trkpt>
            <trkpt lat="53.1397600" lon="-1.8105300"><ele>236.2</ele></trkpt>
            <trkpt lat="53.1398000" lon="-1.8105200"><ele>236.0</ele></trkpt>
            <trkpt lat="53.1398400" lon="-1.8107000"><ele>234.9</ele></trkpt>
            <trkpt lat="53.1402500" lon="-1.8105100"><ele>232.6</ele></trkpt>
            <trkpt lat="53.1404100" lon="-1.8103700"><ele>231.1</ele></trkpt>
            <trkpt lat="53.1405300" lon="-1.8102300"><ele>229.9</ele></trkpt>
            <trkpt lat="53.1407800" lon="-1.8101700"><ele>230.1</ele></trkpt>
        </trkseg>
    </trk>
<!-- ele-hash:8c34e8d467920036 -->
</gpx>
